{
  "type": "FeatureCollection",
  "features": [
    {
      "type": "Feature",
      "geometry": {
        "type": "Point",
        "coordinates": [
          -1.906393,
          51.169951
        ]
      },
      "properties": {
        "id": "P7AI-R70201",
        "source_doc": "TR010025-002269",
        "easting": 406641.0,
        "northing": 141194.0,
        "gl_m_od": 115.88,
        "rockhead_m_od": null,
        "top_units": "topsoil; chalk",
        "notes": "Phase 7a(i) rotary GI. Thin superficial over chalk typical; rockhead left blank pending log transcription.",
        "area": "",
        "glacial_wording": "n",
        "classification": "chalk",
        "class_label": "chalk"
      }
    },
    {
      "type": "Feature",
      "geometry": {
        "type": "Point",
        "coordinates": [
          -1.906265,
          51.169995
        ]
      },
      "properties": {
        "id": "P7AI-CP70201",
        "source_doc": "TR010025-002269",
        "easting": 406650.0,
        "northing": 141199.0,
        "gl_m_od": 115.46,
        "rockhead_m_od": null,
        "top_units": "topsoil; chalk",
        "notes": "Phase 7a(i) cable percussion GI. Thin superficial over chalk typical; rockhead left blank pending log transcription.",
        "area": "",
        "glacial_wording": "n",
        "classification": "chalk",
        "class_label": "chalk"
      }
    },
    {
      "type": "Feature",
      "geometry": {
        "type": "Point",
        "coordinates": [
          -1.905994,
          51.169573
        ]
      },
      "properties": {
        "id": "P7AI-CP70202",
        "source_doc": "TR010025-002269",
        "easting": 406669.0,
        "northing": 141152.0,
        "gl_m_od": 117.5,
        "rockhead_m_od": null,
        "top_units": "topsoil; chalk",
        "notes": "Phase 7a(i) cable percussion GI. Thin superficial over chalk typical; rockhead left blank pending log transcription.",
        "area": "",
        "glacial_wording": "n",
        "classification": "chalk",
        "class_label": "chalk"
      }
    },
    {
      "type": "Feature",
      "geometry": {
        "type": "Point",
        "coordinates": [
          -1.905975,
          51.174473
        ]
      },
      "properties": {
        "id": "STP70502",
        "source_doc": "TR010025-002259",
        "easting": 406669.6,
        "northing": 141697.0,
        "gl_m_od": 87.55,
        "rockhead_m_od": null,
        "top_units": "possible colluvium over chalk",
        "notes": "",
        "area": "",
        "glacial_wording": "n",
        "classification": "colluvium",
        "class_label": "colluvium"
      }
    },
    {
      "type": "Feature",
      "geometry": {
        "type": "Point",
        "coordinates": [
          -1.905879,
          51.169626
        ]
      },
      "properties": {
        "id": "P7AI-R70202",
        "source_doc": "TR010025-002269",
        "easting": 406677.0,
        "northing": 141158.0,
        "gl_m_od": 117.06,
        "rockhead_m_od": null,
        "top_units": "topsoil; chalk",
        "notes": "Phase 7a(i) rotary GI. Thin superficial over chalk typical; rockhead left blank pending log transcription.",
        "area": "",
        "glacial_wording": "n",
        "classification": "chalk",
        "class_label": "chalk"
      }
    },
    {
      "type": "Feature",
      "geometry": {
        "type": "Point",
        "coordinates": [
          -1.905498,
          51.175368
        ]
      },
      "properties": {
        "id": "STP70501",
        "source_doc": "TR010025-002259",
        "easting": 406702.8,
        "northing": 141796.6,
        "gl_m_od": 81.87,
        "rockhead_m_od": null,
        "top_units": "possible colluvium over chalk",
        "notes": "OSL rotary also scheduled at this STP",
        "area": "",
        "glacial_wording": "n",
        "classification": "colluvium",
        "class_label": "colluvium"
      }
    },
    {
      "type": "Feature",
      "geometry": {
        "type": "Point",
        "coordinates": [
          -1.905217,
          51.173054
        ]
      },
      "properties": {
        "id": "STP70504",
        "source_doc": "TR010025-002259",
        "easting": 406722.8,
        "northing": 141539.2,
        "gl_m_od": 87.83,
        "rockhead_m_od": null,
        "top_units": "possible colluvium over chalk",
        "notes": "",
        "area": "",
        "glacial_wording": "n",
        "classification": "colluvium",
        "class_label": "colluvium"
      }
    },
    {
      "type": "Feature",
      "geometry": {
        "type": "Point",
        "coordinates": [
          -1.9047,
          51.174084
        ]
      },
      "properties": {
        "id": "STP70503",
        "source_doc": "TR010025-002259",
        "easting": 406758.8,
        "northing": 141653.8,
        "gl_m_od": 81.26,
        "rockhead_m_od": null,
        "top_units": "possible colluvium over chalk",
        "notes": "OSL core schedule hole",
        "area": "",
        "glacial_wording": "n",
        "classification": "colluvium",
        "class_label": "colluvium"
      }
    },
    {
      "type": "Feature",
      "geometry": {
        "type": "Point",
        "coordinates": [
          -1.903583,
          51.173298
        ]
      },
      "properties": {
        "id": "STP70505",
        "source_doc": "TR010025-002259",
        "easting": 406837.0,
        "northing": 141566.5,
        "gl_m_od": 82.07,
        "rockhead_m_od": null,
        "top_units": "possible colluvium over chalk",
        "notes": "",
        "area": "",
        "glacial_wording": "n",
        "classification": "colluvium",
        "class_label": "colluvium"
      }
    },
    {
      "type": "Feature",
      "geometry": {
        "type": "Point",
        "coordinates": [
          -1.902864,
          51.175091
        ]
      },
      "properties": {
        "id": "STP70507",
        "source_doc": "TR010025-002259",
        "easting": 406887.0,
        "northing": 141766.0,
        "gl_m_od": 87.57,
        "rockhead_m_od": null,
        "top_units": "chalk-dominated trial pit",
        "notes": "",
        "area": "",
        "glacial_wording": "n",
        "classification": "chalk",
        "class_label": "chalk"
      }
    },
    {
      "type": "Feature",
      "geometry": {
        "type": "Point",
        "coordinates": [
          -1.902634,
          51.17555
        ]
      },
      "properties": {
        "id": "STP70506",
        "source_doc": "TR010025-002259",
        "easting": 406903.0,
        "northing": 141817.0,
        "gl_m_od": 91.49,
        "rockhead_m_od": null,
        "top_units": "chalk-dominated trial pit",
        "notes": "colluvium flag unclear in extract window",
        "area": "",
        "glacial_wording": "n",
        "classification": "chalk",
        "class_label": "chalk"
      }
    },
    {
      "type": "Feature",
      "geometry": {
        "type": "Point",
        "coordinates": [
          -1.902179,
          51.174506
        ]
      },
      "properties": {
        "id": "STP70508",
        "source_doc": "TR010025-002259",
        "easting": 406935.0,
        "northing": 141701.0,
        "gl_m_od": 87.02,
        "rockhead_m_od": null,
        "top_units": "possible colluvium over chalk",
        "notes": "",
        "area": "",
        "glacial_wording": "n",
        "classification": "colluvium",
        "class_label": "colluvium"
      }
    },
    {
      "type": "Feature",
      "geometry": {
        "type": "Point",
        "coordinates": [
          -1.90172,
          51.173685
        ]
      },
      "properties": {
        "id": "STP70509",
        "source_doc": "TR010025-002259",
        "easting": 406967.2,
        "northing": 141609.7,
        "gl_m_od": 83.29,
        "rockhead_m_od": null,
        "top_units": "possible colluvium over chalk",
        "notes": "",
        "area": "",
        "glacial_wording": "n",
        "classification": "colluvium",
        "class_label": "colluvium"
      }
    },
    {
      "type": "Feature",
      "geometry": {
        "type": "Point",
        "coordinates": [
          -1.900714,
          51.170279
        ]
      },
      "properties": {
        "id": "STP70601",
        "source_doc": "TR010025-002259",
        "easting": 407038.0,
        "northing": 141231.0,
        "gl_m_od": 92.71,
        "rockhead_m_od": null,
        "top_units": "chalk-dominated trial pit",
        "notes": "",
        "area": "",
        "glacial_wording": "n",
        "classification": "chalk",
        "class_label": "chalk"
      }
    },
    {
      "type": "Feature",
      "geometry": {
        "type": "Point",
        "coordinates": [
          -1.89846,
          51.170524
        ]
      },
      "properties": {
        "id": "STP70602",
        "source_doc": "TR010025-002259",
        "easting": 407195.6,
        "northing": 141258.5,
        "gl_m_od": 84.09,
        "rockhead_m_od": null,
        "top_units": "possible colluvium over chalk",
        "notes": "near Report7 Winterbourne Stoke area",
        "area": "",
        "glacial_wording": "n",
        "classification": "colluvium",
        "class_label": "colluvium"
      }
    },
    {
      "type": "Feature",
      "geometry": {
        "type": "Point",
        "coordinates": [
          -1.898293,
          51.171986
        ]
      },
      "properties": {
        "id": "R7-BH1",
        "source_doc": "TR010025-000588",
        "easting": 407207.06,
        "northing": 141421.1,
        "gl_m_od": 78.61,
        "rockhead_m_od": 75.91,
        "top_units": "ploughsoil; colluvium; coombe chalk; structural chalk",
        "notes": "Winterbourne Stoke coombe transect N end; structureless coombe chalk 1.8–2.7 m bgl",
        "area": "",
        "glacial_wording": "n",
        "classification": "periglacial_coombe",
        "class_label": "periglacial coombe/head"
      }
    },
    {
      "type": "Feature",
      "geometry": {
        "type": "Point",
        "coordinates": [
          -1.898291,
          51.171371
        ]
      },
      "properties": {
        "id": "R7-BH6",
        "source_doc": "TR010025-000588",
        "easting": 407207.25,
        "northing": 141352.72,
        "gl_m_od": 75.88,
        "rockhead_m_od": 71.08,
        "top_units": "ploughsoil; B; colluvium; coombe chalk; buried soil?; coombe chalk; weathered chalk",
        "notes": "S end of transect; buried-soil boundaries too sharp for typical in situ soil — pipe alternative",
        "area": "",
        "glacial_wording": "n",
        "classification": "periglacial_coombe",
        "class_label": "periglacial coombe/head"
      }
    },
    {
      "type": "Feature",
      "geometry": {
        "type": "Point",
        "coordinates": [
          -1.898288,
          51.17154
        ]
      },
      "properties": {
        "id": "R7-BH4",
        "source_doc": "TR010025-000588",
        "easting": 407207.48,
        "northing": 141371.52,
        "gl_m_od": 75.93,
        "rockhead_m_od": 71.33,
        "top_units": "ploughsoil; B horizon; colluvium; coombe chalk; structural chalk",
        "notes": "Near solution/pond-barrow ERT anomaly; thick colluvium",
        "area": "",
        "glacial_wording": "n",
        "classification": "solution",
        "class_label": "solution feature"
      }
    },
    {
      "type": "Feature",
      "geometry": {
        "type": "Point",
        "coordinates": [
          -1.898285,
          51.171455
        ]
      },
      "properties": {
        "id": "R7-BH5",
        "source_doc": "TR010025-000588",
        "easting": 407207.65,
        "northing": 141362.06,
        "gl_m_od": 75.86,
        "rockhead_m_od": 71.11,
        "top_units": "ploughsoil; B; flint lag; colluvium; coombe chalk; buried soil?; coombe chalk; weathered chalk",
        "notes": "Log note possible Allerod soil?? within soliflucted coombe; alt. dissolution pipe (Windermere or pipe)",
        "area": "",
        "glacial_wording": "n",
        "classification": "periglacial_coombe",
        "class_label": "periglacial coombe/head"
      }
    },
    {
      "type": "Feature",
      "geometry": {
        "type": "Point",
        "coordinates": [
          -1.898284,
          51.17163
        ]
      },
      "properties": {
        "id": "R7-BH3",
        "source_doc": "TR010025-000588",
        "easting": 407207.74,
        "northing": 141381.51,
        "gl_m_od": 76.25,
        "rockhead_m_od": 71.75,
        "top_units": "ploughsoil; B horizon; colluvium; coombe chalk; structural chalk",
        "notes": "Standard coombe-colluvium stack",
        "area": "",
        "glacial_wording": "n",
        "classification": "periglacial_coombe",
        "class_label": "periglacial coombe/head"
      }
    },
    {
      "type": "Feature",
      "geometry": {
        "type": "Point",
        "coordinates": [
          -1.898282,
          51.171808
        ]
      },
      "properties": {
        "id": "R7-BH2",
        "source_doc": "TR010025-000588",
        "easting": 407207.83,
        "northing": 141401.33,
        "gl_m_od": 77.23,
        "rockhead_m_od": 72.53,
        "top_units": "ploughsoil; B horizon; flint lag; colluvium; coombe chalk; structural chalk",
        "notes": "Thickened colluvium (~3 m) in probable solution feature; lag in BH2/BH5 only",
        "area": "",
        "glacial_wording": "n",
        "classification": "solution",
        "class_label": "solution feature"
      }
    },
    {
      "type": "Feature",
      "geometry": {
        "type": "Point",
        "coordinates": [
          -1.890711,
          51.172617
        ]
      },
      "properties": {
        "id": "P7AI-R70901",
        "source_doc": "TR010025-002269",
        "easting": 407737.0,
        "northing": 141492.0,
        "gl_m_od": 72.18,
        "rockhead_m_od": null,
        "top_units": "topsoil; gravel/sand; chalk",
        "notes": "Phase 7a(i) rotary near River Till; GL printed. Coords: as-built log or schedule. Rockhead blank.",
        "area": "",
        "glacial_wording": "n",
        "classification": "colluvium",
        "class_label": "colluvium"
      }
    },
    {
      "type": "Feature",
      "geometry": {
        "type": "Point",
        "coordinates": [
          -1.889538,
          51.172553
        ]
      },
      "properties": {
        "id": "P7AI-R70902",
        "source_doc": "TR010025-002269",
        "easting": 407819.0,
        "northing": 141485.0,
        "gl_m_od": 71.77,
        "rockhead_m_od": null,
        "top_units": "topsoil; gravel/sand; chalk",
        "notes": "Phase 7a(i) rotary near River Till. E/N from schedule Table 2-1; GL 71.77 m OD from rotary log. Rockhead blank.",
        "area": "",
        "glacial_wording": "n",
        "classification": "colluvium",
        "class_label": "colluvium"
      }
    },
    {
      "type": "Feature",
      "geometry": {
        "type": "Point",
        "coordinates": [
          -1.888737,
          51.172498
        ]
      },
      "properties": {
        "id": "P7AI-R70903",
        "source_doc": "TR010025-002269",
        "easting": 407875.0,
        "northing": 141479.0,
        "gl_m_od": 71.98,
        "rockhead_m_od": null,
        "top_units": "topsoil; gravel/sand; chalk",
        "notes": "Phase 7a(i) rotary near River Till; GL printed. Coords: as-built log or schedule. Rockhead blank.",
        "area": "",
        "glacial_wording": "n",
        "classification": "colluvium",
        "class_label": "colluvium"
      }
    },
    {
      "type": "Feature",
      "geometry": {
        "type": "Point",
        "coordinates": [
          -1.880902,
          51.171375
        ]
      },
      "properties": {
        "id": "P7AI-CP71002",
        "source_doc": "TR010025-002269",
        "easting": 408423.0,
        "northing": 141355.0,
        "gl_m_od": 95.46,
        "rockhead_m_od": null,
        "top_units": "topsoil; chalk",
        "notes": "Phase 7a(i) cable percussion GI. Thin superficial over chalk typical; rockhead left blank pending log transcription.",
        "area": "",
        "glacial_wording": "n",
        "classification": "chalk",
        "class_label": "chalk"
      }
    },
    {
      "type": "Feature",
      "geometry": {
        "type": "Point",
        "coordinates": [
          -1.880786,
          51.171726
        ]
      },
      "properties": {
        "id": "P7AI-CP71001",
        "source_doc": "TR010025-002269",
        "easting": 408431.0,
        "northing": 141394.0,
        "gl_m_od": 92.52,
        "rockhead_m_od": null,
        "top_units": "topsoil; chalk",
        "notes": "Phase 7a(i) cable percussion GI. Thin superficial over chalk typical; rockhead left blank pending log transcription.",
        "area": "",
        "glacial_wording": "n",
        "classification": "chalk",
        "class_label": "chalk"
      }
    },
    {
      "type": "Feature",
      "geometry": {
        "type": "Point",
        "coordinates": [
          -1.880759,
          51.171348
        ]
      },
      "properties": {
        "id": "P7AI-R71002",
        "source_doc": "TR010025-002269",
        "easting": 408433.0,
        "northing": 141352.0,
        "gl_m_od": 95.61,
        "rockhead_m_od": null,
        "top_units": "topsoil; chalk",
        "notes": "Phase 7a(i) rotary GI. Thin superficial over chalk typical; rockhead left blank pending log transcription.",
        "area": "",
        "glacial_wording": "n",
        "classification": "chalk",
        "class_label": "chalk"
      }
    },
    {
      "type": "Feature",
      "geometry": {
        "type": "Point",
        "coordinates": [
          -1.880643,
          51.171708
        ]
      },
      "properties": {
        "id": "P7AI-R71001",
        "source_doc": "TR010025-002269",
        "easting": 408441.0,
        "northing": 141392.0,
        "gl_m_od": 92.29,
        "rockhead_m_od": null,
        "top_units": "topsoil; chalk",
        "notes": "Phase 7a(i) rotary GI. Thin superficial over chalk typical; rockhead left blank pending log transcription.",
        "area": "",
        "glacial_wording": "n",
        "classification": "chalk",
        "class_label": "chalk"
      }
    },
    {
      "type": "Feature",
      "geometry": {
        "type": "Point",
        "coordinates": [
          -1.875408,
          51.169285
        ]
      },
      "properties": {
        "id": "STP71601",
        "source_doc": "TR010025-002259",
        "easting": 408807.5,
        "northing": 141123.2,
        "gl_m_od": 104.89,
        "rockhead_m_od": null,
        "top_units": "possible colluvium over chalk",
        "notes": "higher Plain GL >100 mOD",
        "area": "",
        "glacial_wording": "n",
        "classification": "colluvium",
        "class_label": "colluvium"
      }
    },
    {
      "type": "Feature",
      "geometry": {
        "type": "Point",
        "coordinates": [
          -1.867501,
          51.170713
        ]
      },
      "properties": {
        "id": "P7AI-R71301",
        "source_doc": "TR010025-002269",
        "easting": 409360.0,
        "northing": 141283.0,
        "gl_m_od": 110.87,
        "rockhead_m_od": null,
        "top_units": "topsoil; chalk",
        "notes": "Phase 7a(i) rotary GI. Thin superficial over chalk typical; rockhead left blank pending log transcription.",
        "area": "",
        "glacial_wording": "n",
        "classification": "chalk",
        "class_label": "chalk"
      }
    },
    {
      "type": "Feature",
      "geometry": {
        "type": "Point",
        "coordinates": [
          -1.867358,
          51.170713
        ]
      },
      "properties": {
        "id": "P7AI-CP71301",
        "source_doc": "TR010025-002269",
        "easting": 409370.0,
        "northing": 141283.0,
        "gl_m_od": 110.92,
        "rockhead_m_od": null,
        "top_units": "topsoil; chalk",
        "notes": "Phase 7a(i) cable percussion GI. Thin superficial over chalk typical; rockhead left blank pending log transcription.",
        "area": "",
        "glacial_wording": "n",
        "classification": "chalk",
        "class_label": "chalk"
      }
    },
    {
      "type": "Feature",
      "geometry": {
        "type": "Point",
        "coordinates": [
          -1.867073,
          51.170353
        ]
      },
      "properties": {
        "id": "P7AI-R71302",
        "source_doc": "TR010025-002269",
        "easting": 409390.0,
        "northing": 141243.0,
        "gl_m_od": 111.52,
        "rockhead_m_od": null,
        "top_units": "topsoil; chalk",
        "notes": "Phase 7a(i) rotary GI. Thin superficial over chalk typical; rockhead left blank pending log transcription.",
        "area": "",
        "glacial_wording": "n",
        "classification": "chalk",
        "class_label": "chalk"
      }
    },
    {
      "type": "Feature",
      "geometry": {
        "type": "Point",
        "coordinates": [
          -1.86693,
          51.170353
        ]
      },
      "properties": {
        "id": "P7AI-CP71302",
        "source_doc": "TR010025-002269",
        "easting": 409400.0,
        "northing": 141243.0,
        "gl_m_od": 111.59,
        "rockhead_m_od": null,
        "top_units": "topsoil; chalk",
        "notes": "Phase 7a(i) cable percussion GI. Thin superficial over chalk typical; rockhead left blank pending log transcription.",
        "area": "",
        "glacial_wording": "n",
        "classification": "chalk",
        "class_label": "chalk"
      }
    },
    {
      "type": "Feature",
      "geometry": {
        "type": "Point",
        "coordinates": [
          -1.862598,
          51.200561
        ]
      },
      "properties": {
        "id": "TP-A",
        "source_doc": "TR010025-002259",
        "easting": 409696.58,
        "northing": 144603.02,
        "gl_m_od": 116.29,
        "rockhead_m_od": null,
        "top_units": "infiltration pit; possible colluvium",
        "notes": "Longbarrow area; high GL",
        "area": "",
        "glacial_wording": "n",
        "classification": "colluvium",
        "class_label": "colluvium"
      }
    },
    {
      "type": "Feature",
      "geometry": {
        "type": "Point",
        "coordinates": [
          -1.862423,
          51.19949
        ]
      },
      "properties": {
        "id": "TP-B",
        "source_doc": "TR010025-002259",
        "easting": 409709.07,
        "northing": 144483.9,
        "gl_m_od": 113.01,
        "rockhead_m_od": null,
        "top_units": "infiltration pit; possible colluvium",
        "notes": "",
        "area": "",
        "glacial_wording": "n",
        "classification": "colluvium",
        "class_label": "colluvium"
      }
    },
    {
      "type": "Feature",
      "geometry": {
        "type": "Point",
        "coordinates": [
          -1.860845,
          51.200421
        ]
      },
      "properties": {
        "id": "TP-C",
        "source_doc": "TR010025-002259",
        "easting": 409819.12,
        "northing": 144587.71,
        "gl_m_od": 112.38,
        "rockhead_m_od": null,
        "top_units": "infiltration pit; possible colluvium",
        "notes": "",
        "area": "",
        "glacial_wording": "n",
        "classification": "colluvium",
        "class_label": "colluvium"
      }
    },
    {
      "type": "Feature",
      "geometry": {
        "type": "Point",
        "coordinates": [
          -1.858418,
          51.170766
        ]
      },
      "properties": {
        "id": "R4-T202",
        "source_doc": "TR010025-000582",
        "easting": 409995.0,
        "northing": 141290.0,
        "gl_m_od": 106.85,
        "rockhead_m_od": null,
        "top_units": "ploughsoil; chalk",
        "notes": "Report 4: ploughsoil over chalk (mixed/powdery, water-percolation appearance).",
        "area": "",
        "glacial_wording": "n",
        "classification": "chalk",
        "class_label": "chalk"
      }
    },
    {
      "type": "Feature",
      "geometry": {
        "type": "Point",
        "coordinates": [
          -1.857659,
          51.171205
        ]
      },
      "properties": {
        "id": "R4-T224",
        "source_doc": "TR010025-000582",
        "easting": 410048.0,
        "northing": 141339.0,
        "gl_m_od": 106.01,
        "rockhead_m_od": null,
        "top_units": "ploughsoil; chalk with periglacial striping",
        "notes": "Report 4: chalk surface mixed by root disturbance and periglacial striping.",
        "area": "",
        "glacial_wording": "n",
        "classification": "periglacial_coombe",
        "class_label": "periglacial coombe/head"
      }
    },
    {
      "type": "Feature",
      "geometry": {
        "type": "Point",
        "coordinates": [
          -1.857273,
          51.171232
        ]
      },
      "properties": {
        "id": "R4-T223",
        "source_doc": "TR010025-000582",
        "easting": 410075.0,
        "northing": 141342.0,
        "gl_m_od": 105.94,
        "rockhead_m_od": null,
        "top_units": "ploughsoil; chalk with periglacial striping",
        "notes": "Report 4: chalk bedrock surface disturbed by periglacial striping.",
        "area": "",
        "glacial_wording": "n",
        "classification": "periglacial_coombe",
        "class_label": "periglacial coombe/head"
      }
    },
    {
      "type": "Feature",
      "geometry": {
        "type": "Point",
        "coordinates": [
          -1.856957,
          51.171429
        ]
      },
      "properties": {
        "id": "R4-T233",
        "source_doc": "TR010025-000582",
        "easting": 410097.0,
        "northing": 141364.0,
        "gl_m_od": 106.1,
        "rockhead_m_od": null,
        "top_units": "ploughsoil; compacted chalk",
        "notes": "Report 4: compacted chalk natural.",
        "area": "",
        "glacial_wording": "n",
        "classification": "chalk",
        "class_label": "chalk"
      }
    },
    {
      "type": "Feature",
      "geometry": {
        "type": "Point",
        "coordinates": [
          -1.856573,
          51.170952
        ]
      },
      "properties": {
        "id": "R4-T231",
        "source_doc": "TR010025-000582",
        "easting": 410124.0,
        "northing": 141311.0,
        "gl_m_od": 103.78,
        "rockhead_m_od": null,
        "top_units": "ploughsoil; chalk; abundant periglacial action",
        "notes": "Report 4: degraded chalk surface; abundant periglacial action.",
        "area": "",
        "glacial_wording": "n",
        "classification": "periglacial_coombe",
        "class_label": "periglacial coombe/head"
      }
    },
    {
      "type": "Feature",
      "geometry": {
        "type": "Point",
        "coordinates": [
          -1.8565,
          51.171321
        ]
      },
      "properties": {
        "id": "R4-T222",
        "source_doc": "TR010025-000582",
        "easting": 410129.0,
        "northing": 141352.0,
        "gl_m_od": 105.38,
        "rockhead_m_od": null,
        "top_units": "ploughsoil; chalk; rare periglacial striations",
        "notes": "Report 4: chalk with rare periglacial striations.",
        "area": "",
        "glacial_wording": "n",
        "classification": "periglacial_coombe",
        "class_label": "periglacial coombe/head"
      }
    },
    {
      "type": "Feature",
      "geometry": {
        "type": "Point",
        "coordinates": [
          -1.85647,
          51.171761
        ]
      },
      "properties": {
        "id": "R4-T225",
        "source_doc": "TR010025-000582",
        "easting": 410131.0,
        "northing": 141401.0,
        "gl_m_od": 106.13,
        "rockhead_m_od": null,
        "top_units": "ploughsoil; chalk",
        "notes": "Report 4: chalk natural under ploughsoil.",
        "area": "",
        "glacial_wording": "n",
        "classification": "chalk",
        "class_label": "chalk"
      }
    },
    {
      "type": "Feature",
      "geometry": {
        "type": "Point",
        "coordinates": [
          -1.856358,
          51.171051
        ]
      },
      "properties": {
        "id": "R4-T219",
        "source_doc": "TR010025-000582",
        "easting": 410139.0,
        "northing": 141322.0,
        "gl_m_od": 103.77,
        "rockhead_m_od": null,
        "top_units": "ploughsoil; chalk with periglacial weathering",
        "notes": "Report 4: chalk with patchy periglacial weathering.",
        "area": "",
        "glacial_wording": "n",
        "classification": "periglacial_coombe",
        "class_label": "periglacial coombe/head"
      }
    },
    {
      "type": "Feature",
      "geometry": {
        "type": "Point",
        "coordinates": [
          -1.85612,
          51.174072
        ]
      },
      "properties": {
        "id": "R4-T226",
        "source_doc": "TR010025-000582",
        "easting": 410155.0,
        "northing": 141658.0,
        "gl_m_od": 102.26,
        "rockhead_m_od": null,
        "top_units": "ploughsoil; chalk with periglacial striping",
        "notes": "Report 4: plough-truncated chalk; periglacial striping present.",
        "area": "",
        "glacial_wording": "n",
        "classification": "periglacial_coombe",
        "class_label": "periglacial coombe/head"
      }
    },
    {
      "type": "Feature",
      "geometry": {
        "type": "Point",
        "coordinates": [
          -1.8561,
          51.171311
        ]
      },
      "properties": {
        "id": "R4-T218",
        "source_doc": "TR010025-000582",
        "easting": 410157.0,
        "northing": 141351.0,
        "gl_m_od": 104.9,
        "rockhead_m_od": null,
        "top_units": "ploughsoil; chalk",
        "notes": "Report 4: compacted chalk natural.",
        "area": "",
        "glacial_wording": "n",
        "classification": "chalk",
        "class_label": "chalk"
      }
    },
    {
      "type": "Feature",
      "geometry": {
        "type": "Point",
        "coordinates": [
          -1.855956,
          51.17159
        ]
      },
      "properties": {
        "id": "P7AI-R71701",
        "source_doc": "TR010025-002269",
        "easting": 410167.0,
        "northing": 141382.0,
        "gl_m_od": 105.22,
        "rockhead_m_od": null,
        "top_units": "topsoil; chalk",
        "notes": "Phase 7a(i) rotary GI. Thin superficial over chalk typical; rockhead left blank pending log transcription.",
        "area": "",
        "glacial_wording": "n",
        "classification": "chalk",
        "class_label": "chalk"
      }
    },
    {
      "type": "Feature",
      "geometry": {
        "type": "Point",
        "coordinates": [
          -1.855913,
          51.171572
        ]
      },
      "properties": {
        "id": "P7AI-CP71701",
        "source_doc": "TR010025-002269",
        "easting": 410170.0,
        "northing": 141380.0,
        "gl_m_od": 105.1,
        "rockhead_m_od": null,
        "top_units": "topsoil; chalk",
        "notes": "Phase 7a(i) cable percussion GI. Thin superficial over chalk typical; rockhead left blank pending log transcription.",
        "area": "",
        "glacial_wording": "n",
        "classification": "chalk",
        "class_label": "chalk"
      }
    },
    {
      "type": "Feature",
      "geometry": {
        "type": "Point",
        "coordinates": [
          -1.85577,
          51.1715
        ]
      },
      "properties": {
        "id": "R4-T217",
        "source_doc": "TR010025-000582",
        "easting": 410180.0,
        "northing": 141372.0,
        "gl_m_od": 105.15,
        "rockhead_m_od": null,
        "top_units": "ploughsoil; chalk",
        "notes": "Report 4: creamy white chalk with bioturbation/plough scars.",
        "area": "",
        "glacial_wording": "n",
        "classification": "chalk",
        "class_label": "chalk"
      }
    },
    {
      "type": "Feature",
      "geometry": {
        "type": "Point",
        "coordinates": [
          -1.855628,
          51.171167
        ]
      },
      "properties": {
        "id": "R4-T232",
        "source_doc": "TR010025-000582",
        "easting": 410190.0,
        "northing": 141335.0,
        "gl_m_od": 103.33,
        "rockhead_m_od": null,
        "top_units": "ploughsoil; chalk with periglacial striping",
        "notes": "Report 4: chalk with periglacial striping.",
        "area": "",
        "glacial_wording": "n",
        "classification": "periglacial_coombe",
        "class_label": "periglacial coombe/head"
      }
    },
    {
      "type": "Feature",
      "geometry": {
        "type": "Point",
        "coordinates": [
          -1.855485,
          51.171167
        ]
      },
      "properties": {
        "id": "P7AI-CP71702",
        "source_doc": "TR010025-002269",
        "easting": 410200.0,
        "northing": 141335.0,
        "gl_m_od": 102.72,
        "rockhead_m_od": null,
        "top_units": "topsoil; chalk",
        "notes": "Phase 7a(i) cable percussion GI. Thin superficial over chalk typical; rockhead left blank pending log transcription.",
        "area": "",
        "glacial_wording": "n",
        "classification": "chalk",
        "class_label": "chalk"
      }
    },
    {
      "type": "Feature",
      "geometry": {
        "type": "Point",
        "coordinates": [
          -1.85524,
          51.171634
        ]
      },
      "properties": {
        "id": "R4-T220",
        "source_doc": "TR010025-000582",
        "easting": 410217.0,
        "northing": 141387.0,
        "gl_m_od": 105.79,
        "rockhead_m_od": null,
        "top_units": "ploughsoil; chalk with periglacial striping NW–SE",
        "notes": "Report 4: white chalk; periglacial striping orientated NW–SE.",
        "area": "",
        "glacial_wording": "n",
        "classification": "periglacial_coombe",
        "class_label": "periglacial coombe/head"
      }
    },
    {
      "type": "Feature",
      "geometry": {
        "type": "Point",
        "coordinates": [
          -1.855011,
          51.171895
        ]
      },
      "properties": {
        "id": "R4-T203",
        "source_doc": "TR010025-000582",
        "easting": 410233.0,
        "northing": 141416.0,
        "gl_m_od": 105.06,
        "rockhead_m_od": null,
        "top_units": "ploughsoil; weathered chalk; chalk with periglacial striping",
        "notes": "Report 4: pure chalk with periglacial striping.",
        "area": "",
        "glacial_wording": "n",
        "classification": "periglacial_coombe",
        "class_label": "periglacial coombe/head"
      }
    },
    {
      "type": "Feature",
      "geometry": {
        "type": "Point",
        "coordinates": [
          -1.85484,
          51.171481
        ]
      },
      "properties": {
        "id": "R4-T234",
        "source_doc": "TR010025-000582",
        "easting": 410245.0,
        "northing": 141370.0,
        "gl_m_od": 102.21,
        "rockhead_m_od": null,
        "top_units": "ploughsoil; chalk with periglacial striping NW–SE",
        "notes": "Report 4: degraded chalk with periglacial striping NW–SE.",
        "area": "",
        "glacial_wording": "n",
        "classification": "periglacial_coombe",
        "class_label": "periglacial coombe/head"
      }
    },
    {
      "type": "Feature",
      "geometry": {
        "type": "Point",
        "coordinates": [
          -1.854755,
          51.171247
        ]
      },
      "properties": {
        "id": "R4-T215",
        "source_doc": "TR010025-000582",
        "easting": 410251.0,
        "northing": 141344.0,
        "gl_m_od": 104.09,
        "rockhead_m_od": null,
        "top_units": "ploughsoil; soliflucted chalk with periglacial stripes",
        "notes": "Report 4: soliflucted chalk / periglacial stripes.",
        "area": "",
        "glacial_wording": "n",
        "classification": "periglacial_coombe",
        "class_label": "periglacial coombe/head"
      }
    },
    {
      "type": "Feature",
      "geometry": {
        "type": "Point",
        "coordinates": [
          -1.854468,
          51.171732
        ]
      },
      "properties": {
        "id": "R4-T235",
        "source_doc": "TR010025-000582",
        "easting": 410271.0,
        "northing": 141398.0,
        "gl_m_od": 102.69,
        "rockhead_m_od": null,
        "top_units": "ploughsoil; weathered blocky chalk",
        "notes": "Report 4: weathered surface of blocky chalk bedrock.",
        "area": "",
        "glacial_wording": "n",
        "classification": "chalk",
        "class_label": "chalk"
      }
    },
    {
      "type": "Feature",
      "geometry": {
        "type": "Point",
        "coordinates": [
          -1.854137,
          51.17219
        ]
      },
      "properties": {
        "id": "R4-T238",
        "source_doc": "TR010025-000582",
        "easting": 410294.0,
        "northing": 141449.0,
        "gl_m_od": 102.9,
        "rockhead_m_od": null,
        "top_units": "ploughsoil; chalk",
        "notes": "Report 4: moderately compact chalk; rare angular flint cobbles.",
        "area": "",
        "glacial_wording": "n",
        "classification": "chalk",
        "class_label": "chalk"
      }
    },
    {
      "type": "Feature",
      "geometry": {
        "type": "Point",
        "coordinates": [
          -1.853408,
          51.172189
        ]
      },
      "properties": {
        "id": "R4-T237",
        "source_doc": "TR010025-000582",
        "easting": 410345.0,
        "northing": 141449.0,
        "gl_m_od": 102.9,
        "rockhead_m_od": null,
        "top_units": "ploughsoil; chalk with periglacial stripes",
        "notes": "Report 4: chalk with periglacial stripes.",
        "area": "",
        "glacial_wording": "n",
        "classification": "periglacial_coombe",
        "class_label": "periglacial coombe/head"
      }
    },
    {
      "type": "Feature",
      "geometry": {
        "type": "Point",
        "coordinates": [
          -1.853408,
          51.172243
        ]
      },
      "properties": {
        "id": "R4-T239",
        "source_doc": "TR010025-000582",
        "easting": 410345.0,
        "northing": 141455.0,
        "gl_m_od": 102.91,
        "rockhead_m_od": null,
        "top_units": "ploughsoil; chalk; rare periglacial striping",
        "notes": "Report 4: moderately compact chalk; rare periglacial striping.",
        "area": "",
        "glacial_wording": "n",
        "classification": "periglacial_coombe",
        "class_label": "periglacial coombe/head"
      }
    },
    {
      "type": "Feature",
      "geometry": {
        "type": "Point",
        "coordinates": [
          -1.853123,
          51.171865
        ]
      },
      "properties": {
        "id": "R4-T240",
        "source_doc": "TR010025-000582",
        "easting": 410365.0,
        "northing": 141413.0,
        "gl_m_od": 99.72,
        "rockhead_m_od": null,
        "top_units": "ploughsoil; chalk cobbles and flint",
        "notes": "Report 4: chalk cobbles and angular flints as natural.",
        "area": "",
        "glacial_wording": "n",
        "classification": "chalk",
        "class_label": "chalk"
      }
    },
    {
      "type": "Feature",
      "geometry": {
        "type": "Point",
        "coordinates": [
          -1.852849,
          51.17244
        ]
      },
      "properties": {
        "id": "R4-T244",
        "source_doc": "TR010025-000582",
        "easting": 410384.0,
        "northing": 141477.0,
        "gl_m_od": 101.81,
        "rockhead_m_od": null,
        "top_units": "ploughsoil; chalk with periglacial scarring",
        "notes": "Report 4: white bedrock chalk with periglacial scarring and modern plough scarring.",
        "area": "",
        "glacial_wording": "n",
        "classification": "periglacial_coombe",
        "class_label": "periglacial coombe/head"
      }
    },
    {
      "type": "Feature",
      "geometry": {
        "type": "Point",
        "coordinates": [
          -1.852664,
          51.172143
        ]
      },
      "properties": {
        "id": "R4-T243",
        "source_doc": "TR010025-000582",
        "easting": 410397.0,
        "northing": 141444.0,
        "gl_m_od": 100.53,
        "rockhead_m_od": null,
        "top_units": "ploughsoil; chalk with abundant periglacial striping",
        "notes": "Report 4: chalk with abundant periglacial striping NW–SE.",
        "area": "",
        "glacial_wording": "n",
        "classification": "periglacial_coombe",
        "class_label": "periglacial coombe/head"
      }
    },
    {
      "type": "Feature",
      "geometry": {
        "type": "Point",
        "coordinates": [
          -1.852637,
          51.171712
        ]
      },
      "properties": {
        "id": "R4-T241",
        "source_doc": "TR010025-000582",
        "easting": 410399.0,
        "northing": 141396.0,
        "gl_m_od": 99.48,
        "rockhead_m_od": null,
        "top_units": "ploughsoil; glacial coombe (field wording)",
        "notes": "Western Portal & Approach (Normanton Down); area=western approach interfluve; glacial_wording_cluster=western_r4. Context 24102: \"Compact, saluted chalk, glacial coombe deposit\" (= soliflucted coombe; peri-glacial). Same §5.2 coombe-crossing group as T247/T248/T263.",
        "area": "western_approach_interfluve",
        "glacial_wording": "y",
        "classification": "periglacial_coombe",
        "class_label": "periglacial coombe/head"
      }
    },
    {
      "type": "Feature",
      "geometry": {
        "type": "Point",
        "coordinates": [
          -1.852305,
          51.172449
        ]
      },
      "properties": {
        "id": "R4-T245",
        "source_doc": "TR010025-000582",
        "easting": 410422.0,
        "northing": 141478.0,
        "gl_m_od": 100.56,
        "rockhead_m_od": null,
        "top_units": "ploughsoil; chalk rubble with periglacial striping",
        "notes": "Report 4: chalk rubble; periglacial striping and plough scars.",
        "area": "",
        "glacial_wording": "n",
        "classification": "periglacial_coombe",
        "class_label": "periglacial coombe/head"
      }
    },
    {
      "type": "Feature",
      "geometry": {
        "type": "Point",
        "coordinates": [
          -1.851949,
          51.172169
        ]
      },
      "properties": {
        "id": "R4-T246",
        "source_doc": "TR010025-000582",
        "easting": 410447.0,
        "northing": 141447.0,
        "gl_m_od": 100.98,
        "rockhead_m_od": null,
        "top_units": "ploughsoil; soliflucted chalk with periglacial stripes",
        "notes": "Report 4: soliflucted chalk with periglacial stripes.",
        "area": "",
        "glacial_wording": "n",
        "classification": "periglacial_coombe",
        "class_label": "periglacial coombe/head"
      }
    },
    {
      "type": "Feature",
      "geometry": {
        "type": "Point",
        "coordinates": [
          -1.851893,
          51.171828
        ]
      },
      "properties": {
        "id": "R4-T247",
        "source_doc": "TR010025-000582",
        "easting": 410451.0,
        "northing": 141409.0,
        "gl_m_od": 98.99,
        "rockhead_m_od": null,
        "top_units": "ploughsoil; possible colluvium; glacially affected coombe chalk",
        "notes": "Western Portal & Approach; area=western approach interfluve; glacial_wording_cluster=western_r4. Report 4: possible colluvial subsoil over \"Glacially affected coombe chalk\" (= peri-glacial coombe). Same §5.2 group as T241/T248/T263.",
        "area": "western_approach_interfluve",
        "glacial_wording": "y",
        "classification": "periglacial_coombe",
        "class_label": "periglacial coombe/head"
      }
    },
    {
      "type": "Feature",
      "geometry": {
        "type": "Point",
        "coordinates": [
          -1.851363,
          51.172043
        ]
      },
      "properties": {
        "id": "R4-T248",
        "source_doc": "TR010025-000582",
        "easting": 410488.0,
        "northing": 141433.0,
        "gl_m_od": 98.72,
        "rockhead_m_od": null,
        "top_units": "ploughsoil; possible colluvium; glacially affected coombe chalk",
        "notes": "Western Portal & Approach; area=western approach interfluve; glacial_wording_cluster=western_r4. Report 4: possible colluvial subsoil over \"Glacially affected coombe chalk\". Same §5.2 group as T241/T247/T263.",
        "area": "western_approach_interfluve",
        "glacial_wording": "y",
        "classification": "periglacial_coombe",
        "class_label": "periglacial coombe/head"
      }
    },
    {
      "type": "Feature",
      "geometry": {
        "type": "Point",
        "coordinates": [
          -1.851232,
          51.172771
        ]
      },
      "properties": {
        "id": "R4-T252",
        "source_doc": "TR010025-000582",
        "easting": 410497.0,
        "northing": 141514.0,
        "gl_m_od": 99.44,
        "rockhead_m_od": null,
        "top_units": "ploughsoil; blocky chalk; N–S periglacial striping",
        "notes": "Report 4: blocky chalk; common N–S periglacial striping.",
        "area": "",
        "glacial_wording": "n",
        "classification": "periglacial_coombe",
        "class_label": "periglacial coombe/head"
      }
    },
    {
      "type": "Feature",
      "geometry": {
        "type": "Point",
        "coordinates": [
          -1.851104,
          51.172573
        ]
      },
      "properties": {
        "id": "R4-T253",
        "source_doc": "TR010025-000582",
        "easting": 410506.0,
        "northing": 141492.0,
        "gl_m_od": 98.86,
        "rockhead_m_od": null,
        "top_units": "ploughsoil; blocky chalk; SE–NW periglacial striping",
        "notes": "Report 4: blocky chalk; common SE–NW periglacial striping.",
        "area": "",
        "glacial_wording": "n",
        "classification": "periglacial_coombe",
        "class_label": "periglacial coombe/head"
      }
    },
    {
      "type": "Feature",
      "geometry": {
        "type": "Point",
        "coordinates": [
          -1.850947,
          51.172312
        ]
      },
      "properties": {
        "id": "R4-T250",
        "source_doc": "TR010025-000582",
        "easting": 410517.0,
        "northing": 141463.0,
        "gl_m_od": 98.4,
        "rockhead_m_od": null,
        "top_units": "ploughsoil; solifluction chalk in shallow coombe",
        "notes": "Report 4: solifluction chalk in base of shallow coombe.",
        "area": "",
        "glacial_wording": "n",
        "classification": "periglacial_coombe",
        "class_label": "periglacial coombe/head"
      }
    },
    {
      "type": "Feature",
      "geometry": {
        "type": "Point",
        "coordinates": [
          -1.850946,
          51.172546
        ]
      },
      "properties": {
        "id": "R4-T251",
        "source_doc": "TR010025-000582",
        "easting": 410517.0,
        "northing": 141489.0,
        "gl_m_od": 99.24,
        "rockhead_m_od": null,
        "top_units": "ploughsoil; chalk with periglacial striping",
        "notes": "Report 4: chalk with periglacial striping.",
        "area": "",
        "glacial_wording": "n",
        "classification": "periglacial_coombe",
        "class_label": "periglacial coombe/head"
      }
    },
    {
      "type": "Feature",
      "geometry": {
        "type": "Point",
        "coordinates": [
          -1.850805,
          51.172033
        ]
      },
      "properties": {
        "id": "R4-T249",
        "source_doc": "TR010025-000582",
        "easting": 410527.0,
        "northing": 141432.0,
        "gl_m_od": 98.82,
        "rockhead_m_od": null,
        "top_units": "ploughsoil; colluvium; soliflucted chalk",
        "notes": "Report 4: colluvium over soliflucted chalk.",
        "area": "",
        "glacial_wording": "n",
        "classification": "periglacial_coombe",
        "class_label": "periglacial coombe/head"
      }
    },
    {
      "type": "Feature",
      "geometry": {
        "type": "Point",
        "coordinates": [
          -1.850488,
          51.172716
        ]
      },
      "properties": {
        "id": "R4-T259",
        "source_doc": "TR010025-000582",
        "easting": 410549.0,
        "northing": 141508.0,
        "gl_m_od": 97.88,
        "rockhead_m_od": null,
        "top_units": "ploughsoil; blocky chalk; occasional periglacial striping",
        "notes": "Report 4: blocky chalk; occasional periglacial striping in N half.",
        "area": "",
        "glacial_wording": "n",
        "classification": "periglacial_coombe",
        "class_label": "periglacial coombe/head"
      }
    },
    {
      "type": "Feature",
      "geometry": {
        "type": "Point",
        "coordinates": [
          -1.850275,
          51.172104
        ]
      },
      "properties": {
        "id": "R4-T255",
        "source_doc": "TR010025-000582",
        "easting": 410564.0,
        "northing": 141440.0,
        "gl_m_od": 98.66,
        "rockhead_m_od": null,
        "top_units": "ploughsoil; blocky chalk; ~50% periglacial striping",
        "notes": "Report 4: blocky chalk; approx. 50% periglacial striping.",
        "area": "",
        "glacial_wording": "n",
        "classification": "periglacial_coombe",
        "class_label": "periglacial coombe/head"
      }
    },
    {
      "type": "Feature",
      "geometry": {
        "type": "Point",
        "coordinates": [
          -1.849903,
          51.172239
        ]
      },
      "properties": {
        "id": "R4-T256",
        "source_doc": "TR010025-000582",
        "easting": 410590.0,
        "northing": 141455.0,
        "gl_m_od": 98.29,
        "rockhead_m_od": null,
        "top_units": "ploughsoil; blocky chalk; N–S periglacial striping",
        "notes": "Report 4: firm blocky chalk; common periglacial striping N–S.",
        "area": "",
        "glacial_wording": "n",
        "classification": "periglacial_coombe",
        "class_label": "periglacial coombe/head"
      }
    },
    {
      "type": "Feature",
      "geometry": {
        "type": "Point",
        "coordinates": [
          -1.849873,
          51.172823
        ]
      },
      "properties": {
        "id": "R4-T260",
        "source_doc": "TR010025-000582",
        "easting": 410592.0,
        "northing": 141520.0,
        "gl_m_od": 98.07,
        "rockhead_m_od": null,
        "top_units": "ploughsoil; subsoil; chalky natural",
        "notes": "Report 4: thin subsoil over white chalky gravelly natural — no peri/coombe label on natural.",
        "area": "",
        "glacial_wording": "n",
        "classification": "chalk",
        "class_label": "chalk"
      }
    },
    {
      "type": "Feature",
      "geometry": {
        "type": "Point",
        "coordinates": [
          -1.849802,
          51.172481
        ]
      },
      "properties": {
        "id": "R4-T258",
        "source_doc": "TR010025-000582",
        "easting": 410597.0,
        "northing": 141482.0,
        "gl_m_od": 97.49,
        "rockhead_m_od": null,
        "top_units": "ploughsoil; colluvial subsoil in shallow coombe; solifluction chalk",
        "notes": "Gazetteer id was R4-T597 (easting fragment); Report 4 sheet is Trench 258 at this NGR/OD. Colluvial subsoil filling base of shallow coombe over solifluction chalk; also blocky chalk with periglacial striping.",
        "area": "",
        "glacial_wording": "n",
        "classification": "periglacial_coombe",
        "class_label": "periglacial coombe/head"
      }
    },
    {
      "type": "Feature",
      "geometry": {
        "type": "Point",
        "coordinates": [
          -1.849457,
          51.173056
        ]
      },
      "properties": {
        "id": "R4-T261",
        "source_doc": "TR010025-000582",
        "easting": 410621.0,
        "northing": 141546.0,
        "gl_m_od": 98.03,
        "rockhead_m_od": null,
        "top_units": "ploughsoil; chalk with periglacial stripes",
        "notes": "Report 4: white chalk; common periglacial stripes and plough scars.",
        "area": "",
        "glacial_wording": "n",
        "classification": "periglacial_coombe",
        "class_label": "periglacial coombe/head"
      }
    },
    {
      "type": "Feature",
      "geometry": {
        "type": "Point",
        "coordinates": [
          -1.848958,
          51.172588
        ]
      },
      "properties": {
        "id": "R4-T262",
        "source_doc": "TR010025-000582",
        "easting": 410656.0,
        "northing": 141494.0,
        "gl_m_od": 97.11,
        "rockhead_m_od": null,
        "top_units": "ploughsoil; colluvium (N downslope); chalk with periglacial striping",
        "notes": "Report 4: colluvium on northern downslope; yellow-white degraded chalk with periglacial striping.",
        "area": "",
        "glacial_wording": "n",
        "classification": "periglacial_coombe",
        "class_label": "periglacial coombe/head"
      }
    },
    {
      "type": "Feature",
      "geometry": {
        "type": "Point",
        "coordinates": [
          -1.848742,
          51.172948
        ]
      },
      "properties": {
        "id": "R4-T266",
        "source_doc": "TR010025-000582",
        "easting": 410671.0,
        "northing": 141534.0,
        "gl_m_od": 96.61,
        "rockhead_m_od": null,
        "top_units": "ploughsoil; subsoil; chalk",
        "notes": "Report 4: thin subsoil over light greyish yellow chalk natural.",
        "area": "",
        "glacial_wording": "n",
        "classification": "chalk",
        "class_label": "chalk"
      }
    },
    {
      "type": "Feature",
      "geometry": {
        "type": "Point",
        "coordinates": [
          -1.848414,
          51.17265
        ]
      },
      "properties": {
        "id": "R4-T263",
        "source_doc": "TR010025-000582",
        "easting": 410694.0,
        "northing": 141501.0,
        "gl_m_od": 96.82,
        "rockhead_m_od": null,
        "top_units": "ploughsoil; colluvium; chalk; solution/scour features",
        "notes": "Western Portal & Approach; area=western approach interfluve; glacial_wording_cluster=western_r4. Contexts 26307–26308: \"glacial scouring and solution hollows\"; \"scarring from glaciation\" — field wording beside solution/peri-glacial hollows. Same §5.2 group as T241/T247/T248.",
        "area": "western_approach_interfluve",
        "glacial_wording": "y",
        "classification": "solution",
        "class_label": "solution feature"
      }
    },
    {
      "type": "Feature",
      "geometry": {
        "type": "Point",
        "coordinates": [
          -1.848057,
          51.172632
        ]
      },
      "properties": {
        "id": "R4-T265",
        "source_doc": "TR010025-000582",
        "easting": 410719.0,
        "northing": 141499.0,
        "gl_m_od": 97.05,
        "rockhead_m_od": null,
        "top_units": "ploughsoil; probable colluvium; chalk with periglacial striping",
        "notes": "Report 4: disturbed chalk bedrock with periglacial striping; probable colluvium.",
        "area": "",
        "glacial_wording": "n",
        "classification": "periglacial_coombe",
        "class_label": "periglacial coombe/head"
      }
    },
    {
      "type": "Feature",
      "geometry": {
        "type": "Point",
        "coordinates": [
          -1.847998,
          51.173109
        ]
      },
      "properties": {
        "id": "R4-T267",
        "source_doc": "TR010025-000582",
        "easting": 410723.0,
        "northing": 141552.0,
        "gl_m_od": 96.26,
        "rockhead_m_od": null,
        "top_units": "ploughsoil; subsoil; degraded chalk with large periglacial striping",
        "notes": "Report 4: degraded chalk bedrock; large periglacial stripings.",
        "area": "",
        "glacial_wording": "n",
        "classification": "periglacial_coombe",
        "class_label": "periglacial coombe/head"
      }
    },
    {
      "type": "Feature",
      "geometry": {
        "type": "Point",
        "coordinates": [
          -1.847727,
          51.172874
        ]
      },
      "properties": {
        "id": "R4-T268",
        "source_doc": "TR010025-000582",
        "easting": 410742.0,
        "northing": 141526.0,
        "gl_m_od": 95.68,
        "rockhead_m_od": null,
        "top_units": "ploughsoil; cryoturbated chalk",
        "notes": "Report 4: cryoturbated chalk; small flint nodules.",
        "area": "",
        "glacial_wording": "n",
        "classification": "periglacial_coombe",
        "class_label": "periglacial coombe/head"
      }
    },
    {
      "type": "Feature",
      "geometry": {
        "type": "Point",
        "coordinates": [
          -1.847554,
          51.173216
        ]
      },
      "properties": {
        "id": "R4-T271",
        "source_doc": "TR010025-000582",
        "easting": 410754.0,
        "northing": 141564.0,
        "gl_m_od": 95.69,
        "rockhead_m_od": null,
        "top_units": "ploughsoil; chalky silty clay natural",
        "notes": "Report 4: yellowish grey silty clay with common chalk — no peri/coombe label.",
        "area": "",
        "glacial_wording": "n",
        "classification": "chalk",
        "class_label": "chalk"
      }
    },
    {
      "type": "Feature",
      "geometry": {
        "type": "Point",
        "coordinates": [
          -1.847198,
          51.172892
        ]
      },
      "properties": {
        "id": "R4-T270",
        "source_doc": "TR010025-000582",
        "easting": 410779.0,
        "northing": 141528.0,
        "gl_m_od": 94.86,
        "rockhead_m_od": null,
        "top_units": "ploughsoil; chalk with frost-shattered flint / striping",
        "notes": "Report 4: natural with stripes and frost-shattered flints.",
        "area": "",
        "glacial_wording": "n",
        "classification": "periglacial_coombe",
        "class_label": "periglacial coombe/head"
      }
    },
    {
      "type": "Feature",
      "geometry": {
        "type": "Point",
        "coordinates": [
          -1.847125,
          51.173188
        ]
      },
      "properties": {
        "id": "R4-T272",
        "source_doc": "TR010025-000582",
        "easting": 410784.0,
        "northing": 141561.0,
        "gl_m_od": 95.14,
        "rockhead_m_od": null,
        "top_units": "ploughsoil; periglacial deposit (dissolved/broken chalk)",
        "notes": "Report 4: periglacial deposit of dissolved chalk with lines of broken chalk.",
        "area": "",
        "glacial_wording": "n",
        "classification": "periglacial_coombe",
        "class_label": "periglacial coombe/head"
      }
    },
    {
      "type": "Feature",
      "geometry": {
        "type": "Point",
        "coordinates": [
          -1.846869,
          51.172873
        ]
      },
      "properties": {
        "id": "R4-T269",
        "source_doc": "TR010025-000582",
        "easting": 410802.0,
        "northing": 141526.0,
        "gl_m_od": 94.58,
        "rockhead_m_od": null,
        "top_units": "ploughsoil; probable colluvium; degraded chalk",
        "notes": "Report 4: probable colluvium (subsoil) over heavily degraded chalk — shallow coombe area.",
        "area": "",
        "glacial_wording": "n",
        "classification": "colluvium",
        "class_label": "colluvium"
      }
    },
    {
      "type": "Feature",
      "geometry": {
        "type": "Point",
        "coordinates": [
          -1.846795,
          51.173368
        ]
      },
      "properties": {
        "id": "R4-T273",
        "source_doc": "TR010025-000582",
        "easting": 410807.0,
        "northing": 141581.0,
        "gl_m_od": 95.79,
        "rockhead_m_od": null,
        "top_units": "ploughsoil; chalk with periglacial striping",
        "notes": "Report 4: white chalky bedrock; periglacial striping.",
        "area": "",
        "glacial_wording": "n",
        "classification": "periglacial_coombe",
        "class_label": "periglacial coombe/head"
      }
    },
    {
      "type": "Feature",
      "geometry": {
        "type": "Point",
        "coordinates": [
          -1.846525,
          51.173026
        ]
      },
      "properties": {
        "id": "R4-T274",
        "source_doc": "TR010025-000582",
        "easting": 410826.0,
        "northing": 141543.0,
        "gl_m_od": 94.75,
        "rockhead_m_od": null,
        "top_units": "ploughsoil; colluvial subsoil in depressions; periglacial chalk",
        "notes": "Report 4: orange-brown silty clay in depressions over periglacial dissolved/striped chalk (shallow coombe).",
        "area": "",
        "glacial_wording": "n",
        "classification": "periglacial_coombe",
        "class_label": "periglacial coombe/head"
      }
    },
    {
      "type": "Feature",
      "geometry": {
        "type": "Point",
        "coordinates": [
          -1.846338,
          51.173223
        ]
      },
      "properties": {
        "id": "R4-T214",
        "source_doc": "TR010025-000582",
        "easting": 410839.0,
        "northing": 141565.0,
        "gl_m_od": 104.09,
        "rockhead_m_od": null,
        "top_units": "ploughsoil; chalk with periglacial stripes",
        "notes": "Report 4: explicit periglacial stripes (NW–SE).",
        "area": "",
        "glacial_wording": "n",
        "classification": "periglacial_coombe",
        "class_label": "periglacial coombe/head"
      }
    },
    {
      "type": "Feature",
      "geometry": {
        "type": "Point",
        "coordinates": [
          -1.845723,
          51.173213
        ]
      },
      "properties": {
        "id": "R4-T230",
        "source_doc": "TR010025-000582",
        "easting": 410882.0,
        "northing": 141564.0,
        "gl_m_od": 97.81,
        "rockhead_m_od": null,
        "top_units": "ploughsoil; degraded chalk",
        "notes": "Report 4: degraded chalk; rare small flint nodules.",
        "area": "",
        "glacial_wording": "n",
        "classification": "chalk",
        "class_label": "chalk"
      }
    },
    {
      "type": "Feature",
      "geometry": {
        "type": "Point",
        "coordinates": [
          -1.845665,
          51.173546
        ]
      },
      "properties": {
        "id": "R4-T277",
        "source_doc": "TR010025-000582",
        "easting": 410886.0,
        "northing": 141601.0,
        "gl_m_od": 98.28,
        "rockhead_m_od": null,
        "top_units": "ploughsoil; chalk with periglacial banding (deeper in shallow coombe)",
        "notes": "Report 4: chalky bedrock with periglacial banding; ploughsoil deeper in shallow coombe at NW end.",
        "area": "",
        "glacial_wording": "n",
        "classification": "periglacial_coombe",
        "class_label": "periglacial coombe/head"
      }
    },
    {
      "type": "Feature",
      "geometry": {
        "type": "Point",
        "coordinates": [
          -1.845537,
          51.173294
        ]
      },
      "properties": {
        "id": "R4-T276",
        "source_doc": "TR010025-000582",
        "easting": 410895.0,
        "northing": 141573.0,
        "gl_m_od": 98.37,
        "rockhead_m_od": null,
        "top_units": "ploughsoil; chalk",
        "notes": "Report 4: chalk compacted in places, broken in others.",
        "area": "",
        "glacial_wording": "n",
        "classification": "chalk",
        "class_label": "chalk"
      }
    },
    {
      "type": "Feature",
      "geometry": {
        "type": "Point",
        "coordinates": [
          -1.845208,
          51.173276
        ]
      },
      "properties": {
        "id": "R4-T212",
        "source_doc": "TR010025-000582",
        "easting": 410918.0,
        "northing": 141571.0,
        "gl_m_od": 99.87,
        "rockhead_m_od": null,
        "top_units": "ploughsoil; degraded chalk with striping",
        "notes": "Report 4: yellow-white degraded chalk with striping.",
        "area": "",
        "glacial_wording": "n",
        "classification": "periglacial_coombe",
        "class_label": "periglacial coombe/head"
      }
    },
    {
      "type": "Feature",
      "geometry": {
        "type": "Point",
        "coordinates": [
          -1.844821,
          51.173428
        ]
      },
      "properties": {
        "id": "R4-T278",
        "source_doc": "TR010025-000582",
        "easting": 410945.0,
        "northing": 141588.0,
        "gl_m_od": 99.99,
        "rockhead_m_od": null,
        "top_units": "ploughsoil; chalk with periglacial scarring",
        "notes": "Report 4: off-white chalky bedrock; periglacial scarring.",
        "area": "",
        "glacial_wording": "n",
        "classification": "periglacial_coombe",
        "class_label": "periglacial coombe/head"
      }
    },
    {
      "type": "Feature",
      "geometry": {
        "type": "Point",
        "coordinates": [
          -1.844421,
          51.173392
        ]
      },
      "properties": {
        "id": "R4-T211",
        "source_doc": "TR010025-000582",
        "easting": 410973.0,
        "northing": 141584.0,
        "gl_m_od": 100.32,
        "rockhead_m_od": null,
        "top_units": "ploughsoil; fractured chalk; periglacial/pea gravel",
        "notes": "Report 4: fractured chalk with occasional periglacial and pea gravel deposits.",
        "area": "",
        "glacial_wording": "n",
        "classification": "periglacial_coombe",
        "class_label": "periglacial coombe/head"
      }
    },
    {
      "type": "Feature",
      "geometry": {
        "type": "Point",
        "coordinates": [
          -1.844362,
          51.173877
        ]
      },
      "properties": {
        "id": "R4-T279",
        "source_doc": "TR010025-000582",
        "easting": 410977.0,
        "northing": 141638.0,
        "gl_m_od": 101.51,
        "rockhead_m_od": null,
        "top_units": "ploughsoil; fractured chalk with periglacial banding",
        "notes": "Report 4: fractured chalk bedrock; some periglacial banding.",
        "area": "",
        "glacial_wording": "n",
        "classification": "periglacial_coombe",
        "class_label": "periglacial coombe/head"
      }
    },
    {
      "type": "Feature",
      "geometry": {
        "type": "Point",
        "coordinates": [
          -1.844077,
          51.173418
        ]
      },
      "properties": {
        "id": "R4-T210",
        "source_doc": "TR010025-000582",
        "easting": 410997.0,
        "northing": 141587.0,
        "gl_m_od": 100.14,
        "rockhead_m_od": null,
        "top_units": "ploughsoil; chalk",
        "notes": "Report 4: dense greyish white chalk; rooting/scarring — no clear peri/coombe label.",
        "area": "",
        "glacial_wording": "n",
        "classification": "chalk",
        "class_label": "chalk"
      }
    },
    {
      "type": "Feature",
      "geometry": {
        "type": "Point",
        "coordinates": [
          -1.843663,
          51.173247
        ]
      },
      "properties": {
        "id": "R4-T228",
        "source_doc": "TR010025-000582",
        "easting": 411026.0,
        "northing": 141568.0,
        "gl_m_od": 100.13,
        "rockhead_m_od": null,
        "top_units": "ploughsoil; chalk",
        "notes": "Report 4: chalk natural under ploughsoil.",
        "area": "",
        "glacial_wording": "n",
        "classification": "chalk",
        "class_label": "chalk"
      }
    },
    {
      "type": "Feature",
      "geometry": {
        "type": "Point",
        "coordinates": [
          -1.843662,
          51.173534
        ]
      },
      "properties": {
        "id": "R4-T280",
        "source_doc": "TR010025-000582",
        "easting": 411026.0,
        "northing": 141600.0,
        "gl_m_od": 100.89,
        "rockhead_m_od": null,
        "top_units": "ploughsoil; chalky silt natural",
        "notes": "Report 4: dense grey-off white silt with abundant chalk — no peri/coombe label.",
        "area": "",
        "glacial_wording": "n",
        "classification": "chalk",
        "class_label": "chalk"
      }
    },
    {
      "type": "Feature",
      "geometry": {
        "type": "Point",
        "coordinates": [
          -1.843475,
          51.173975
        ]
      },
      "properties": {
        "id": "R4-T284",
        "source_doc": "TR010025-000582",
        "easting": 411039.0,
        "northing": 141649.0,
        "gl_m_od": 102.41,
        "rockhead_m_od": null,
        "top_units": "ploughsoil; chalk with periglacial banding",
        "notes": "Report 4: white chalky bedrock with periglacial banding.",
        "area": "",
        "glacial_wording": "n",
        "classification": "periglacial_coombe",
        "class_label": "periglacial coombe/head"
      }
    },
    {
      "type": "Feature",
      "geometry": {
        "type": "Point",
        "coordinates": [
          -1.843433,
          51.173552
        ]
      },
      "properties": {
        "id": "R4-T209",
        "source_doc": "TR010025-000582",
        "easting": 411042.0,
        "northing": 141602.0,
        "gl_m_od": 100.99,
        "rockhead_m_od": null,
        "top_units": "ploughsoil; chalk with periglacial striping",
        "notes": "Report 4: chalk with plough truncation and periglacial striping.",
        "area": "",
        "glacial_wording": "n",
        "classification": "periglacial_coombe",
        "class_label": "periglacial coombe/head"
      }
    },
    {
      "type": "Feature",
      "geometry": {
        "type": "Point",
        "coordinates": [
          -1.84319,
          51.173723
        ]
      },
      "properties": {
        "id": "R4-T208",
        "source_doc": "TR010025-000582",
        "easting": 411059.0,
        "northing": 141621.0,
        "gl_m_od": 101.7,
        "rockhead_m_od": null,
        "top_units": "ploughsoil; fractured chalk; periglacial gravel",
        "notes": "Report 4: fractured chalk with patches of periglacial gravel.",
        "area": "",
        "glacial_wording": "n",
        "classification": "periglacial_coombe",
        "class_label": "periglacial coombe/head"
      }
    },
    {
      "type": "Feature",
      "geometry": {
        "type": "Point",
        "coordinates": [
          -1.843034,
          51.173291
        ]
      },
      "properties": {
        "id": "R4-T206",
        "source_doc": "TR010025-000582",
        "easting": 411070.0,
        "northing": 141573.0,
        "gl_m_od": 100.56,
        "rockhead_m_od": null,
        "top_units": "ploughsoil; chalk with periglacial deposits",
        "notes": "Report 4: white chalk with light brown periglacial deposits.",
        "area": "",
        "glacial_wording": "n",
        "classification": "periglacial_coombe",
        "class_label": "periglacial coombe/head"
      }
    },
    {
      "type": "Feature",
      "geometry": {
        "type": "Point",
        "coordinates": [
          -1.842975,
          51.173812
        ]
      },
      "properties": {
        "id": "R4-T207",
        "source_doc": "TR010025-000582",
        "easting": 411074.0,
        "northing": 141631.0,
        "gl_m_od": 102.26,
        "rockhead_m_od": null,
        "top_units": "ploughsoil; chalk with periglacial bands",
        "notes": "Report 4: white chalk with light brown periglacial bands.",
        "area": "",
        "glacial_wording": "n",
        "classification": "periglacial_coombe",
        "class_label": "periglacial coombe/head"
      }
    },
    {
      "type": "Feature",
      "geometry": {
        "type": "Point",
        "coordinates": [
          -1.84279,
          51.173407
        ]
      },
      "properties": {
        "id": "R4-T283",
        "source_doc": "TR010025-000582",
        "easting": 411087.0,
        "northing": 141586.0,
        "gl_m_od": 100.9,
        "rockhead_m_od": null,
        "top_units": "topsoil; chalk",
        "notes": "Report 4: chalk; rare angular flint nodules.",
        "area": "",
        "glacial_wording": "n",
        "classification": "chalk",
        "class_label": "chalk"
      }
    },
    {
      "type": "Feature",
      "geometry": {
        "type": "Point",
        "coordinates": [
          -1.842745,
          51.1741
        ]
      },
      "properties": {
        "id": "R4-T285",
        "source_doc": "TR010025-000582",
        "easting": 411090.0,
        "northing": 141663.0,
        "gl_m_od": 102.84,
        "rockhead_m_od": null,
        "top_units": "ploughsoil; chalk; light brown periglacial gravel",
        "notes": "Report 4: chalk bedrock; some light brown periglacial gravel deposits.",
        "area": "",
        "glacial_wording": "n",
        "classification": "periglacial_coombe",
        "class_label": "periglacial coombe/head"
      }
    },
    {
      "type": "Feature",
      "geometry": {
        "type": "Point",
        "coordinates": [
          -1.841789,
          51.17346
        ]
      },
      "properties": {
        "id": "R4-T286",
        "source_doc": "TR010025-000582",
        "easting": 411157.0,
        "northing": 141592.0,
        "gl_m_od": 99.82,
        "rockhead_m_od": null,
        "top_units": "topsoil; chalk",
        "notes": "Report 4: chalk with rare angular flint nodules.",
        "area": "",
        "glacial_wording": "n",
        "classification": "chalk",
        "class_label": "chalk"
      }
    },
    {
      "type": "Feature",
      "geometry": {
        "type": "Point",
        "coordinates": [
          -1.841759,
          51.173775
        ]
      },
      "properties": {
        "id": "R4-T204",
        "source_doc": "TR010025-000582",
        "easting": 411159.0,
        "northing": 141627.0,
        "gl_m_od": 100.82,
        "rockhead_m_od": null,
        "top_units": "ploughsoil; chalk with periglacial deposits",
        "notes": "Report 4: white chalk with light brown periglacial deposits.",
        "area": "",
        "glacial_wording": "n",
        "classification": "periglacial_coombe",
        "class_label": "periglacial coombe/head"
      }
    },
    {
      "type": "Feature",
      "geometry": {
        "type": "Point",
        "coordinates": [
          -1.840085,
          51.173961
        ]
      },
      "properties": {
        "id": "P7AI-R71901",
        "source_doc": "TR010025-002269",
        "easting": 411276.0,
        "northing": 141648.0,
        "gl_m_od": 101.37,
        "rockhead_m_od": null,
        "top_units": "topsoil; chalk",
        "notes": "Phase 7a(i) rotary GI. Thin superficial over chalk typical; rockhead left blank pending log transcription.",
        "area": "",
        "glacial_wording": "n",
        "classification": "chalk",
        "class_label": "chalk"
      }
    },
    {
      "type": "Feature",
      "geometry": {
        "type": "Point",
        "coordinates": [
          -1.837977,
          51.175298
        ]
      },
      "properties": {
        "id": "P7AI-R71902",
        "source_doc": "TR010025-002269",
        "easting": 411423.0,
        "northing": 141797.0,
        "gl_m_od": 107.87,
        "rockhead_m_od": null,
        "top_units": "topsoil; chalk",
        "notes": "Phase 7a(i) rotary GI. Thin superficial over chalk typical; rockhead left blank pending log transcription.",
        "area": "",
        "glacial_wording": "n",
        "classification": "chalk",
        "class_label": "chalk"
      }
    },
    {
      "type": "Feature",
      "geometry": {
        "type": "Point",
        "coordinates": [
          -1.834718,
          51.174655
        ]
      },
      "properties": {
        "id": "P7AI-R71903",
        "source_doc": "TR010025-002269",
        "easting": 411651.0,
        "northing": 141726.0,
        "gl_m_od": 105.18,
        "rockhead_m_od": null,
        "top_units": "topsoil; chalk",
        "notes": "Phase 7a(i) rotary GI. Thin superficial over chalk typical; rockhead left blank pending log transcription.",
        "area": "",
        "glacial_wording": "n",
        "classification": "chalk",
        "class_label": "chalk"
      }
    },
    {
      "type": "Feature",
      "geometry": {
        "type": "Point",
        "coordinates": [
          -1.83294,
          51.175992
        ]
      },
      "properties": {
        "id": "P7AI-R71904",
        "source_doc": "TR010025-002269",
        "easting": 411775.0,
        "northing": 141875.0,
        "gl_m_od": 106.09,
        "rockhead_m_od": null,
        "top_units": "topsoil; chalk",
        "notes": "Phase 7a(i) rotary GI. Thin superficial over chalk typical; rockhead left blank pending log transcription.",
        "area": "",
        "glacial_wording": "n",
        "classification": "chalk",
        "class_label": "chalk"
      }
    },
    {
      "type": "Feature",
      "geometry": {
        "type": "Point",
        "coordinates": [
          -1.816502,
          51.176346
        ]
      },
      "properties": {
        "id": "BGS-SU14SW62",
        "source_doc": "BGS",
        "easting": 412924.0,
        "northing": 141917.0,
        "gl_m_od": 96.0,
        "rockhead_m_od": null,
        "top_units": "topsoil; gravelly clay; chalk",
        "notes": "Stonehenge Bottom A303 GI; Tim Holocene-flooding audit. Superficial read as periglacial colluvial/head; no Holocene aquatic/marine deposits. BGS id 17111365.",
        "area": "",
        "glacial_wording": "n",
        "classification": "periglacial_coombe",
        "class_label": "periglacial coombe/head"
      }
    },
    {
      "type": "Feature",
      "geometry": {
        "type": "Point",
        "coordinates": [
          -1.797424,
          51.178445
        ]
      },
      "properties": {
        "id": "R5-T501",
        "source_doc": "TR010025-000584",
        "easting": 414257.0,
        "northing": 142154.0,
        "gl_m_od": 86.8,
        "rockhead_m_od": null,
        "top_units": "ploughsoil; subsoil; white chalk",
        "notes": "Report 5: ploughsoil and thin subsoil over compact white chalk.",
        "area": "",
        "glacial_wording": "n",
        "classification": "chalk",
        "class_label": "chalk"
      }
    },
    {
      "type": "Feature",
      "geometry": {
        "type": "Point",
        "coordinates": [
          -1.796609,
          51.178363
        ]
      },
      "properties": {
        "id": "R5-T502",
        "source_doc": "TR010025-000584",
        "easting": 414314.0,
        "northing": 142145.0,
        "gl_m_od": 83.8,
        "rockhead_m_od": null,
        "top_units": "ploughsoil; thin subsoil; chalk",
        "notes": "Report 5: thin subsoil (N section only) over chalk with yellow patches and flint nodules.",
        "area": "",
        "glacial_wording": "n",
        "classification": "chalk",
        "class_label": "chalk"
      }
    },
    {
      "type": "Feature",
      "geometry": {
        "type": "Point",
        "coordinates": [
          -1.795979,
          51.178389
        ]
      },
      "properties": {
        "id": "R5-T503",
        "source_doc": "TR010025-000584",
        "easting": 414358.0,
        "northing": 142148.0,
        "gl_m_od": 84.6,
        "rockhead_m_od": null,
        "top_units": "ploughsoil; weathered chalk bedrock",
        "notes": "Report 5: ploughsoil over weathered chalk bedrock (no subsoil).",
        "area": "",
        "glacial_wording": "n",
        "classification": "chalk",
        "class_label": "chalk"
      }
    },
    {
      "type": "Feature",
      "geometry": {
        "type": "Point",
        "coordinates": [
          -1.795035,
          51.178378
        ]
      },
      "properties": {
        "id": "R5-T504",
        "source_doc": "TR010025-000584",
        "easting": 414424.0,
        "northing": 142147.0,
        "gl_m_od": 78.9,
        "rockhead_m_od": null,
        "top_units": "ploughsoil; colluvium; buried soil; chalk",
        "notes": "Geoarchaeology type sequence; OSL on coombe/colluvium. Coombe = solifluction under periglacial conditions (Report 5 text).",
        "area": "",
        "glacial_wording": "n",
        "classification": "colluvium",
        "class_label": "colluvium"
      }
    },
    {
      "type": "Feature",
      "geometry": {
        "type": "Point",
        "coordinates": [
          -1.79369,
          51.178484
        ]
      },
      "properties": {
        "id": "R5-T505",
        "source_doc": "TR010025-000584",
        "easting": 414518.0,
        "northing": 142159.0,
        "gl_m_od": 85.6,
        "rockhead_m_od": null,
        "top_units": "ploughsoil; probable colluvium (downslope); degraded chalk",
        "notes": "Report 5: probable colluvium only at downslope NW end (~35 m) over degraded chalk.",
        "area": "",
        "glacial_wording": "n",
        "classification": "colluvium",
        "class_label": "colluvium"
      }
    },
    {
      "type": "Feature",
      "geometry": {
        "type": "Point",
        "coordinates": [
          -1.792788,
          51.178554
        ]
      },
      "properties": {
        "id": "R5-T506",
        "source_doc": "TR010025-000584",
        "easting": 414581.0,
        "northing": 142167.0,
        "gl_m_od": 90.8,
        "rockhead_m_od": null,
        "top_units": "ploughsoil; chalk",
        "notes": "Report 5: ploughsoil over chalk with yellow patches and flint nodules.",
        "area": "",
        "glacial_wording": "n",
        "classification": "chalk",
        "class_label": "chalk"
      }
    },
    {
      "type": "Feature",
      "geometry": {
        "type": "Point",
        "coordinates": [
          -1.791959,
          51.178535
        ]
      },
      "properties": {
        "id": "R5-T507",
        "source_doc": "TR010025-000584",
        "easting": 414639.0,
        "northing": 142165.0,
        "gl_m_od": 89.4,
        "rockhead_m_od": null,
        "top_units": "ploughsoil; chalk",
        "notes": "Report 5: ploughsoil over chalk; occasional yellow discolouration.",
        "area": "",
        "glacial_wording": "n",
        "classification": "chalk",
        "class_label": "chalk"
      }
    },
    {
      "type": "Feature",
      "geometry": {
        "type": "Point",
        "coordinates": [
          -1.791572,
          51.178561
        ]
      },
      "properties": {
        "id": "R5-T508",
        "source_doc": "TR010025-000584",
        "easting": 414666.0,
        "northing": 142168.0,
        "gl_m_od": 86.7,
        "rockhead_m_od": null,
        "top_units": "ploughsoil; weathered chalk",
        "notes": "Report 5: weathered chalk surface with occasional large flint nodules.",
        "area": "",
        "glacial_wording": "n",
        "classification": "chalk",
        "class_label": "chalk"
      }
    },
    {
      "type": "Feature",
      "geometry": {
        "type": "Point",
        "coordinates": [
          -1.790843,
          51.178407
        ]
      },
      "properties": {
        "id": "R5-T509",
        "source_doc": "TR010025-000584",
        "easting": 414717.0,
        "northing": 142151.0,
        "gl_m_od": 82.0,
        "rockhead_m_od": null,
        "top_units": "ploughsoil; chalk (upper peri material truncated)",
        "notes": "Report 5: chalk natural; modern truncation noted as removing upper periglacial material down to solid chalk.",
        "area": "",
        "glacial_wording": "n",
        "classification": "chalk",
        "class_label": "chalk"
      }
    },
    {
      "type": "Feature",
      "geometry": {
        "type": "Point",
        "coordinates": [
          -1.789828,
          51.178306
        ]
      },
      "properties": {
        "id": "R5-T510",
        "source_doc": "TR010025-000584",
        "easting": 414788.0,
        "northing": 142140.0,
        "gl_m_od": 79.1,
        "rockhead_m_od": null,
        "top_units": "ploughsoil; chalk; ice-wedge / cryoturbation feature",
        "notes": "Ice wedge / cryoturbation noted — peri-glacial patterned ground, not till.",
        "area": "",
        "glacial_wording": "n",
        "classification": "periglacial_coombe",
        "class_label": "periglacial coombe/head"
      }
    },
    {
      "type": "Feature",
      "geometry": {
        "type": "Point",
        "coordinates": [
          -1.789582,
          51.177773
        ]
      },
      "properties": {
        "id": "STP72201",
        "source_doc": "TR010025-002259",
        "easting": 414805.4,
        "northing": 142080.8,
        "gl_m_od": 75.46,
        "rockhead_m_od": null,
        "top_units": "possible colluvium / made ground",
        "notes": "hand-dug inspection pit",
        "area": "",
        "glacial_wording": "n",
        "classification": "colluvium",
        "class_label": "colluvium"
      }
    },
    {
      "type": "Feature",
      "geometry": {
        "type": "Point",
        "coordinates": [
          -1.789381,
          51.178125
        ]
      },
      "properties": {
        "id": "STP72202A",
        "source_doc": "TR010025-002259",
        "easting": 414819.3,
        "northing": 142120.0,
        "gl_m_od": 78.72,
        "rockhead_m_od": null,
        "top_units": "topsoil; made ground (brick/porcelain)",
        "notes": "Phase 7B: relocated STP72202 — made ground with brick/porcelain to 3.50 m bgl; chalk not reached.",
        "area": "",
        "glacial_wording": "n",
        "classification": "made_ground",
        "class_label": "made ground"
      }
    },
    {
      "type": "Feature",
      "geometry": {
        "type": "Point",
        "coordinates": [
          -1.789143,
          51.178071
        ]
      },
      "properties": {
        "id": "STP72202",
        "source_doc": "TR010025-002259",
        "easting": 414836.0,
        "northing": 142114.0,
        "gl_m_od": 77.67,
        "rockhead_m_od": null,
        "top_units": "topsoil; made ground",
        "notes": "Phase 7B: hand-dug inspection pit — topsoil over made ground to 1.20 m bgl; chalk not reached.",
        "area": "",
        "glacial_wording": "n",
        "classification": "made_ground",
        "class_label": "made ground"
      }
    },
    {
      "type": "Feature",
      "geometry": {
        "type": "Point",
        "coordinates": [
          -1.788084,
          51.178105
        ]
      },
      "properties": {
        "id": "R5-T511",
        "source_doc": "TR010025-000584",
        "easting": 414910.0,
        "northing": 142118.0,
        "gl_m_od": 73.2,
        "rockhead_m_od": null,
        "top_units": "topsoil; subsoil; soliflucted chalk",
        "notes": "Eastern Portal (Countess West); lower eastern approach ~73 m OD (not western cluster). Context 51132 field wording \"glacial till… glacial activity\"; same natural otherwise soliflucted chalk (51131=51103). Sample 51138 = 40L of 51135 (charred-plant flot), not assayed as till.",
        "area": "eastern_portal_lower",
        "glacial_wording": "y",
        "classification": "periglacial_coombe",
        "class_label": "periglacial coombe/head"
      }
    },
    {
      "type": "Feature",
      "geometry": {
        "type": "Point",
        "coordinates": [
          -1.787069,
          51.177986
        ]
      },
      "properties": {
        "id": "R5-T512",
        "source_doc": "TR010025-000584",
        "easting": 414981.0,
        "northing": 142105.0,
        "gl_m_od": 70.9,
        "rockhead_m_od": null,
        "top_units": "topsoil; colluvium in natural hollow; chalk",
        "notes": "Eastern portal; colluvium-filled hollow; near Avon corridor.",
        "area": "",
        "glacial_wording": "n",
        "classification": "colluvium",
        "class_label": "colluvium"
      }
    },
    {
      "type": "Feature",
      "geometry": {
        "type": "Point",
        "coordinates": [
          -1.782092,
          51.177613
        ]
      },
      "properties": {
        "id": "STPES1",
        "source_doc": "TR010025-002259",
        "easting": 415329.0,
        "northing": 142064.5,
        "gl_m_od": 71.06,
        "rockhead_m_od": null,
        "top_units": "topsoil; made ground (bitumen-coated flint)",
        "notes": "Phase 7B eastern portal: made ground; bitumen-coated flint band; terminated in dense ground at 0.50 m bgl.",
        "area": "",
        "glacial_wording": "n",
        "classification": "made_ground",
        "class_label": "made ground"
      }
    },
    {
      "type": "Feature",
      "geometry": {
        "type": "Point",
        "coordinates": [
          -1.782075,
          51.177614
        ]
      },
      "properties": {
        "id": "STPES6",
        "source_doc": "TR010025-002259",
        "easting": 415330.2,
        "northing": 142064.6,
        "gl_m_od": 71.01,
        "rockhead_m_od": null,
        "top_units": "possible colluvium / made ground",
        "notes": "",
        "area": "",
        "glacial_wording": "n",
        "classification": "colluvium",
        "class_label": "colluvium"
      }
    },
    {
      "type": "Feature",
      "geometry": {
        "type": "Point",
        "coordinates": [
          -1.782043,
          51.177632
        ]
      },
      "properties": {
        "id": "STPES2",
        "source_doc": "TR010025-002259",
        "easting": 415332.4,
        "northing": 142066.6,
        "gl_m_od": 71.03,
        "rockhead_m_od": null,
        "top_units": "made ground (brick/tile/possible quartzite/coke)",
        "notes": "Phase 7B: anthropogenic fill throughout to 1.20 m bgl — not a glacial suite (possible quartzite is made-ground clast).",
        "area": "",
        "glacial_wording": "n",
        "classification": "made_ground",
        "class_label": "made ground"
      }
    },
    {
      "type": "Feature",
      "geometry": {
        "type": "Point",
        "coordinates": [
          -1.78202,
          51.177639
        ]
      },
      "properties": {
        "id": "STPES4",
        "source_doc": "TR010025-002259",
        "easting": 415334.0,
        "northing": 142067.4,
        "gl_m_od": 71.05,
        "rockhead_m_od": null,
        "top_units": "topsoil/made ground; made ground (concrete/tarmacadam)",
        "notes": "Phase 7B: made ground including concrete and tarmacadam gravel to 1.20 m bgl.",
        "area": "",
        "glacial_wording": "n",
        "classification": "made_ground",
        "class_label": "made ground"
      }
    },
    {
      "type": "Feature",
      "geometry": {
        "type": "Point",
        "coordinates": [
          -1.782005,
          51.177649
        ]
      },
      "properties": {
        "id": "STPES3",
        "source_doc": "TR010025-002259",
        "easting": 415335.1,
        "northing": 142068.5,
        "gl_m_od": 71.06,
        "rockhead_m_od": 70.11,
        "top_units": "made ground; structureless Seaford Chalk (Dm)",
        "notes": "Phase 7B: made ground (brick/glass/litter) over structureless Seaford Chalk from 0.95 m bgl (70.11 m OD).",
        "area": "",
        "glacial_wording": "n",
        "classification": "made_ground",
        "class_label": "made ground"
      }
    },
    {
      "type": "Feature",
      "geometry": {
        "type": "Point",
        "coordinates": [
          -1.781952,
          51.177674
        ]
      },
      "properties": {
        "id": "STPES5",
        "source_doc": "TR010025-002259",
        "easting": 415338.8,
        "northing": 142071.3,
        "gl_m_od": 71.12,
        "rockhead_m_od": null,
        "top_units": "made ground (plastic/metal/brick/concrete)",
        "notes": "Phase 7B: made ground with plastic, metal, brick, concrete to 1.20 m bgl.",
        "area": "",
        "glacial_wording": "n",
        "classification": "made_ground",
        "class_label": "made ground"
      }
    },
    {
      "type": "Feature",
      "geometry": {
        "type": "Point",
        "coordinates": [
          -1.774498,
          51.178433
        ]
      },
      "properties": {
        "id": "STP72601",
        "source_doc": "TR010025-002259",
        "easting": 415859.6,
        "northing": 142157.3,
        "gl_m_od": 74.22,
        "rockhead_m_od": null,
        "top_units": "topsoil; made ground (brick)",
        "notes": "Phase 7B: hand-dug inspection pit — made ground with rare brick/possible limestone to 1.20 m bgl.",
        "area": "",
        "glacial_wording": "n",
        "classification": "made_ground",
        "class_label": "made ground"
      }
    },
    {
      "type": "Feature",
      "geometry": {
        "type": "Point",
        "coordinates": [
          -1.774024,
          51.17874
        ]
      },
      "properties": {
        "id": "STP72602",
        "source_doc": "TR010025-002259",
        "easting": 415892.6,
        "northing": 142191.5,
        "gl_m_od": 73.0,
        "rockhead_m_od": null,
        "top_units": "possible colluvium: flint chalk rare quartzite; structureless chalk below",
        "notes": "rare quartzite in POSSIBLE COLLUVIUM; not till",
        "area": "",
        "glacial_wording": "n",
        "classification": "colluvium",
        "class_label": "colluvium"
      }
    },
    {
      "type": "Feature",
      "geometry": {
        "type": "Point",
        "coordinates": [
          -1.749159,
          51.175267
        ]
      },
      "properties": {
        "id": "TP-D",
        "source_doc": "TR010025-002259",
        "easting": 417632.0,
        "northing": 141810.99,
        "gl_m_od": 94.41,
        "rockhead_m_od": null,
        "top_units": "topsoil; structureless Seaford Chalk (Dc)",
        "notes": "Phase 7B Countess infiltration pit: topsoil over structureless Seaford Chalk; end 0.80 m bgl.",
        "area": "",
        "glacial_wording": "n",
        "classification": "chalk",
        "class_label": "chalk"
      }
    },
    {
      "type": "Feature",
      "geometry": {
        "type": "Point",
        "coordinates": [
          -1.748041,
          51.175823
        ]
      },
      "properties": {
        "id": "TP-E",
        "source_doc": "TR010025-002259",
        "easting": 417709.99,
        "northing": 141872.99,
        "gl_m_od": 96.99,
        "rockhead_m_od": 96.64,
        "top_units": "topsoil; structureless Seaford Chalk (Dc)",
        "notes": "Phase 7B infiltration pit: topsoil over structureless Seaford Chalk from 0.35 m bgl (96.64 m OD).",
        "area": "",
        "glacial_wording": "n",
        "classification": "chalk",
        "class_label": "chalk"
      }
    },
    {
      "type": "Feature",
      "geometry": {
        "type": "Point",
        "coordinates": [
          -1.747919,
          51.176084
        ]
      },
      "properties": {
        "id": "TP-F",
        "source_doc": "TR010025-002259",
        "easting": 417718.4,
        "northing": 141902.08,
        "gl_m_od": 98.24,
        "rockhead_m_od": null,
        "top_units": "topsoil; made ground (concrete); structureless Seaford Chalk (Dc)",
        "notes": "Phase 7B: thin made ground with rare concrete over structureless Seaford Chalk; end 0.80 m bgl.",
        "area": "",
        "glacial_wording": "n",
        "classification": "made_ground",
        "class_label": "made ground"
      }
    },
    {
      "type": "Feature",
      "geometry": {
        "type": "Point",
        "coordinates": [
          -1.745358,
          51.176476
        ]
      },
      "properties": {
        "id": "TP-G",
        "source_doc": "TR010025-002259",
        "easting": 417897.3,
        "northing": 141946.26,
        "gl_m_od": 100.42,
        "rockhead_m_od": null,
        "top_units": "made ground (plastic); structureless Seaford Chalk (Dc)",
        "notes": "Phase 7B: made ground with rare plastic over structureless Seaford Chalk; end 1.40 m bgl.",
        "area": "",
        "glacial_wording": "n",
        "classification": "made_ground",
        "class_label": "made ground"
      }
    },
    {
      "type": "Feature",
      "geometry": {
        "type": "Point",
        "coordinates": [
          -1.742797,
          51.176736
        ]
      },
      "properties": {
        "id": "TP-H",
        "source_doc": "TR010025-002259",
        "easting": 418076.17,
        "northing": 141975.87,
        "gl_m_od": 109.06,
        "rockhead_m_od": null,
        "top_units": "topsoil; structureless Seaford Chalk (Dc)",
        "notes": "Phase 7B infiltration pit: topsoil over structureless Seaford Chalk; end 0.60 m bgl.",
        "area": "",
        "glacial_wording": "n",
        "classification": "chalk",
        "class_label": "chalk"
      }
    }
  ]
}
