{"type": "FeatureCollection", "features": [{"type": "Feature", "geometry": {"type": "Point", "coordinates": [-1.906393, 51.169951]}, "properties": {"id": "P7AI-R70201", "cover_m": 0.6, "gl_m_od": 115.88, "rockhead_m_od": 115.28, "rockhead_measured": false, "classification": "chalk"}}, {"type": "Feature", "geometry": {"type": "Point", "coordinates": [-1.906265, 51.169995]}, "properties": {"id": "P7AI-CP70201", "cover_m": 0.6, "gl_m_od": 115.46, "rockhead_m_od": 114.86, "rockhead_measured": false, "classification": "chalk"}}, {"type": "Feature", "geometry": {"type": "Point", "coordinates": [-1.905994, 51.169573]}, "properties": {"id": "P7AI-CP70202", "cover_m": 0.6, "gl_m_od": 117.5, "rockhead_m_od": 116.9, "rockhead_measured": false, "classification": "chalk"}}, {"type": "Feature", "geometry": {"type": "Point", "coordinates": [-1.905975, 51.174473]}, "properties": {"id": "STP70502", "cover_m": 2.0, "gl_m_od": 87.55, "rockhead_m_od": 85.55, "rockhead_measured": false, "classification": "colluvium"}}, {"type": "Feature", "geometry": {"type": "Point", "coordinates": [-1.905879, 51.169626]}, "properties": {"id": "P7AI-R70202", "cover_m": 0.6, "gl_m_od": 117.06, "rockhead_m_od": 116.46, "rockhead_measured": false, "classification": "chalk"}}, {"type": "Feature", "geometry": {"type": "Point", "coordinates": [-1.905498, 51.175368]}, "properties": {"id": "STP70501", "cover_m": 2.0, "gl_m_od": 81.87, "rockhead_m_od": 79.87, "rockhead_measured": false, "classification": "colluvium"}}, {"type": "Feature", "geometry": {"type": "Point", "coordinates": [-1.905217, 51.173054]}, "properties": {"id": "STP70504", "cover_m": 2.0, "gl_m_od": 87.83, "rockhead_m_od": 85.83, "rockhead_measured": false, "classification": "colluvium"}}, {"type": "Feature", "geometry": {"type": "Point", "coordinates": [-1.9047, 51.174084]}, "properties": {"id": "STP70503", "cover_m": 2.0, "gl_m_od": 81.26, "rockhead_m_od": 79.26, "rockhead_measured": false, "classification": "colluvium"}}, {"type": "Feature", "geometry": {"type": "Point", "coordinates": [-1.903583, 51.173298]}, "properties": {"id": "STP70505", "cover_m": 2.0, "gl_m_od": 82.07, "rockhead_m_od": 80.07, "rockhead_measured": false, "classification": "colluvium"}}, {"type": "Feature", "geometry": {"type": "Point", "coordinates": [-1.902864, 51.175091]}, "properties": {"id": "STP70507", "cover_m": 0.6, "gl_m_od": 87.57, "rockhead_m_od": 86.97, "rockhead_measured": false, "classification": "chalk"}}, {"type": "Feature", "geometry": {"type": "Point", "coordinates": [-1.902634, 51.17555]}, "properties": {"id": "STP70506", "cover_m": 0.6, "gl_m_od": 91.49, "rockhead_m_od": 90.89, "rockhead_measured": false, "classification": "chalk"}}, {"type": "Feature", "geometry": {"type": "Point", "coordinates": [-1.902179, 51.174506]}, "properties": {"id": "STP70508", "cover_m": 2.0, "gl_m_od": 87.02, "rockhead_m_od": 85.02, "rockhead_measured": false, "classification": "colluvium"}}, {"type": "Feature", "geometry": {"type": "Point", "coordinates": [-1.90172, 51.173685]}, "properties": {"id": "STP70509", "cover_m": 2.0, "gl_m_od": 83.29, "rockhead_m_od": 81.29, "rockhead_measured": false, "classification": "colluvium"}}, {"type": "Feature", "geometry": {"type": "Point", "coordinates": [-1.900714, 51.170279]}, "properties": {"id": "STP70601", "cover_m": 0.6, "gl_m_od": 92.71, "rockhead_m_od": 92.11, "rockhead_measured": false, "classification": "chalk"}}, {"type": "Feature", "geometry": {"type": "Point", "coordinates": [-1.89846, 51.170524]}, "properties": {"id": "STP70602", "cover_m": 2.0, "gl_m_od": 84.09, "rockhead_m_od": 82.09, "rockhead_measured": false, "classification": "colluvium"}}, {"type": "Feature", "geometry": {"type": "Point", "coordinates": [-1.898293, 51.171986]}, "properties": {"id": "R7-BH1", "cover_m": 2.7, "gl_m_od": 78.61, "rockhead_m_od": 75.91, "rockhead_measured": true, "classification": "periglacial_coombe"}}, {"type": "Feature", "geometry": {"type": "Point", "coordinates": [-1.898291, 51.171371]}, "properties": {"id": "R7-BH6", "cover_m": 4.8, "gl_m_od": 75.88, "rockhead_m_od": 71.08, "rockhead_measured": true, "classification": "periglacial_coombe"}}, {"type": "Feature", "geometry": {"type": "Point", "coordinates": [-1.898287, 51.17154]}, "properties": {"id": "R7-BH4", "cover_m": 4.6, "gl_m_od": 75.93, "rockhead_m_od": 71.33, "rockhead_measured": true, "classification": "solution"}}, {"type": "Feature", "geometry": {"type": "Point", "coordinates": [-1.898285, 51.171455]}, "properties": {"id": "R7-BH5", "cover_m": 4.75, "gl_m_od": 75.86, "rockhead_m_od": 71.11, "rockhead_measured": true, "classification": "periglacial_coombe"}}, {"type": "Feature", "geometry": {"type": "Point", "coordinates": [-1.898284, 51.17163]}, "properties": {"id": "R7-BH3", "cover_m": 4.5, "gl_m_od": 76.25, "rockhead_m_od": 71.75, "rockhead_measured": true, "classification": "periglacial_coombe"}}, {"type": "Feature", "geometry": {"type": "Point", "coordinates": [-1.898282, 51.171808]}, "properties": {"id": "R7-BH2", "cover_m": 4.7, "gl_m_od": 77.23, "rockhead_m_od": 72.53, "rockhead_measured": true, "classification": "solution"}}, {"type": "Feature", "geometry": {"type": "Point", "coordinates": [-1.890711, 51.172617]}, "properties": {"id": "P7AI-R70901", "cover_m": 2.0, "gl_m_od": 72.18, "rockhead_m_od": 70.18, "rockhead_measured": false, "classification": "colluvium"}}, {"type": "Feature", "geometry": {"type": "Point", "coordinates": [-1.889538, 51.172553]}, "properties": {"id": "P7AI-R70902", "cover_m": 2.0, "gl_m_od": 71.77, "rockhead_m_od": 69.77, "rockhead_measured": false, "classification": "colluvium"}}, {"type": "Feature", "geometry": {"type": "Point", "coordinates": [-1.888737, 51.172498]}, "properties": {"id": "P7AI-R70903", "cover_m": 2.0, "gl_m_od": 71.98, "rockhead_m_od": 69.98, "rockhead_measured": false, "classification": "colluvium"}}, {"type": "Feature", "geometry": {"type": "Point", "coordinates": [-1.880902, 51.171375]}, "properties": {"id": "P7AI-CP71002", "cover_m": 0.6, "gl_m_od": 95.46, "rockhead_m_od": 94.86, "rockhead_measured": false, "classification": "chalk"}}, {"type": "Feature", "geometry": {"type": "Point", "coordinates": [-1.880786, 51.171726]}, "properties": {"id": "P7AI-CP71001", "cover_m": 0.6, "gl_m_od": 92.52, "rockhead_m_od": 91.92, "rockhead_measured": false, "classification": "chalk"}}, {"type": "Feature", "geometry": {"type": "Point", "coordinates": [-1.880759, 51.171348]}, "properties": {"id": "P7AI-R71002", "cover_m": 0.6, "gl_m_od": 95.61, "rockhead_m_od": 95.01, "rockhead_measured": false, "classification": "chalk"}}, {"type": "Feature", "geometry": {"type": "Point", "coordinates": [-1.880643, 51.171708]}, "properties": {"id": "P7AI-R71001", "cover_m": 0.6, "gl_m_od": 92.29, "rockhead_m_od": 91.69, "rockhead_measured": false, "classification": "chalk"}}, {"type": "Feature", "geometry": {"type": "Point", "coordinates": [-1.875408, 51.169285]}, "properties": {"id": "STP71601", "cover_m": 2.0, "gl_m_od": 104.89, "rockhead_m_od": 102.89, "rockhead_measured": false, "classification": "colluvium"}}, {"type": "Feature", "geometry": {"type": "Point", "coordinates": [-1.867501, 51.170713]}, "properties": {"id": "P7AI-R71301", "cover_m": 0.6, "gl_m_od": 110.87, "rockhead_m_od": 110.27, "rockhead_measured": false, "classification": "chalk"}}, {"type": "Feature", "geometry": {"type": "Point", "coordinates": [-1.867358, 51.170713]}, "properties": {"id": "P7AI-CP71301", "cover_m": 0.6, "gl_m_od": 110.92, "rockhead_m_od": 110.32, "rockhead_measured": false, "classification": "chalk"}}, {"type": "Feature", "geometry": {"type": "Point", "coordinates": [-1.867073, 51.170353]}, "properties": {"id": "P7AI-R71302", "cover_m": 0.6, "gl_m_od": 111.52, "rockhead_m_od": 110.92, "rockhead_measured": false, "classification": "chalk"}}, {"type": "Feature", "geometry": {"type": "Point", "coordinates": [-1.86693, 51.170353]}, "properties": {"id": "P7AI-CP71302", "cover_m": 0.6, "gl_m_od": 111.59, "rockhead_m_od": 110.99, "rockhead_measured": false, "classification": "chalk"}}, {"type": "Feature", "geometry": {"type": "Point", "coordinates": [-1.862598, 51.200561]}, "properties": {"id": "TP-A", "cover_m": 2.0, "gl_m_od": 116.29, "rockhead_m_od": 114.29, "rockhead_measured": false, "classification": "colluvium"}}, {"type": "Feature", "geometry": {"type": "Point", "coordinates": [-1.862423, 51.19949]}, "properties": {"id": "TP-B", "cover_m": 2.0, "gl_m_od": 113.01, "rockhead_m_od": 111.01, "rockhead_measured": false, "classification": "colluvium"}}, {"type": "Feature", "geometry": {"type": "Point", "coordinates": [-1.860845, 51.200421]}, "properties": {"id": "TP-C", "cover_m": 2.0, "gl_m_od": 112.38, "rockhead_m_od": 110.38, "rockhead_measured": false, "classification": "colluvium"}}, {"type": "Feature", "geometry": {"type": "Point", "coordinates": [-1.858418, 51.170766]}, "properties": {"id": "R4-T202", "cover_m": 0.6, "gl_m_od": 106.85, "rockhead_m_od": 106.25, "rockhead_measured": false, "classification": "chalk"}}, {"type": "Feature", "geometry": {"type": "Point", "coordinates": [-1.857659, 51.171205]}, "properties": {"id": "R4-T224", "cover_m": 2.5, "gl_m_od": 106.01, "rockhead_m_od": 103.51, "rockhead_measured": false, "classification": "periglacial_coombe"}}, {"type": "Feature", "geometry": {"type": "Point", "coordinates": [-1.857273, 51.171232]}, "properties": {"id": "R4-T223", "cover_m": 2.5, "gl_m_od": 105.94, "rockhead_m_od": 103.44, "rockhead_measured": false, "classification": "periglacial_coombe"}}, {"type": "Feature", "geometry": {"type": "Point", "coordinates": [-1.856957, 51.171429]}, "properties": {"id": "R4-T233", "cover_m": 0.6, "gl_m_od": 106.1, "rockhead_m_od": 105.5, "rockhead_measured": false, "classification": "chalk"}}, {"type": "Feature", "geometry": {"type": "Point", "coordinates": [-1.856573, 51.170952]}, "properties": {"id": "R4-T231", "cover_m": 2.5, "gl_m_od": 103.78, "rockhead_m_od": 101.28, "rockhead_measured": false, "classification": "periglacial_coombe"}}, {"type": "Feature", "geometry": {"type": "Point", "coordinates": [-1.8565, 51.171321]}, "properties": {"id": "R4-T222", "cover_m": 2.5, "gl_m_od": 105.38, "rockhead_m_od": 102.88, "rockhead_measured": false, "classification": "periglacial_coombe"}}, {"type": "Feature", "geometry": {"type": "Point", "coordinates": [-1.85647, 51.171761]}, "properties": {"id": "R4-T225", "cover_m": 0.6, "gl_m_od": 106.13, "rockhead_m_od": 105.53, "rockhead_measured": false, "classification": "chalk"}}, {"type": "Feature", "geometry": {"type": "Point", "coordinates": [-1.856358, 51.171051]}, "properties": {"id": "R4-T219", "cover_m": 2.5, "gl_m_od": 103.77, "rockhead_m_od": 101.27, "rockhead_measured": false, "classification": "periglacial_coombe"}}, {"type": "Feature", "geometry": {"type": "Point", "coordinates": [-1.85612, 51.174072]}, "properties": {"id": "R4-T226", "cover_m": 2.5, "gl_m_od": 102.26, "rockhead_m_od": 99.76, "rockhead_measured": false, "classification": "periglacial_coombe"}}, {"type": "Feature", "geometry": {"type": "Point", "coordinates": [-1.856099, 51.171311]}, "properties": {"id": "R4-T218", "cover_m": 0.6, "gl_m_od": 104.9, "rockhead_m_od": 104.3, "rockhead_measured": false, "classification": "chalk"}}, {"type": "Feature", "geometry": {"type": "Point", "coordinates": [-1.855956, 51.17159]}, "properties": {"id": "P7AI-R71701", "cover_m": 0.6, "gl_m_od": 105.22, "rockhead_m_od": 104.62, "rockhead_measured": false, "classification": "chalk"}}, {"type": "Feature", "geometry": {"type": "Point", "coordinates": [-1.855913, 51.171572]}, "properties": {"id": "P7AI-CP71701", "cover_m": 0.6, "gl_m_od": 105.1, "rockhead_m_od": 104.5, "rockhead_measured": false, "classification": "chalk"}}, {"type": "Feature", "geometry": {"type": "Point", "coordinates": [-1.85577, 51.1715]}, "properties": {"id": "R4-T217", "cover_m": 0.6, "gl_m_od": 105.15, "rockhead_m_od": 104.55, "rockhead_measured": false, "classification": "chalk"}}, {"type": "Feature", "geometry": {"type": "Point", "coordinates": [-1.855628, 51.171167]}, "properties": {"id": "R4-T232", "cover_m": 2.5, "gl_m_od": 103.33, "rockhead_m_od": 100.83, "rockhead_measured": false, "classification": "periglacial_coombe"}}, {"type": "Feature", "geometry": {"type": "Point", "coordinates": [-1.855485, 51.171167]}, "properties": {"id": "P7AI-CP71702", "cover_m": 0.6, "gl_m_od": 102.72, "rockhead_m_od": 102.12, "rockhead_measured": false, "classification": "chalk"}}, {"type": "Feature", "geometry": {"type": "Point", "coordinates": [-1.85524, 51.171634]}, "properties": {"id": "R4-T220", "cover_m": 2.5, "gl_m_od": 105.79, "rockhead_m_od": 103.29, "rockhead_measured": false, "classification": "periglacial_coombe"}}, {"type": "Feature", "geometry": {"type": "Point", "coordinates": [-1.855011, 51.171895]}, "properties": {"id": "R4-T203", "cover_m": 2.5, "gl_m_od": 105.06, "rockhead_m_od": 102.56, "rockhead_measured": false, "classification": "periglacial_coombe"}}, {"type": "Feature", "geometry": {"type": "Point", "coordinates": [-1.85484, 51.171481]}, "properties": {"id": "R4-T234", "cover_m": 2.5, "gl_m_od": 102.21, "rockhead_m_od": 99.71, "rockhead_measured": false, "classification": "periglacial_coombe"}}, {"type": "Feature", "geometry": {"type": "Point", "coordinates": [-1.854755, 51.171247]}, "properties": {"id": "R4-T215", "cover_m": 2.5, "gl_m_od": 104.09, "rockhead_m_od": 101.59, "rockhead_measured": false, "classification": "periglacial_coombe"}}, {"type": "Feature", "geometry": {"type": "Point", "coordinates": [-1.854468, 51.171732]}, "properties": {"id": "R4-T235", "cover_m": 0.6, "gl_m_od": 102.69, "rockhead_m_od": 102.09, "rockhead_measured": false, "classification": "chalk"}}, {"type": "Feature", "geometry": {"type": "Point", "coordinates": [-1.854137, 51.17219]}, "properties": {"id": "R4-T238", "cover_m": 0.6, "gl_m_od": 102.9, "rockhead_m_od": 102.3, "rockhead_measured": false, "classification": "chalk"}}, {"type": "Feature", "geometry": {"type": "Point", "coordinates": [-1.853408, 51.172189]}, "properties": {"id": "R4-T237", "cover_m": 2.5, "gl_m_od": 102.9, "rockhead_m_od": 100.4, "rockhead_measured": false, "classification": "periglacial_coombe"}}, {"type": "Feature", "geometry": {"type": "Point", "coordinates": [-1.853407, 51.172243]}, "properties": {"id": "R4-T239", "cover_m": 2.5, "gl_m_od": 102.91, "rockhead_m_od": 100.41, "rockhead_measured": false, "classification": "periglacial_coombe"}}, {"type": "Feature", "geometry": {"type": "Point", "coordinates": [-1.853123, 51.171865]}, "properties": {"id": "R4-T240", "cover_m": 0.6, "gl_m_od": 99.72, "rockhead_m_od": 99.12, "rockhead_measured": false, "classification": "chalk"}}, {"type": "Feature", "geometry": {"type": "Point", "coordinates": [-1.852849, 51.17244]}, "properties": {"id": "R4-T244", "cover_m": 2.5, "gl_m_od": 101.81, "rockhead_m_od": 99.31, "rockhead_measured": false, "classification": "periglacial_coombe"}}, {"type": "Feature", "geometry": {"type": "Point", "coordinates": [-1.852664, 51.172143]}, "properties": {"id": "R4-T243", "cover_m": 2.5, "gl_m_od": 100.53, "rockhead_m_od": 98.03, "rockhead_measured": false, "classification": "periglacial_coombe"}}, {"type": "Feature", "geometry": {"type": "Point", "coordinates": [-1.852637, 51.171712]}, "properties": {"id": "R4-T241", "cover_m": 2.5, "gl_m_od": 99.48, "rockhead_m_od": 96.98, "rockhead_measured": false, "classification": "periglacial_coombe"}}, {"type": "Feature", "geometry": {"type": "Point", "coordinates": [-1.852305, 51.172449]}, "properties": {"id": "R4-T245", "cover_m": 2.5, "gl_m_od": 100.56, "rockhead_m_od": 98.06, "rockhead_measured": false, "classification": "periglacial_coombe"}}, {"type": "Feature", "geometry": {"type": "Point", "coordinates": [-1.851949, 51.172169]}, "properties": {"id": "R4-T246", "cover_m": 2.5, "gl_m_od": 100.98, "rockhead_m_od": 98.48, "rockhead_measured": false, "classification": "periglacial_coombe"}}, {"type": "Feature", "geometry": {"type": "Point", "coordinates": [-1.851893, 51.171828]}, "properties": {"id": "R4-T247", "cover_m": 2.5, "gl_m_od": 98.99, "rockhead_m_od": 96.49, "rockhead_measured": false, "classification": "periglacial_coombe"}}, {"type": "Feature", "geometry": {"type": "Point", "coordinates": [-1.851363, 51.172043]}, "properties": {"id": "R4-T248", "cover_m": 2.5, "gl_m_od": 98.72, "rockhead_m_od": 96.22, "rockhead_measured": false, "classification": "periglacial_coombe"}}, {"type": "Feature", "geometry": {"type": "Point", "coordinates": [-1.851232, 51.172771]}, "properties": {"id": "R4-T252", "cover_m": 2.5, "gl_m_od": 99.44, "rockhead_m_od": 96.94, "rockhead_measured": false, "classification": "periglacial_coombe"}}, {"type": "Feature", "geometry": {"type": "Point", "coordinates": [-1.851103, 51.172573]}, "properties": {"id": "R4-T253", "cover_m": 2.5, "gl_m_od": 98.86, "rockhead_m_od": 96.36, "rockhead_measured": false, "classification": "periglacial_coombe"}}, {"type": "Feature", "geometry": {"type": "Point", "coordinates": [-1.850947, 51.172312]}, "properties": {"id": "R4-T250", "cover_m": 2.5, "gl_m_od": 98.4, "rockhead_m_od": 95.9, "rockhead_measured": false, "classification": "periglacial_coombe"}}, {"type": "Feature", "geometry": {"type": "Point", "coordinates": [-1.850946, 51.172546]}, "properties": {"id": "R4-T251", "cover_m": 2.5, "gl_m_od": 99.24, "rockhead_m_od": 96.74, "rockhead_measured": false, "classification": "periglacial_coombe"}}, {"type": "Feature", "geometry": {"type": "Point", "coordinates": [-1.850805, 51.172033]}, "properties": {"id": "R4-T249", "cover_m": 2.5, "gl_m_od": 98.82, "rockhead_m_od": 96.32, "rockhead_measured": false, "classification": "periglacial_coombe"}}, {"type": "Feature", "geometry": {"type": "Point", "coordinates": [-1.850488, 51.172716]}, "properties": {"id": "R4-T259", "cover_m": 2.5, "gl_m_od": 97.88, "rockhead_m_od": 95.38, "rockhead_measured": false, "classification": "periglacial_coombe"}}, {"type": "Feature", "geometry": {"type": "Point", "coordinates": [-1.850275, 51.172104]}, "properties": {"id": "R4-T255", "cover_m": 2.5, "gl_m_od": 98.66, "rockhead_m_od": 96.16, "rockhead_measured": false, "classification": "periglacial_coombe"}}, {"type": "Feature", "geometry": {"type": "Point", "coordinates": [-1.849903, 51.172239]}, "properties": {"id": "R4-T256", "cover_m": 2.5, "gl_m_od": 98.29, "rockhead_m_od": 95.79, "rockhead_measured": false, "classification": "periglacial_coombe"}}, {"type": "Feature", "geometry": {"type": "Point", "coordinates": [-1.849873, 51.172823]}, "properties": {"id": "R4-T260", "cover_m": 0.6, "gl_m_od": 98.07, "rockhead_m_od": 97.47, "rockhead_measured": false, "classification": "chalk"}}, {"type": "Feature", "geometry": {"type": "Point", "coordinates": [-1.849802, 51.172481]}, "properties": {"id": "R4-T258", "cover_m": 2.5, "gl_m_od": 97.49, "rockhead_m_od": 94.99, "rockhead_measured": false, "classification": "periglacial_coombe"}}, {"type": "Feature", "geometry": {"type": "Point", "coordinates": [-1.849457, 51.173056]}, "properties": {"id": "R4-T261", "cover_m": 2.5, "gl_m_od": 98.03, "rockhead_m_od": 95.53, "rockhead_measured": false, "classification": "periglacial_coombe"}}, {"type": "Feature", "geometry": {"type": "Point", "coordinates": [-1.848958, 51.172588]}, "properties": {"id": "R4-T262", "cover_m": 2.5, "gl_m_od": 97.11, "rockhead_m_od": 94.61, "rockhead_measured": false, "classification": "periglacial_coombe"}}, {"type": "Feature", "geometry": {"type": "Point", "coordinates": [-1.848742, 51.172948]}, "properties": {"id": "R4-T266", "cover_m": 0.6, "gl_m_od": 96.61, "rockhead_m_od": 96.01, "rockhead_measured": false, "classification": "chalk"}}, {"type": "Feature", "geometry": {"type": "Point", "coordinates": [-1.848414, 51.17265]}, "properties": {"id": "R4-T263", "cover_m": 3.5, "gl_m_od": 96.82, "rockhead_m_od": 93.32, "rockhead_measured": false, "classification": "solution"}}, {"type": "Feature", "geometry": {"type": "Point", "coordinates": [-1.848057, 51.172632]}, "properties": {"id": "R4-T265", "cover_m": 2.5, "gl_m_od": 97.05, "rockhead_m_od": 94.55, "rockhead_measured": false, "classification": "periglacial_coombe"}}, {"type": "Feature", "geometry": {"type": "Point", "coordinates": [-1.847998, 51.173109]}, "properties": {"id": "R4-T267", "cover_m": 2.5, "gl_m_od": 96.26, "rockhead_m_od": 93.76, "rockhead_measured": false, "classification": "periglacial_coombe"}}, {"type": "Feature", "geometry": {"type": "Point", "coordinates": [-1.847727, 51.172874]}, "properties": {"id": "R4-T268", "cover_m": 2.5, "gl_m_od": 95.68, "rockhead_m_od": 93.18, "rockhead_measured": false, "classification": "periglacial_coombe"}}, {"type": "Feature", "geometry": {"type": "Point", "coordinates": [-1.847554, 51.173216]}, "properties": {"id": "R4-T271", "cover_m": 0.6, "gl_m_od": 95.69, "rockhead_m_od": 95.09, "rockhead_measured": false, "classification": "chalk"}}, {"type": "Feature", "geometry": {"type": "Point", "coordinates": [-1.847197, 51.172892]}, "properties": {"id": "R4-T270", "cover_m": 2.5, "gl_m_od": 94.86, "rockhead_m_od": 92.36, "rockhead_measured": false, "classification": "periglacial_coombe"}}, {"type": "Feature", "geometry": {"type": "Point", "coordinates": [-1.847125, 51.173188]}, "properties": {"id": "R4-T272", "cover_m": 2.5, "gl_m_od": 95.14, "rockhead_m_od": 92.64, "rockhead_measured": false, "classification": "periglacial_coombe"}}, {"type": "Feature", "geometry": {"type": "Point", "coordinates": [-1.846869, 51.172873]}, "properties": {"id": "R4-T269", "cover_m": 2.0, "gl_m_od": 94.58, "rockhead_m_od": 92.58, "rockhead_measured": false, "classification": "colluvium"}}, {"type": "Feature", "geometry": {"type": "Point", "coordinates": [-1.846795, 51.173368]}, "properties": {"id": "R4-T273", "cover_m": 2.5, "gl_m_od": 95.79, "rockhead_m_od": 93.29, "rockhead_measured": false, "classification": "periglacial_coombe"}}, {"type": "Feature", "geometry": {"type": "Point", "coordinates": [-1.846525, 51.173026]}, "properties": {"id": "R4-T274", "cover_m": 2.5, "gl_m_od": 94.75, "rockhead_m_od": 92.25, "rockhead_measured": false, "classification": "periglacial_coombe"}}, {"type": "Feature", "geometry": {"type": "Point", "coordinates": [-1.846338, 51.173223]}, "properties": {"id": "R4-T214", "cover_m": 2.5, "gl_m_od": 104.09, "rockhead_m_od": 101.59, "rockhead_measured": false, "classification": "periglacial_coombe"}}, {"type": "Feature", "geometry": {"type": "Point", "coordinates": [-1.845723, 51.173213]}, "properties": {"id": "R4-T230", "cover_m": 0.6, "gl_m_od": 97.81, "rockhead_m_od": 97.21, "rockhead_measured": false, "classification": "chalk"}}, {"type": "Feature", "geometry": {"type": "Point", "coordinates": [-1.845665, 51.173546]}, "properties": {"id": "R4-T277", "cover_m": 2.5, "gl_m_od": 98.28, "rockhead_m_od": 95.78, "rockhead_measured": false, "classification": "periglacial_coombe"}}, {"type": "Feature", "geometry": {"type": "Point", "coordinates": [-1.845537, 51.173294]}, "properties": {"id": "R4-T276", "cover_m": 0.6, "gl_m_od": 98.37, "rockhead_m_od": 97.77, "rockhead_measured": false, "classification": "chalk"}}, {"type": "Feature", "geometry": {"type": "Point", "coordinates": [-1.845208, 51.173276]}, "properties": {"id": "R4-T212", "cover_m": 2.5, "gl_m_od": 99.87, "rockhead_m_od": 97.37, "rockhead_measured": false, "classification": "periglacial_coombe"}}, {"type": "Feature", "geometry": {"type": "Point", "coordinates": [-1.844821, 51.173428]}, "properties": {"id": "R4-T278", "cover_m": 2.5, "gl_m_od": 99.99, "rockhead_m_od": 97.49, "rockhead_measured": false, "classification": "periglacial_coombe"}}, {"type": "Feature", "geometry": {"type": "Point", "coordinates": [-1.844421, 51.173392]}, "properties": {"id": "R4-T211", "cover_m": 2.5, "gl_m_od": 100.32, "rockhead_m_od": 97.82, "rockhead_measured": false, "classification": "periglacial_coombe"}}, {"type": "Feature", "geometry": {"type": "Point", "coordinates": [-1.844362, 51.173877]}, "properties": {"id": "R4-T279", "cover_m": 2.5, "gl_m_od": 101.51, "rockhead_m_od": 99.01, "rockhead_measured": false, "classification": "periglacial_coombe"}}, {"type": "Feature", "geometry": {"type": "Point", "coordinates": [-1.844077, 51.173418]}, "properties": {"id": "R4-T210", "cover_m": 0.6, "gl_m_od": 100.14, "rockhead_m_od": 99.54, "rockhead_measured": false, "classification": "chalk"}}, {"type": "Feature", "geometry": {"type": "Point", "coordinates": [-1.843663, 51.173247]}, "properties": {"id": "R4-T228", "cover_m": 0.6, "gl_m_od": 100.13, "rockhead_m_od": 99.53, "rockhead_measured": false, "classification": "chalk"}}, {"type": "Feature", "geometry": {"type": "Point", "coordinates": [-1.843662, 51.173534]}, "properties": {"id": "R4-T280", "cover_m": 0.6, "gl_m_od": 100.89, "rockhead_m_od": 100.29, "rockhead_measured": false, "classification": "chalk"}}, {"type": "Feature", "geometry": {"type": "Point", "coordinates": [-1.843475, 51.173975]}, "properties": {"id": "R4-T284", "cover_m": 2.5, "gl_m_od": 102.41, "rockhead_m_od": 99.91, "rockhead_measured": false, "classification": "periglacial_coombe"}}, {"type": "Feature", "geometry": {"type": "Point", "coordinates": [-1.843433, 51.173552]}, "properties": {"id": "R4-T209", "cover_m": 2.5, "gl_m_od": 100.99, "rockhead_m_od": 98.49, "rockhead_measured": false, "classification": "periglacial_coombe"}}, {"type": "Feature", "geometry": {"type": "Point", "coordinates": [-1.84319, 51.173723]}, "properties": {"id": "R4-T208", "cover_m": 2.5, "gl_m_od": 101.7, "rockhead_m_od": 99.2, "rockhead_measured": false, "classification": "periglacial_coombe"}}, {"type": "Feature", "geometry": {"type": "Point", "coordinates": [-1.843034, 51.173291]}, "properties": {"id": "R4-T206", "cover_m": 2.5, "gl_m_od": 100.56, "rockhead_m_od": 98.06, "rockhead_measured": false, "classification": "periglacial_coombe"}}, {"type": "Feature", "geometry": {"type": "Point", "coordinates": [-1.842975, 51.173812]}, "properties": {"id": "R4-T207", "cover_m": 2.5, "gl_m_od": 102.26, "rockhead_m_od": 99.76, "rockhead_measured": false, "classification": "periglacial_coombe"}}, {"type": "Feature", "geometry": {"type": "Point", "coordinates": [-1.84279, 51.173407]}, "properties": {"id": "R4-T283", "cover_m": 0.6, "gl_m_od": 100.9, "rockhead_m_od": 100.3, "rockhead_measured": false, "classification": "chalk"}}, {"type": "Feature", "geometry": {"type": "Point", "coordinates": [-1.842745, 51.1741]}, "properties": {"id": "R4-T285", "cover_m": 2.5, "gl_m_od": 102.84, "rockhead_m_od": 100.34, "rockhead_measured": false, "classification": "periglacial_coombe"}}, {"type": "Feature", "geometry": {"type": "Point", "coordinates": [-1.841789, 51.17346]}, "properties": {"id": "R4-T286", "cover_m": 0.6, "gl_m_od": 99.82, "rockhead_m_od": 99.22, "rockhead_measured": false, "classification": "chalk"}}, {"type": "Feature", "geometry": {"type": "Point", "coordinates": [-1.841759, 51.173775]}, "properties": {"id": "R4-T204", "cover_m": 2.5, "gl_m_od": 100.82, "rockhead_m_od": 98.32, "rockhead_measured": false, "classification": "periglacial_coombe"}}, {"type": "Feature", "geometry": {"type": "Point", "coordinates": [-1.840085, 51.173961]}, "properties": {"id": "P7AI-R71901", "cover_m": 0.6, "gl_m_od": 101.37, "rockhead_m_od": 100.77, "rockhead_measured": false, "classification": "chalk"}}, {"type": "Feature", "geometry": {"type": "Point", "coordinates": [-1.837977, 51.175298]}, "properties": {"id": "P7AI-R71902", "cover_m": 0.6, "gl_m_od": 107.87, "rockhead_m_od": 107.27, "rockhead_measured": false, "classification": "chalk"}}, {"type": "Feature", "geometry": {"type": "Point", "coordinates": [-1.834718, 51.174655]}, "properties": {"id": "P7AI-R71903", "cover_m": 0.6, "gl_m_od": 105.18, "rockhead_m_od": 104.58, "rockhead_measured": false, "classification": "chalk"}}, {"type": "Feature", "geometry": {"type": "Point", "coordinates": [-1.83294, 51.175992]}, "properties": {"id": "P7AI-R71904", "cover_m": 0.6, "gl_m_od": 106.09, "rockhead_m_od": 105.49, "rockhead_measured": false, "classification": "chalk"}}, {"type": "Feature", "geometry": {"type": "Point", "coordinates": [-1.816502, 51.176346]}, "properties": {"id": "BGS-SU14SW62", "cover_m": 2.5, "gl_m_od": 96.0, "rockhead_m_od": 93.5, "rockhead_measured": false, "classification": "periglacial_coombe"}}, {"type": "Feature", "geometry": {"type": "Point", "coordinates": [-1.797424, 51.178445]}, "properties": {"id": "R5-T501", "cover_m": 0.6, "gl_m_od": 86.8, "rockhead_m_od": 86.2, "rockhead_measured": false, "classification": "chalk"}}, {"type": "Feature", "geometry": {"type": "Point", "coordinates": [-1.796609, 51.178363]}, "properties": {"id": "R5-T502", "cover_m": 0.6, "gl_m_od": 83.8, "rockhead_m_od": 83.2, "rockhead_measured": false, "classification": "chalk"}}, {"type": "Feature", "geometry": {"type": "Point", "coordinates": [-1.795979, 51.178389]}, "properties": {"id": "R5-T503", "cover_m": 0.6, "gl_m_od": 84.6, "rockhead_m_od": 84.0, "rockhead_measured": false, "classification": "chalk"}}, {"type": "Feature", "geometry": {"type": "Point", "coordinates": [-1.795035, 51.178378]}, "properties": {"id": "R5-T504", "cover_m": 2.0, "gl_m_od": 78.9, "rockhead_m_od": 76.9, "rockhead_measured": false, "classification": "colluvium"}}, {"type": "Feature", "geometry": {"type": "Point", "coordinates": [-1.79369, 51.178484]}, "properties": {"id": "R5-T505", "cover_m": 2.0, "gl_m_od": 85.6, "rockhead_m_od": 83.6, "rockhead_measured": false, "classification": "colluvium"}}, {"type": "Feature", "geometry": {"type": "Point", "coordinates": [-1.792788, 51.178554]}, "properties": {"id": "R5-T506", "cover_m": 0.6, "gl_m_od": 90.8, "rockhead_m_od": 90.2, "rockhead_measured": false, "classification": "chalk"}}, {"type": "Feature", "geometry": {"type": "Point", "coordinates": [-1.791959, 51.178535]}, "properties": {"id": "R5-T507", "cover_m": 0.6, "gl_m_od": 89.4, "rockhead_m_od": 88.8, "rockhead_measured": false, "classification": "chalk"}}, {"type": "Feature", "geometry": {"type": "Point", "coordinates": [-1.791572, 51.178561]}, "properties": {"id": "R5-T508", "cover_m": 0.6, "gl_m_od": 86.7, "rockhead_m_od": 86.1, "rockhead_measured": false, "classification": "chalk"}}, {"type": "Feature", "geometry": {"type": "Point", "coordinates": [-1.790843, 51.178407]}, "properties": {"id": "R5-T509", "cover_m": 0.6, "gl_m_od": 82.0, "rockhead_m_od": 81.4, "rockhead_measured": false, "classification": "chalk"}}, {"type": "Feature", "geometry": {"type": "Point", "coordinates": [-1.789828, 51.178306]}, "properties": {"id": "R5-T510", "cover_m": 2.5, "gl_m_od": 79.1, "rockhead_m_od": 76.6, "rockhead_measured": false, "classification": "periglacial_coombe"}}, {"type": "Feature", "geometry": {"type": "Point", "coordinates": [-1.789582, 51.177773]}, "properties": {"id": "STP72201", "cover_m": 2.0, "gl_m_od": 75.46, "rockhead_m_od": 73.46, "rockhead_measured": false, "classification": "colluvium"}}, {"type": "Feature", "geometry": {"type": "Point", "coordinates": [-1.789381, 51.178125]}, "properties": {"id": "STP72202A", "cover_m": 1.5, "gl_m_od": 78.72, "rockhead_m_od": 77.22, "rockhead_measured": false, "classification": "made_ground"}}, {"type": "Feature", "geometry": {"type": "Point", "coordinates": [-1.789143, 51.178071]}, "properties": {"id": "STP72202", "cover_m": 1.5, "gl_m_od": 77.67, "rockhead_m_od": 76.17, "rockhead_measured": false, "classification": "made_ground"}}, {"type": "Feature", "geometry": {"type": "Point", "coordinates": [-1.788084, 51.178105]}, "properties": {"id": "R5-T511", "cover_m": 2.5, "gl_m_od": 73.2, "rockhead_m_od": 70.7, "rockhead_measured": false, "classification": "periglacial_coombe"}}, {"type": "Feature", "geometry": {"type": "Point", "coordinates": [-1.787069, 51.177986]}, "properties": {"id": "R5-T512", "cover_m": 2.0, "gl_m_od": 70.9, "rockhead_m_od": 68.9, "rockhead_measured": false, "classification": "colluvium"}}, {"type": "Feature", "geometry": {"type": "Point", "coordinates": [-1.782092, 51.177613]}, "properties": {"id": "STPES1", "cover_m": 1.5, "gl_m_od": 71.06, "rockhead_m_od": 69.56, "rockhead_measured": false, "classification": "made_ground"}}, {"type": "Feature", "geometry": {"type": "Point", "coordinates": [-1.782075, 51.177614]}, "properties": {"id": "STPES6", "cover_m": 2.0, "gl_m_od": 71.01, "rockhead_m_od": 69.01, "rockhead_measured": false, "classification": "colluvium"}}, {"type": "Feature", "geometry": {"type": "Point", "coordinates": [-1.782043, 51.177632]}, "properties": {"id": "STPES2", "cover_m": 1.5, "gl_m_od": 71.03, "rockhead_m_od": 69.53, "rockhead_measured": false, "classification": "made_ground"}}, {"type": "Feature", "geometry": {"type": "Point", "coordinates": [-1.78202, 51.177639]}, "properties": {"id": "STPES4", "cover_m": 1.5, "gl_m_od": 71.05, "rockhead_m_od": 69.55, "rockhead_measured": false, "classification": "made_ground"}}, {"type": "Feature", "geometry": {"type": "Point", "coordinates": [-1.782005, 51.177649]}, "properties": {"id": "STPES3", "cover_m": 0.95, "gl_m_od": 71.06, "rockhead_m_od": 70.11, "rockhead_measured": true, "classification": "made_ground"}}, {"type": "Feature", "geometry": {"type": "Point", "coordinates": [-1.781952, 51.177674]}, "properties": {"id": "STPES5", "cover_m": 1.5, "gl_m_od": 71.12, "rockhead_m_od": 69.62, "rockhead_measured": false, "classification": "made_ground"}}, {"type": "Feature", "geometry": {"type": "Point", "coordinates": [-1.774498, 51.178433]}, "properties": {"id": "STP72601", "cover_m": 1.5, "gl_m_od": 74.22, "rockhead_m_od": 72.72, "rockhead_measured": false, "classification": "made_ground"}}, {"type": "Feature", "geometry": {"type": "Point", "coordinates": [-1.774024, 51.17874]}, "properties": {"id": "STP72602", "cover_m": 2.0, "gl_m_od": 73.0, "rockhead_m_od": 71.0, "rockhead_measured": false, "classification": "colluvium"}}, {"type": "Feature", "geometry": {"type": "Point", "coordinates": [-1.749159, 51.175267]}, "properties": {"id": "TP-D", "cover_m": 0.6, "gl_m_od": 94.41, "rockhead_m_od": 93.81, "rockhead_measured": false, "classification": "chalk"}}, {"type": "Feature", "geometry": {"type": "Point", "coordinates": [-1.748041, 51.175823]}, "properties": {"id": "TP-E", "cover_m": 0.35, "gl_m_od": 96.99, "rockhead_m_od": 96.64, "rockhead_measured": true, "classification": "chalk"}}, {"type": "Feature", "geometry": {"type": "Point", "coordinates": [-1.747919, 51.176084]}, "properties": {"id": "TP-F", "cover_m": 1.5, "gl_m_od": 98.24, "rockhead_m_od": 96.74, "rockhead_measured": false, "classification": "made_ground"}}, {"type": "Feature", "geometry": {"type": "Point", "coordinates": [-1.745358, 51.176476]}, "properties": {"id": "TP-G", "cover_m": 1.5, "gl_m_od": 100.42, "rockhead_m_od": 98.92, "rockhead_measured": false, "classification": "made_ground"}}, {"type": "Feature", "geometry": {"type": "Point", "coordinates": [-1.742797, 51.176736]}, "properties": {"id": "TP-H", "cover_m": 0.6, "gl_m_od": 109.06, "rockhead_m_od": 108.46, "rockhead_measured": false, "classification": "chalk"}}]}