{"type": "FeatureCollection", "properties": {"description": "Rockhead m OD contours (RBF over measured+estimated cover rockhead)", "levels_m_od": [70, 75, 80, 85, 90, 95, 100, 105, 110, 115], "method": "scipy RBFInterpolator thin_plate_spline smoothing=25; contour every 5 m; mask >450 m from samples"}, "features": [{"type": "Feature", "properties": {"rockhead_m_od": 70.0, "label": "70 m OD"}, "geometry": {"type": "LineString", "coordinates": [[-1.800205, 51.174957], [-1.800146, 51.174981], [-1.799885, 51.17508], [-1.799566, 51.175205], [-1.799526, 51.17522], [-1.799168, 51.175358], [-1.79899, 51.175428], [-1.79881, 51.175498], [-1.798452, 51.175638], [-1.798417, 51.175652], [-1.798094, 51.175778], [-1.797846, 51.175876], [-1.797735, 51.175919], [-1.797377, 51.176059], [-1.797273, 51.1761], [-1.797019, 51.176197], [-1.796688, 51.176324], [-1.796661, 51.176334], [-1.796302, 51.176464], [-1.796063, 51.176547], [-1.795944, 51.176588], [-1.795586, 51.176699], [-1.7953, 51.176771], [-1.795228, 51.176789], [-1.79487, 51.176844], [-1.794513, 51.176853], [-1.794155, 51.176825], [-1.793798, 51.176781], [-1.79369, 51.176768], [-1.79344, 51.176739], [-1.793083, 51.176707], [-1.792725, 51.176693], [-1.792367, 51.176699], [-1.79201, 51.176726], [-1.791729, 51.176764], [-1.791652, 51.176775], [-1.791294, 51.176843], [-1.790936, 51.176935], [-1.79076, 51.176988], [-1.790578, 51.177044], [-1.79022, 51.177163], [-1.790067, 51.177211], [-1.789861, 51.177276], [-1.789503, 51.177368], [-1.789214, 51.177434], [-1.789145, 51.177448], [-1.788787, 51.177549], [-1.788544, 51.177658], [-1.788429, 51.177723], [-1.788183, 51.177882], [-1.78807, 51.177976], [-1.787763, 51.178106], [-1.787712, 51.178123], [-1.787354, 51.17817], [-1.786996, 51.178185], [-1.786639, 51.178186], [-1.786281, 51.178174], [-1.785923, 51.178148], [-1.785566, 51.17811], [-1.785503, 51.178102], [-1.785209, 51.178063], [-1.784851, 51.178007], [-1.784494, 51.177947], [-1.784136, 51.177884], [-1.784084, 51.177875], [-1.783779, 51.177823], [-1.783422, 51.177768], [-1.783064, 51.177722], [-1.782707, 51.177689], [-1.782349, 51.177677], [-1.781991, 51.177693], [-1.781633, 51.1778], [-1.781276, 51.177835], [-1.780918, 51.177846], [-1.78056, 51.177838], [-1.780203, 51.177815], [-1.779845, 51.177779], [-1.779488, 51.177729], [-1.779131, 51.177668], [-1.778987, 51.17764], [-1.778773, 51.177597], [-1.778416, 51.177517], [-1.778059, 51.17743], [-1.777992, 51.177414], [-1.777702, 51.177341], [-1.777344, 51.17725], [-1.777087, 51.177187], [-1.776987, 51.177163], [-1.77663, 51.177085], [-1.776273, 51.177017], [-1.775915, 51.176964], [-1.775877, 51.17696], [-1.775558, 51.176929], [-1.7752, 51.176915], [-1.774842, 51.176925], [-1.774533, 51.176957], [-1.774485, 51.176963], [-1.774127, 51.177037], [-1.773768, 51.177155], [-1.773708, 51.177181], [-1.77341, 51.177351], [-1.773331, 51.177405], [-1.773117, 51.177629], [-1.77305, 51.177773], [-1.773009, 51.177854], [-1.772981, 51.178078], [-1.773031, 51.178303], [-1.773047, 51.178342], [-1.773119, 51.178528], [-1.773196, 51.178753], [-1.773107, 51.178978], [-1.773044, 51.179026], [-1.7727, 51.179202], [-1.772685, 51.179207], [-1.772327, 51.179285], [-1.77197, 51.179327], [-1.771612, 51.179336], [-1.771254, 51.179319], [-1.770897, 51.179279], [-1.77054, 51.179219], [-1.770441, 51.179197], [-1.770182, 51.179135], [-1.769825, 51.179034], [-1.769631, 51.178971], [-1.769468, 51.178914], [-1.769111, 51.178778], [-1.769033, 51.178745], [-1.768754, 51.178623], [-1.768534, 51.178519], [-1.768397, 51.178453], [-1.768089, 51.178294], [-1.768041, 51.178268], [-1.767685, 51.178068]]}}, {"type": "Feature", "properties": {"rockhead_m_od": 70.0, "label": "70 m OD"}, "geometry": {"type": "LineString", "coordinates": [[-1.889295, 51.172397], [-1.889403, 51.172401], [-1.889653, 51.172417], [-1.89001, 51.172485], [-1.890368, 51.172614], [-1.890393, 51.172627], [-1.890622, 51.172852], [-1.890663, 51.173077], [-1.890572, 51.173302], [-1.890383, 51.173526], [-1.890365, 51.173541], [-1.890062, 51.173751], [-1.890007, 51.173782], [-1.889649, 51.173929], [-1.889456, 51.173975], [-1.889291, 51.174009], [-1.888934, 51.174016], [-1.888746, 51.173974], [-1.888576, 51.173922], [-1.888354, 51.173749], [-1.88822, 51.17354], [-1.888214, 51.173524], [-1.888191, 51.173299], [-1.888221, 51.173119], [-1.88823, 51.173075], [-1.888351, 51.17285], [-1.888536, 51.172625], [-1.88858, 51.172593], [-1.888938, 51.17244], [-1.889253, 51.172401], [-1.889295, 51.172397]]}}, {"type": "Feature", "properties": {"rockhead_m_od": 75.0, "label": "75 m OD"}, "geometry": {"type": "LineString", "coordinates": [[-1.884418, 51.175405], [-1.884423, 51.175319], [-1.884488, 51.175094], [-1.884581, 51.17487], [-1.884641, 51.174757], [-1.884697, 51.174645], [-1.884833, 51.17442], [-1.884984, 51.174196], [-1.885, 51.174176], [-1.885149, 51.173971], [-1.885324, 51.173746], [-1.885359, 51.173707], [-1.885509, 51.173522], [-1.8857, 51.173297], [-1.885717, 51.173279], [-1.885901, 51.173072], [-1.886076, 51.172886], [-1.88611, 51.172848], [-1.886333, 51.172623], [-1.886434, 51.172529], [-1.886573, 51.172399], [-1.886793, 51.172211], [-1.886837, 51.172174], [-1.887136, 51.17195], [-1.887151, 51.171939], [-1.887487, 51.171725], [-1.887509, 51.171712], [-1.887867, 51.171523], [-1.887916, 51.171501], [-1.888225, 51.171367], [-1.888467, 51.171276], [-1.888583, 51.171235], [-1.888941, 51.171126], [-1.889224, 51.171052], [-1.889299, 51.171034], [-1.889656, 51.170959], [-1.890014, 51.170897], [-1.890372, 51.170845], [-1.890512, 51.170829], [-1.890729, 51.170805], [-1.891087, 51.170774], [-1.891445, 51.170751], [-1.891802, 51.170735], [-1.89216, 51.170725], [-1.892518, 51.17072], [-1.892875, 51.170719], [-1.893233, 51.170721], [-1.89359, 51.170726], [-1.893948, 51.170733], [-1.894305, 51.17074], [-1.894663, 51.170748], [-1.895021, 51.170755], [-1.895378, 51.170762], [-1.895736, 51.170769], [-1.896093, 51.170777], [-1.896451, 51.170787], [-1.896808, 51.170801], [-1.897166, 51.170821], [-1.897317, 51.170835], [-1.897523, 51.170854], [-1.897881, 51.1709], [-1.898238, 51.170962], [-1.898596, 51.171058], [-1.898604, 51.171061], [-1.898953, 51.171271], [-1.898975, 51.171286], [-1.899086, 51.171511], [-1.898968, 51.171736], [-1.898952, 51.171745], [-1.898594, 51.171886], [-1.898236, 51.171943], [-1.898142, 51.17196], [-1.897878, 51.172025], [-1.897521, 51.172104], [-1.897192, 51.172184], [-1.897163, 51.172193], [-1.896805, 51.172295], [-1.896448, 51.172408], [-1.896447, 51.172408], [-1.896089, 51.172537], [-1.895853, 51.172632], [-1.895731, 51.172687], [-1.895376, 51.172856], [-1.895373, 51.172858], [-1.895015, 51.17305], [-1.894961, 51.173081], [-1.894657, 51.173265], [-1.894593, 51.173305], [-1.894299, 51.1735], [-1.894255, 51.17353], [-1.893941, 51.173753], [-1.893938, 51.173754], [-1.893633, 51.173979], [-1.893583, 51.174017], [-1.893335, 51.174203], [-1.893225, 51.174289], [-1.893041, 51.174428], [-1.892866, 51.174562], [-1.892746, 51.174652], [-1.892508, 51.174832], [-1.892446, 51.174877], [-1.89215, 51.175093], [-1.892138, 51.175102], [-1.891815, 51.175326], [-1.891792, 51.175342], [-1.891475, 51.175551], [-1.891433, 51.175578], [-1.891112, 51.175775], [-1.891075, 51.175798], [-1.890722, 51.175999], [-1.890717, 51.176002], [-1.890359, 51.17619], [-1.890287, 51.176224], [-1.890001, 51.176361], [-1.889799, 51.176448]]}}, {"type": "Feature", "properties": {"rockhead_m_od": 75.0, "label": "75 m OD"}, "geometry": {"type": "LineString", "coordinates": [[-1.801689, 51.175444], [-1.801671, 51.17545], [-1.801313, 51.175567], [-1.801046, 51.175657], [-1.800955, 51.175686], [-1.800597, 51.175805], [-1.800375, 51.17588], [-1.800239, 51.175925], [-1.79988, 51.176046], [-1.799714, 51.176104], [-1.799522, 51.176169], [-1.799164, 51.176293], [-1.799067, 51.176328], [-1.798806, 51.176418], [-1.798448, 51.176547], [-1.798436, 51.176551], [-1.79809, 51.176676], [-1.797824, 51.176775], [-1.797731, 51.176809], [-1.797373, 51.176942], [-1.797225, 51.176999], [-1.797015, 51.177076], [-1.796657, 51.17721], [-1.796622, 51.177223], [-1.796299, 51.177337], [-1.796012, 51.177446], [-1.79594, 51.177472], [-1.795582, 51.177626], [-1.795488, 51.17767], [-1.795223, 51.177831], [-1.795083, 51.177894], [-1.794865, 51.178028], [-1.794508, 51.177927], [-1.794462, 51.177893], [-1.794151, 51.17771], [-1.794085, 51.177668], [-1.793794, 51.177522], [-1.793596, 51.177442], [-1.793437, 51.177387], [-1.79308, 51.177297], [-1.792723, 51.17725], [-1.792365, 51.177239], [-1.792007, 51.177262], [-1.791649, 51.177321], [-1.791291, 51.177416], [-1.791227, 51.177438], [-1.790933, 51.177546], [-1.790662, 51.177662], [-1.790575, 51.177704], [-1.790216, 51.17786], [-1.790094, 51.177886], [-1.789858, 51.177942], [-1.789501, 51.177915], [-1.789143, 51.177958], [-1.788867, 51.178108], [-1.788784, 51.17819], [-1.788641, 51.178333], [-1.788425, 51.178518], [-1.788361, 51.178557], [-1.788067, 51.178713], [-1.787869, 51.178781], [-1.787708, 51.178835], [-1.78735, 51.178917], [-1.786993, 51.178971], [-1.786651, 51.179003], [-1.786635, 51.179005], [-1.786277, 51.179022], [-1.785919, 51.179024], [-1.785562, 51.179014], [-1.785332, 51.179001], [-1.785204, 51.178993], [-1.784847, 51.178964], [-1.784489, 51.178928], [-1.784132, 51.178887], [-1.783774, 51.178844], [-1.783417, 51.178804], [-1.783059, 51.178773], [-1.783043, 51.178772], [-1.782702, 51.178757], [-1.782344, 51.178762], [-1.782226, 51.17877], [-1.781986, 51.178787], [-1.781629, 51.178825], [-1.781271, 51.178867], [-1.780913, 51.178906], [-1.780555, 51.17894], [-1.780197, 51.178969], [-1.779876, 51.178991], [-1.779839, 51.178993], [-1.779482, 51.179014], [-1.779124, 51.179031], [-1.778766, 51.179047], [-1.778409, 51.179063], [-1.778051, 51.179082], [-1.777693, 51.17911], [-1.777335, 51.179155], [-1.77707, 51.17921], [-1.776977, 51.179234], [-1.776619, 51.179375], [-1.776524, 51.179434], [-1.77626, 51.179612], [-1.776209, 51.179658], [-1.77594, 51.179883], [-1.775901, 51.179912], [-1.775666, 51.180107], [-1.775542, 51.180196], [-1.775358, 51.180331], [-1.775183, 51.180443], [-1.775001, 51.180555], [-1.774824, 51.180652], [-1.774573, 51.180779], [-1.774466, 51.180829], [-1.774107, 51.18098], [-1.774044, 51.181003], [-1.773749, 51.181107], [-1.773391, 51.181215], [-1.773348, 51.181226], [-1.773033, 51.181305], [-1.772675, 51.18138], [-1.772317, 51.18144], [-1.772251, 51.181449], [-1.771959, 51.181486], [-1.771601, 51.18152], [-1.771243, 51.18154], [-1.770886, 51.181549], [-1.770528, 51.181546], [-1.77017, 51.181531], [-1.769813, 51.181505], [-1.769501, 51.181473]]}}, {"type": "Feature", "properties": {"rockhead_m_od": 80.0, "label": "80 m OD"}, "geometry": {"type": "LineString", "coordinates": [[-1.880361, 51.175548], [-1.880367, 51.17554], [-1.880554, 51.175315], [-1.880706, 51.175158], [-1.880772, 51.175091], [-1.881024, 51.174866], [-1.881064, 51.174835], [-1.881315, 51.174641], [-1.881423, 51.174569], [-1.881646, 51.174417], [-1.881781, 51.174337], [-1.882016, 51.174193], [-1.882139, 51.174126], [-1.882414, 51.173968], [-1.882497, 51.173926], [-1.882825, 51.173744], [-1.882855, 51.173729], [-1.883213, 51.173529], [-1.883228, 51.173519], [-1.883571, 51.173321], [-1.883611, 51.173295], [-1.88393, 51.173099], [-1.88397, 51.173071], [-1.884288, 51.17286], [-1.884307, 51.172846], [-1.884624, 51.172622], [-1.884646, 51.172606], [-1.884927, 51.172397], [-1.885004, 51.17234], [-1.885222, 51.172173], [-1.885363, 51.172067], [-1.885517, 51.171948], [-1.885721, 51.171795], [-1.885817, 51.171724], [-1.886079, 51.171535], [-1.88613, 51.171499], [-1.886437, 51.171292], [-1.886464, 51.171275], [-1.886795, 51.171071], [-1.886831, 51.17105], [-1.887153, 51.170872], [-1.887245, 51.170826], [-1.887511, 51.170695], [-1.887722, 51.170601], [-1.887869, 51.170537], [-1.888227, 51.170399], [-1.88829, 51.170377], [-1.888585, 51.170278], [-1.888943, 51.170171], [-1.889014, 51.170153], [-1.889301, 51.17008], [-1.889659, 51.170002], [-1.890016, 51.169936], [-1.890059, 51.169929], [-1.890374, 51.169882], [-1.890732, 51.169838], [-1.891089, 51.169804], [-1.891447, 51.16978], [-1.891805, 51.169764], [-1.892162, 51.169756], [-1.89252, 51.169756], [-1.892877, 51.169764], [-1.893235, 51.169778], [-1.893592, 51.169799], [-1.89395, 51.169826], [-1.894307, 51.169859], [-1.894665, 51.169897], [-1.894971, 51.169934], [-1.895022, 51.16994], [-1.89538, 51.16999], [-1.895737, 51.170045], [-1.896095, 51.170105], [-1.896387, 51.17016], [-1.896452, 51.170171], [-1.89681, 51.170245], [-1.897167, 51.170325], [-1.897399, 51.170385], [-1.897524, 51.170414], [-1.897882, 51.170509], [-1.89823, 51.170611], [-1.898239, 51.170613], [-1.898597, 51.1707], [-1.898954, 51.170792], [-1.899091, 51.170837], [-1.899311, 51.170927], [-1.899587, 51.171062], [-1.899668, 51.171123], [-1.899895, 51.171287], [-1.900025, 51.171439], [-1.900099, 51.171512], [-1.90023, 51.171737], [-1.900287, 51.171962], [-1.90024, 51.172186], [-1.900023, 51.172358], [-1.89985, 51.172411], [-1.899666, 51.172447], [-1.899308, 51.172478], [-1.89895, 51.17249], [-1.898593, 51.172516], [-1.898235, 51.17261], [-1.898183, 51.172634], [-1.897877, 51.172789], [-1.897752, 51.172859], [-1.897519, 51.172995], [-1.897371, 51.173083], [-1.897161, 51.173212], [-1.897006, 51.173307], [-1.896803, 51.173437], [-1.896655, 51.173532], [-1.896444, 51.173672], [-1.896317, 51.173756], [-1.896086, 51.173917], [-1.895995, 51.173981], [-1.895728, 51.174175], [-1.895687, 51.174206], [-1.895393, 51.17443], [-1.89537, 51.174448], [-1.89511, 51.174655], [-1.895012, 51.174736], [-1.894837, 51.174879], [-1.894653, 51.175035], [-1.894572, 51.175104], [-1.894314, 51.175328], [-1.894295, 51.175345], [-1.894059, 51.175553], [-1.893937, 51.175664], [-1.893807, 51.175777], [-1.893578, 51.175984], [-1.893558, 51.176002], [-1.893306, 51.176227]]}}, {"type": "Feature", "properties": {"rockhead_m_od": 80.0, "label": "80 m OD"}, "geometry": {"type": "LineString", "coordinates": [[-1.802484, 51.176172], [-1.802383, 51.176198], [-1.802025, 51.176296], [-1.801895, 51.176333], [-1.801667, 51.176394], [-1.801309, 51.176492], [-1.801083, 51.176556], [-1.800951, 51.176592], [-1.800593, 51.176691], [-1.800284, 51.176779], [-1.800235, 51.176793], [-1.799877, 51.176895], [-1.799519, 51.176999], [-1.799507, 51.177003], [-1.799161, 51.177105], [-1.798803, 51.177214], [-1.798764, 51.177226], [-1.798444, 51.177325], [-1.798086, 51.177442], [-1.798062, 51.17745], [-1.797728, 51.177561], [-1.797411, 51.177674], [-1.79737, 51.177688], [-1.797012, 51.177813], [-1.796727, 51.177897], [-1.796654, 51.177918], [-1.796296, 51.177979], [-1.795938, 51.178058], [-1.79582, 51.17812], [-1.795579, 51.178267], [-1.795495, 51.178345], [-1.79522, 51.178564], [-1.795203, 51.178569], [-1.794862, 51.178648], [-1.794505, 51.178598], [-1.794427, 51.178568], [-1.794148, 51.178426], [-1.794024, 51.178342], [-1.793791, 51.178166], [-1.793725, 51.178117], [-1.793435, 51.177931], [-1.793348, 51.177891], [-1.793078, 51.177781], [-1.792721, 51.177704], [-1.792363, 51.177685], [-1.792005, 51.177718], [-1.791647, 51.177808], [-1.79144, 51.177888], [-1.791289, 51.177958], [-1.79101, 51.178112], [-1.79093, 51.178163], [-1.790677, 51.178336], [-1.790572, 51.178416], [-1.790361, 51.17856], [-1.790213, 51.178651], [-1.789882, 51.178784], [-1.789855, 51.178796], [-1.789496, 51.17891], [-1.789239, 51.179008], [-1.789138, 51.179047], [-1.78878, 51.1792], [-1.788704, 51.179232], [-1.788421, 51.179344], [-1.788105, 51.179456], [-1.788063, 51.17947], [-1.787705, 51.179577], [-1.787347, 51.179665], [-1.787278, 51.179679], [-1.786989, 51.179739], [-1.786631, 51.179799], [-1.786273, 51.179847], [-1.785915, 51.179885], [-1.785717, 51.179901], [-1.785558, 51.179914], [-1.7852, 51.179937], [-1.784842, 51.179955], [-1.784484, 51.179969], [-1.784127, 51.179981], [-1.783769, 51.179994], [-1.783411, 51.18001], [-1.783053, 51.180032], [-1.782696, 51.18006], [-1.782338, 51.180096], [-1.782144, 51.180119], [-1.78198, 51.18014], [-1.781622, 51.180192], [-1.781264, 51.180251], [-1.780906, 51.180317], [-1.780784, 51.180341], [-1.780548, 51.18039], [-1.78019, 51.180471], [-1.779832, 51.180559], [-1.779811, 51.180564], [-1.779474, 51.180656], [-1.779116, 51.180764], [-1.779044, 51.180788], [-1.778758, 51.180883], [-1.778407, 51.181011], [-1.778399, 51.181014], [-1.778041, 51.181155], [-1.777851, 51.181235], [-1.777682, 51.181305], [-1.777333, 51.181459], [-1.777324, 51.181463], [-1.776966, 51.181621], [-1.776828, 51.181683], [-1.776607, 51.181779], [-1.776312, 51.181906], [-1.776249, 51.181933], [-1.77589, 51.18208], [-1.775765, 51.18213], [-1.775532, 51.18222], [-1.775174, 51.182352], [-1.775169, 51.182354], [-1.774815, 51.182474], [-1.774488, 51.182577]]}}, {"type": "Feature", "properties": {"rockhead_m_od": 80.0, "label": "80 m OD"}, "geometry": {"type": "LineString", "coordinates": [[-1.90324, 51.173283], [-1.903517, 51.173313], [-1.903597, 51.173323], [-1.903955, 51.173421], [-1.904283, 51.173538], [-1.904312, 51.173549], [-1.904667, 51.173764], [-1.904669, 51.173765], [-1.904835, 51.173989], [-1.904871, 51.174213], [-1.904804, 51.174438], [-1.904679, 51.174663], [-1.904667, 51.174679], [-1.90447, 51.174663], [-1.90431, 51.174656], [-1.903952, 51.1745], [-1.903845, 51.174437], [-1.903595, 51.174285], [-1.90348, 51.174212], [-1.903238, 51.174034], [-1.903162, 51.173987], [-1.902881, 51.173771], [-1.902864, 51.173762], [-1.902628, 51.173537], [-1.902724, 51.173312], [-1.902882, 51.173286], [-1.90324, 51.173283]]}}, {"type": "Feature", "properties": {"rockhead_m_od": 80.0, "label": "80 m OD"}, "geometry": {"type": "LineString", "coordinates": [[-1.905381, 51.175275], [-1.905477, 51.175338], [-1.905381, 51.175553], [-1.905189, 51.175338], [-1.905381, 51.175275]]}}, {"type": "Feature", "properties": {"rockhead_m_od": 85.0, "label": "85 m OD"}, "geometry": {"type": "LineString", "coordinates": [[-1.818579, 51.172594], [-1.81849, 51.172631], [-1.818178, 51.172762], [-1.818132, 51.172781], [-1.817774, 51.172928], [-1.817632, 51.172986], [-1.817416, 51.173072], [-1.817067, 51.17321], [-1.817058, 51.173213], [-1.8167, 51.173351], [-1.816481, 51.173434], [-1.816341, 51.173486], [-1.815983, 51.173617], [-1.815871, 51.173658], [-1.815625, 51.173745], [-1.815267, 51.17387], [-1.815233, 51.173882], [-1.814909, 51.173991], [-1.814563, 51.174105], [-1.814551, 51.174109], [-1.814193, 51.174224], [-1.813858, 51.174329], [-1.813835, 51.174336], [-1.813477, 51.174445], [-1.813119, 51.174552], [-1.813116, 51.174553], [-1.812761, 51.174655], [-1.812403, 51.174757], [-1.812335, 51.174776], [-1.812045, 51.174856], [-1.811687, 51.174954], [-1.811517, 51.175], [-1.811329, 51.175049], [-1.810971, 51.175143], [-1.810661, 51.175223], [-1.810613, 51.175235], [-1.81058, 51.175243]]}}, {"type": "Feature", "properties": {"rockhead_m_od": 85.0, "label": "85 m OD"}, "geometry": {"type": "LineString", "coordinates": [[-1.877237, 51.175087], [-1.877454, 51.174862], [-1.877488, 51.17483], [-1.877692, 51.174638], [-1.877847, 51.174502], [-1.877951, 51.174413], [-1.878205, 51.174213], [-1.878237, 51.174189], [-1.878559, 51.173964], [-1.878563, 51.173961], [-1.878922, 51.173744], [-1.878929, 51.17374], [-1.87928, 51.173559], [-1.879371, 51.173515], [-1.879638, 51.173402], [-1.879932, 51.173291], [-1.879996, 51.17327], [-1.880353, 51.173165], [-1.880711, 51.173077], [-1.880752, 51.173067], [-1.881069, 51.173004], [-1.881427, 51.172932], [-1.881785, 51.172852], [-1.881814, 51.172844], [-1.882142, 51.172762], [-1.8825, 51.172651], [-1.882584, 51.17262], [-1.882858, 51.17252], [-1.883141, 51.172395], [-1.883216, 51.172362], [-1.883574, 51.172179], [-1.883588, 51.172171], [-1.883932, 51.17197], [-1.88397, 51.171947], [-1.884291, 51.171739], [-1.884315, 51.171722], [-1.884639, 51.171498], [-1.884649, 51.17149], [-1.884953, 51.171273], [-1.885007, 51.171234], [-1.885268, 51.171049], [-1.885365, 51.17098], [-1.885591, 51.170824], [-1.885723, 51.170734], [-1.885931, 51.1706], [-1.886082, 51.170504], [-1.886297, 51.170375], [-1.88644, 51.170292], [-1.886698, 51.170151], [-1.886798, 51.170098], [-1.887148, 51.169926], [-1.887156, 51.169923], [-1.887514, 51.169766], [-1.887675, 51.169702], [-1.887872, 51.169626], [-1.88823, 51.169502], [-1.888308, 51.169478], [-1.888587, 51.169393], [-1.888945, 51.169298], [-1.889137, 51.169254], [-1.889303, 51.169216], [-1.889661, 51.169147], [-1.890018, 51.169089], [-1.890376, 51.169043], [-1.890497, 51.16903], [-1.890734, 51.169007], [-1.891091, 51.168981], [-1.891449, 51.168965], [-1.891807, 51.168958], [-1.892164, 51.16896], [-1.892522, 51.168971], [-1.892879, 51.168989], [-1.893237, 51.169016], [-1.893411, 51.169033], [-1.893594, 51.169051], [-1.893952, 51.169094], [-1.894309, 51.169144], [-1.894667, 51.169201], [-1.89499, 51.169259], [-1.895024, 51.169265], [-1.895381, 51.169337], [-1.895739, 51.169417], [-1.896018, 51.169485], [-1.896096, 51.169504], [-1.896454, 51.169598], [-1.896811, 51.169701], [-1.896841, 51.169711], [-1.897168, 51.169811], [-1.897525, 51.169932], [-1.897537, 51.169936], [-1.897883, 51.170057], [-1.89816, 51.170161], [-1.89824, 51.170189], [-1.898597, 51.170306], [-1.8989, 51.170387], [-1.898955, 51.170399], [-1.899312, 51.170489], [-1.89967, 51.170601], [-1.899701, 51.170612], [-1.900027, 51.170741], [-1.900245, 51.170838], [-1.900384, 51.17091], [-1.900677, 51.171063], [-1.900741, 51.171103], [-1.901063, 51.171288], [-1.901098, 51.171311], [-1.901449, 51.171513], [-1.901455, 51.171517], [-1.901813, 51.171708], [-1.901877, 51.171738], [-1.90217, 51.171877], [-1.902381, 51.171963], [-1.902527, 51.172023], [-1.902884, 51.172155], [-1.902977, 51.172189], [-1.903242, 51.172283], [-1.903599, 51.172407], [-1.903619, 51.172414], [-1.903956, 51.17254], [-1.904205, 51.172639], [-1.904314, 51.172684], [-1.904671, 51.172851], [-1.904697, 51.172864], [-1.905028, 51.173059], [-1.905074, 51.17309], [-1.905356, 51.173315], [-1.905385, 51.173344], [-1.905555, 51.173539], [-1.905686, 51.173764], [-1.905742, 51.173935], [-1.90576, 51.173989], [-1.905802, 51.174214], [-1.905866, 51.174439], [-1.906074, 51.174664], [-1.906098, 51.174681], [-1.906453, 51.174889], [-1.906455, 51.17489], [-1.906812, 51.17511], [-1.906819, 51.175114], [-1.907117, 51.175339], [-1.907169, 51.175392], [-1.90735, 51.175564], [-1.907526, 51.175789]]}}, {"type": "Feature", "properties": {"rockhead_m_od": 85.0, "label": "85 m OD"}, "geometry": {"type": "LineString", "coordinates": [[-1.907523, 51.177103], [-1.907486, 51.177138], [-1.907165, 51.17734], [-1.907093, 51.177362], [-1.906807, 51.177436], [-1.90645, 51.177451], [-1.906092, 51.177402], [-1.905963, 51.177361], [-1.905735, 51.177297], [-1.905389, 51.177136], [-1.905378, 51.177131], [-1.905033, 51.176911], [-1.90502, 51.176904], [-1.904764, 51.176686], [-1.904663, 51.176601], [-1.904537, 51.176461], [-1.904341, 51.176236], [-1.904307, 51.176197], [-1.904173, 51.176011], [-1.90401, 51.175786], [-1.90395, 51.175711], [-1.903841, 51.175561], [-1.903636, 51.175336], [-1.903593, 51.175299], [-1.903365, 51.175111], [-1.903236, 51.175023], [-1.903008, 51.174886], [-1.902879, 51.174812], [-1.902568, 51.174661], [-1.902522, 51.174638], [-1.902164, 51.174498], [-1.901941, 51.174436], [-1.901807, 51.174397], [-1.90145, 51.174313], [-1.901092, 51.174239], [-1.900934, 51.17421], [-1.900735, 51.174167], [-1.900377, 51.174102], [-1.90002, 51.174049], [-1.899662, 51.174014], [-1.899305, 51.174004], [-1.898947, 51.174028], [-1.898589, 51.174094], [-1.898231, 51.174206], [-1.898226, 51.174208], [-1.897873, 51.174359], [-1.897735, 51.174432], [-1.897515, 51.174552], [-1.897348, 51.174657], [-1.897157, 51.17478], [-1.897015, 51.174881], [-1.896799, 51.175042], [-1.896718, 51.175106], [-1.896447, 51.17533], [-1.896441, 51.175336], [-1.896198, 51.175555], [-1.896082, 51.175665], [-1.896011, 51.175734]]}}, {"type": "Feature", "properties": {"rockhead_m_od": 85.0, "label": "85 m OD"}, "geometry": {"type": "LineString", "coordinates": [[-1.803095, 51.176958], [-1.802865, 51.177009], [-1.802737, 51.177036], [-1.802379, 51.177114], [-1.802021, 51.177192], [-1.801842, 51.177232], [-1.801663, 51.17727], [-1.801305, 51.177349], [-1.800947, 51.177428], [-1.800832, 51.177455], [-1.800589, 51.177508], [-1.800231, 51.177589], [-1.799873, 51.177671], [-1.799844, 51.177678], [-1.799515, 51.177754], [-1.799157, 51.177838], [-1.798902, 51.177901], [-1.798799, 51.177925], [-1.798441, 51.178015], [-1.798083, 51.178109], [-1.798031, 51.178124], [-1.797725, 51.17821], [-1.797367, 51.178326], [-1.797312, 51.178348], [-1.797009, 51.178461], [-1.796651, 51.178538], [-1.796293, 51.178524], [-1.796029, 51.17857], [-1.795935, 51.178596], [-1.795691, 51.178795], [-1.795577, 51.178853], [-1.795218, 51.178987], [-1.794959, 51.179018], [-1.794861, 51.17903], [-1.794725, 51.179018], [-1.794503, 51.178999], [-1.794146, 51.178893], [-1.793952, 51.178792], [-1.793789, 51.178697], [-1.793614, 51.178566], [-1.793433, 51.178427], [-1.793309, 51.178341], [-1.793076, 51.178208], [-1.792772, 51.178115], [-1.792719, 51.1781], [-1.792361, 51.178081], [-1.792162, 51.178114], [-1.792003, 51.178145], [-1.791645, 51.178326], [-1.791626, 51.178338], [-1.791365, 51.178562], [-1.791286, 51.178628], [-1.791065, 51.178786], [-1.790927, 51.178889], [-1.790746, 51.179011], [-1.790568, 51.17913], [-1.790384, 51.179235], [-1.79021, 51.179337], [-1.789967, 51.179459], [-1.789851, 51.17952], [-1.789508, 51.179683], [-1.789493, 51.17969], [-1.789134, 51.179851], [-1.788999, 51.179907], [-1.788776, 51.180001], [-1.788435, 51.180131], [-1.788418, 51.180137], [-1.78806, 51.180263], [-1.787769, 51.180354], [-1.787701, 51.180376], [-1.787343, 51.180479], [-1.786985, 51.180572], [-1.786961, 51.180577], [-1.786627, 51.180658], [-1.786269, 51.180735], [-1.78594, 51.1808], [-1.785911, 51.180807], [-1.785553, 51.180874], [-1.785195, 51.180938], [-1.784837, 51.181], [-1.784701, 51.181023], [-1.784479, 51.181062], [-1.784121, 51.181124], [-1.783763, 51.181189], [-1.783459, 51.181245], [-1.783405, 51.181256], [-1.783047, 51.181328], [-1.782689, 51.181404], [-1.782409, 51.181468], [-1.782331, 51.181487], [-1.781973, 51.181575], [-1.781615, 51.18167], [-1.781539, 51.181692]]}}, {"type": "Feature", "properties": {"rockhead_m_od": 85.0, "label": "85 m OD"}, "geometry": {"type": "LineString", "coordinates": [[-1.754899, 51.176865], [-1.754816, 51.176732], [-1.754792, 51.176693], [-1.754655, 51.176468], [-1.754518, 51.176243], [-1.754462, 51.176149], [-1.754383, 51.176018], [-1.754248, 51.175793], [-1.754113, 51.175568], [-1.754107, 51.175557], [-1.753979, 51.175342], [-1.753845, 51.175117], [-1.753753, 51.174963], [-1.753711, 51.174892], [-1.753576, 51.174667], [-1.753442, 51.174442], [-1.753398, 51.174369], [-1.753308, 51.174217], [-1.753175, 51.173992], [-1.753044, 51.173771], [-1.753041, 51.173767], [-1.752909, 51.173542], [-1.752778, 51.173317], [-1.752689, 51.173165], [-1.752647, 51.173092], [-1.752517, 51.172867], [-1.752387, 51.172642], [-1.752335, 51.172551], [-1.752258, 51.172416], [-1.75213, 51.172191], [-1.752002, 51.171966], [-1.751981, 51.171929], [-1.751875, 51.171741]]}}, {"type": "Feature", "properties": {"rockhead_m_od": 90.0, "label": "90 m OD"}, "geometry": {"type": "LineString", "coordinates": [[-1.89493, 51.168585], [-1.895025, 51.168605], [-1.895383, 51.16869], [-1.89574, 51.168784], [-1.895833, 51.16881], [-1.896098, 51.168885], [-1.896455, 51.168994], [-1.896581, 51.169036], [-1.896812, 51.169111], [-1.897169, 51.169236], [-1.897236, 51.169261], [-1.897527, 51.169368], [-1.897831, 51.169487], [-1.897884, 51.169507], [-1.898241, 51.169647], [-1.898409, 51.169712], [-1.898599, 51.169783], [-1.898956, 51.169907], [-1.899047, 51.169937], [-1.899313, 51.170017], [-1.899671, 51.170127], [-1.899779, 51.170163], [-1.900028, 51.170243], [-1.900385, 51.170372], [-1.900427, 51.170388], [-1.900742, 51.170514], [-1.900978, 51.170613], [-1.9011, 51.170668], [-1.901457, 51.170829], [-1.901477, 51.170839], [-1.901814, 51.170997], [-1.901961, 51.171064], [-1.902171, 51.171163], [-1.902455, 51.171289], [-1.902529, 51.171322], [-1.902886, 51.171475], [-1.902981, 51.171514], [-1.903243, 51.171622], [-1.903539, 51.171739], [-1.903601, 51.171764], [-1.903958, 51.171905], [-1.904106, 51.171965], [-1.904315, 51.172049], [-1.904649, 51.17219], [-1.904672, 51.1722], [-1.90503, 51.172366], [-1.905129, 51.172415], [-1.905387, 51.172554], [-1.905536, 51.17264], [-1.905744, 51.172776], [-1.905872, 51.172865], [-1.906101, 51.173054], [-1.906144, 51.17309], [-1.906364, 51.173315], [-1.906458, 51.173439], [-1.906542, 51.17354], [-1.906698, 51.173765], [-1.906814, 51.173942], [-1.906854, 51.17399], [-1.907074, 51.174215], [-1.907171, 51.174289], [-1.907391, 51.17444], [-1.907529, 51.174522]]}}, {"type": "Feature", "properties": {"rockhead_m_od": 90.0, "label": "90 m OD"}, "geometry": {"type": "LineString", "coordinates": [[-1.82089, 51.173603], [-1.820735, 51.173665], [-1.820632, 51.173707], [-1.820274, 51.173849], [-1.82017, 51.173889], [-1.819915, 51.173988], [-1.819589, 51.174113], [-1.819557, 51.174125], [-1.819199, 51.174259], [-1.818988, 51.174337], [-1.818841, 51.17439], [-1.818483, 51.174519], [-1.818363, 51.174561], [-1.818125, 51.174644], [-1.817767, 51.174766], [-1.817711, 51.174785], [-1.817409, 51.174885], [-1.817051, 51.175], [-1.817025, 51.175008], [-1.816693, 51.175112], [-1.816334, 51.17522], [-1.816294, 51.175232], [-1.815976, 51.175324], [-1.815618, 51.175425], [-1.815506, 51.175456], [-1.81526, 51.175521], [-1.814902, 51.175615], [-1.81465, 51.175679], [-1.814544, 51.175705], [-1.814186, 51.175793], [-1.813829, 51.175878], [-1.813725, 51.175902], [-1.813471, 51.175961], [-1.813113, 51.176042], [-1.812755, 51.176121], [-1.812733, 51.176126], [-1.812397, 51.176198], [-1.812039, 51.176274], [-1.811681, 51.176348], [-1.811677, 51.176349], [-1.811323, 51.176421], [-1.810965, 51.176492], [-1.810607, 51.176563], [-1.810562, 51.176572], [-1.810249, 51.176632]]}}, {"type": "Feature", "properties": {"rockhead_m_od": 90.0, "label": "90 m OD"}, "geometry": {"type": "LineString", "coordinates": [[-1.875412, 51.174003], [-1.875463, 51.173961], [-1.875703, 51.173772], [-1.875748, 51.173736], [-1.876053, 51.173512], [-1.876061, 51.173506], [-1.876385, 51.173288], [-1.87642, 51.173265], [-1.87675, 51.173063], [-1.876778, 51.173048], [-1.877136, 51.172853], [-1.877164, 51.172839], [-1.877494, 51.172683], [-1.877648, 51.172615], [-1.877852, 51.172532], [-1.87821, 51.1724], [-1.878237, 51.17239], [-1.878568, 51.172288], [-1.878926, 51.172189], [-1.879018, 51.172166], [-1.879283, 51.172109], [-1.879641, 51.172043], [-1.879999, 51.171992], [-1.880357, 51.171969], [-1.880714, 51.172], [-1.881072, 51.172033], [-1.881429, 51.172026], [-1.881787, 51.171978], [-1.881934, 51.171944], [-1.882145, 51.171894], [-1.882503, 51.171773], [-1.882627, 51.17172], [-1.882861, 51.171614], [-1.883084, 51.171496], [-1.883219, 51.171419], [-1.883458, 51.171272], [-1.883577, 51.171194], [-1.883791, 51.171047], [-1.883935, 51.170944], [-1.884102, 51.170823], [-1.884293, 51.170681], [-1.884406, 51.170598], [-1.884652, 51.170417], [-1.884712, 51.170374], [-1.88501, 51.17016], [-1.885026, 51.170149], [-1.885358, 51.169925], [-1.885368, 51.169918], [-1.885714, 51.1697], [-1.885726, 51.169693], [-1.886084, 51.169487], [-1.886105, 51.169476], [-1.886442, 51.1693], [-1.886543, 51.169251], [-1.8868, 51.169131], [-1.887043, 51.169027], [-1.887158, 51.168979], [-1.887516, 51.168844], [-1.887637, 51.168803], [-1.887874, 51.168724], [-1.888232, 51.168619], [-1.888384, 51.168579]]}}, {"type": "Feature", "properties": {"rockhead_m_od": 90.0, "label": "90 m OD"}, "geometry": {"type": "LineString", "coordinates": [[-1.803449, 51.177826], [-1.803091, 51.177885], [-1.802957, 51.177908], [-1.802733, 51.177945], [-1.802375, 51.178005], [-1.802018, 51.178065], [-1.80166, 51.178125], [-1.801627, 51.17813], [-1.801302, 51.178185], [-1.800944, 51.178246], [-1.800586, 51.178307], [-1.800321, 51.178353], [-1.800228, 51.178369], [-1.79987, 51.178432], [-1.799512, 51.178496], [-1.799154, 51.178561], [-1.799076, 51.178576], [-1.798796, 51.178629], [-1.798438, 51.178702], [-1.79808, 51.17878], [-1.798004, 51.178799], [-1.797722, 51.17887], [-1.797364, 51.178968], [-1.797154, 51.179022], [-1.797006, 51.17906], [-1.796648, 51.179145], [-1.79629, 51.179236], [-1.796258, 51.179245], [-1.795932, 51.179335], [-1.795574, 51.179421], [-1.795254, 51.179468], [-1.795216, 51.179474], [-1.794858, 51.179489], [-1.794583, 51.179467], [-1.794501, 51.179461], [-1.794144, 51.179389], [-1.793787, 51.179252], [-1.793764, 51.179241], [-1.79343, 51.179036], [-1.793401, 51.179015], [-1.793139, 51.17879], [-1.793074, 51.178733], [-1.792817, 51.178565], [-1.792717, 51.178522], [-1.792359, 51.178521], [-1.792235, 51.178564], [-1.792001, 51.178719], [-1.791942, 51.178788], [-1.791744, 51.179013], [-1.791641, 51.179114], [-1.791511, 51.179237], [-1.791282, 51.179435], [-1.791249, 51.179461], [-1.790955, 51.179685], [-1.790923, 51.179708], [-1.790623, 51.17991], [-1.790565, 51.179948], [-1.790254, 51.180134], [-1.790206, 51.180163], [-1.789848, 51.180358], [-1.789847, 51.180358], [-1.789489, 51.180541], [-1.7894, 51.180582], [-1.78913, 51.18071], [-1.788909, 51.180806], [-1.788772, 51.180866], [-1.788414, 51.181012], [-1.788368, 51.18103], [-1.788055, 51.18115], [-1.787767, 51.181253], [-1.787697, 51.181279], [-1.787339, 51.181402], [-1.787104, 51.181477], [-1.786981, 51.181518], [-1.786623, 51.181629], [-1.786382, 51.1817], [-1.786264, 51.181737], [-1.785906, 51.181842], [-1.785815, 51.181867]]}}, {"type": "Feature", "properties": {"rockhead_m_od": 90.0, "label": "90 m OD"}, "geometry": {"type": "LineString", "coordinates": [[-1.75298, 51.178512], [-1.752964, 51.178488], [-1.75282, 51.178262], [-1.752682, 51.178037], [-1.752664, 51.178006], [-1.75255, 51.177812], [-1.752424, 51.177587], [-1.752309, 51.177376], [-1.752302, 51.177362], [-1.752183, 51.177137], [-1.752068, 51.176912], [-1.751955, 51.176692], [-1.751953, 51.176687], [-1.751838, 51.176462], [-1.751721, 51.176237], [-1.751601, 51.176012], [-1.751478, 51.175787], [-1.75135, 51.175562], [-1.751247, 51.175387], [-1.751217, 51.175337], [-1.751082, 51.175112], [-1.750947, 51.174886], [-1.750893, 51.174796], [-1.750812, 51.174661], [-1.750679, 51.174436], [-1.750548, 51.174211], [-1.750538, 51.174195], [-1.750418, 51.173986], [-1.750289, 51.173761], [-1.750184, 51.173578], [-1.75016, 51.173536], [-1.750033, 51.173311], [-1.749906, 51.173086], [-1.74983, 51.172951], [-1.749779, 51.172861], [-1.749654, 51.172636], [-1.749529, 51.172411], [-1.749476, 51.172314], [-1.749405, 51.172186], [-1.749282, 51.171961], [-1.749159, 51.171735], [-1.749121, 51.171667], [-1.749036, 51.17151], [-1.748914, 51.171285]]}}, {"type": "Feature", "properties": {"rockhead_m_od": 90.0, "label": "90 m OD"}, "geometry": {"type": "LineString", "coordinates": [[-1.904501, 51.179383], [-1.90431, 51.179158], [-1.9043, 51.179147], [-1.904151, 51.178934], [-1.904012, 51.178709], [-1.903944, 51.178588], [-1.903891, 51.178484], [-1.903786, 51.178259], [-1.903694, 51.178034], [-1.903612, 51.177809], [-1.903588, 51.177742], [-1.903538, 51.177584], [-1.903471, 51.177359], [-1.90341, 51.177135], [-1.903354, 51.17691], [-1.903301, 51.176685], [-1.903248, 51.17646], [-1.903233, 51.176404], [-1.903187, 51.176235], [-1.903112, 51.17601], [-1.903013, 51.175785], [-1.902877, 51.175584], [-1.902857, 51.17556], [-1.90252, 51.175343], [-1.902499, 51.175335], [-1.902163, 51.175222], [-1.901805, 51.175139], [-1.901608, 51.17511], [-1.901448, 51.175087], [-1.90109, 51.175062], [-1.900733, 51.175058], [-1.900375, 51.175073], [-1.900027, 51.175109], [-1.900017, 51.17511], [-1.89966, 51.175177], [-1.899302, 51.175275], [-1.899142, 51.175333], [-1.898944, 51.175415], [-1.898664, 51.175557], [-1.898586, 51.175603], [-1.89832, 51.175781], [-1.898228, 51.175853], [-1.898046, 51.176006], [-1.897869, 51.176176], [-1.897815, 51.176231], [-1.897619, 51.176455], [-1.897511, 51.176596], [-1.897448, 51.17668], [-1.897298, 51.176905], [-1.897162, 51.177129], [-1.897152, 51.177148], [-1.897073, 51.177304]]}}, {"type": "Feature", "properties": {"rockhead_m_od": 95.0, "label": "95 m OD"}, "geometry": {"type": "LineString", "coordinates": [[-1.897124, 51.168587], [-1.897171, 51.168604], [-1.897528, 51.168741], [-1.897703, 51.168812], [-1.897885, 51.168885], [-1.898243, 51.169032], [-1.898255, 51.169037], [-1.8986, 51.169178], [-1.898807, 51.169263], [-1.898957, 51.169321], [-1.899314, 51.169458], [-1.899393, 51.169488], [-1.899672, 51.169587], [-1.900022, 51.169713], [-1.900029, 51.169716], [-1.900386, 51.169843], [-1.900638, 51.169939], [-1.900744, 51.169978], [-1.901101, 51.170118], [-1.901214, 51.170164], [-1.901458, 51.170264], [-1.901753, 51.170389], [-1.901815, 51.170416], [-1.902173, 51.170573], [-1.902267, 51.170614], [-1.90253, 51.170731], [-1.902775, 51.17084], [-1.902887, 51.170889], [-1.903244, 51.171044], [-1.903294, 51.171065], [-1.903602, 51.171195], [-1.903831, 51.17129], [-1.903959, 51.171343], [-1.904316, 51.171488], [-1.904383, 51.171515], [-1.904674, 51.171634], [-1.904931, 51.171741], [-1.905031, 51.171783], [-1.905388, 51.171939], [-1.905449, 51.171966], [-1.905745, 51.172107], [-1.905916, 51.172191], [-1.906103, 51.172292], [-1.906327, 51.172416], [-1.90646, 51.172499], [-1.906686, 51.172641], [-1.906817, 51.172735], [-1.907004, 51.172866], [-1.907174, 51.173003], [-1.907292, 51.173091], [-1.907531, 51.173289]]}}, {"type": "Feature", "properties": {"rockhead_m_od": 95.0, "label": "95 m OD"}, "geometry": {"type": "LineString", "coordinates": [[-1.850747, 51.168537], [-1.85077, 51.168762], [-1.850785, 51.168987], [-1.850794, 51.169211], [-1.850797, 51.169436], [-1.850792, 51.169661], [-1.85078, 51.169886], [-1.850755, 51.170111], [-1.850705, 51.170335], [-1.850681, 51.170391], [-1.850587, 51.17056], [-1.850323, 51.17077], [-1.850304, 51.170784], [-1.849964, 51.170959], [-1.849893, 51.171009], [-1.849606, 51.171197], [-1.849568, 51.171233], [-1.849378, 51.171458], [-1.849289, 51.171682], [-1.849297, 51.171907], [-1.849384, 51.172132], [-1.849602, 51.172346], [-1.849618, 51.172357], [-1.849602, 51.172367], [-1.849244, 51.172542], [-1.849203, 51.172581], [-1.848886, 51.172709], [-1.84873, 51.172806], [-1.848528, 51.172953], [-1.848445, 51.17303], [-1.848407, 51.173255], [-1.848383, 51.173479], [-1.848526, 51.173574], [-1.848839, 51.173705], [-1.848883, 51.173722], [-1.84924, 51.173858], [-1.849352, 51.17393], [-1.849597, 51.174095], [-1.84967, 51.174156], [-1.849948, 51.174381], [-1.849953, 51.174385], [-1.850215, 51.174606], [-1.85031, 51.174686], [-1.850492, 51.174831], [-1.850667, 51.174969], [-1.850788, 51.175056], [-1.851023, 51.175223], [-1.851116, 51.175281], [-1.85138, 51.175448], [-1.851488, 51.175507], [-1.851737, 51.175644], [-1.851924, 51.175732], [-1.852094, 51.175815], [-1.852438, 51.175957], [-1.852452, 51.175964], [-1.852809, 51.176105], [-1.853035, 51.176183], [-1.853166, 51.176232], [-1.853523, 51.176355], [-1.853684, 51.176409], [-1.85388, 51.176478], [-1.854238, 51.176602], [-1.854329, 51.176634], [-1.854595, 51.176734], [-1.854935, 51.17686], [-1.854952, 51.176866], [-1.855309, 51.17701], [-1.8555, 51.177085], [-1.855666, 51.177153], [-1.856024, 51.177296], [-1.85606, 51.177311], [-1.856381, 51.177441], [-1.856631, 51.177536], [-1.856738, 51.177577], [-1.857095, 51.177709], [-1.85725, 51.177762], [-1.857453, 51.177832], [-1.857611, 51.177888]]}}, {"type": "Feature", "properties": {"rockhead_m_od": 95.0, "label": "95 m OD"}, "geometry": {"type": "LineString", "coordinates": [[-1.834091, 51.170763], [-1.833874, 51.170805], [-1.833516, 51.170883], [-1.833158, 51.170967], [-1.833086, 51.170986], [-1.8328, 51.171059], [-1.832442, 51.171157], [-1.83226, 51.17121], [-1.832084, 51.171261], [-1.831726, 51.171371], [-1.831533, 51.171433], [-1.831368, 51.171487], [-1.83101, 51.171608], [-1.830869, 51.171657], [-1.830652, 51.171734], [-1.830359, 51.17184]]}}, {"type": "Feature", "properties": {"rockhead_m_od": 95.0, "label": "95 m OD"}, "geometry": {"type": "LineString", "coordinates": [[-1.873826, 51.17306], [-1.873917, 51.172994], [-1.87414, 51.172836], [-1.874275, 51.172742], [-1.874471, 51.172611], [-1.874634, 51.172506], [-1.874825, 51.172387], [-1.874992, 51.172287], [-1.875214, 51.172162], [-1.87535, 51.17209], [-1.875656, 51.171938], [-1.875708, 51.171914], [-1.876066, 51.171761], [-1.876189, 51.171714], [-1.876424, 51.17163], [-1.876782, 51.171519], [-1.876893, 51.17149], [-1.87714, 51.171429], [-1.877497, 51.171356], [-1.877855, 51.171299], [-1.878133, 51.171266], [-1.878213, 51.171257], [-1.878571, 51.171229], [-1.878928, 51.171213], [-1.879286, 51.171209], [-1.879643, 51.171219], [-1.880001, 51.171244], [-1.880185, 51.171268], [-1.880358, 51.171286], [-1.880716, 51.171333], [-1.881073, 51.171342], [-1.881431, 51.171289], [-1.8815, 51.17127], [-1.881789, 51.171172], [-1.882077, 51.171045], [-1.882147, 51.17101], [-1.882473, 51.170821], [-1.882505, 51.170801], [-1.882804, 51.170597], [-1.882863, 51.170554], [-1.883105, 51.170372], [-1.883222, 51.170283], [-1.883394, 51.170148], [-1.88358, 51.170003], [-1.883682, 51.169923], [-1.883938, 51.169727], [-1.883976, 51.169699], [-1.884282, 51.169474], [-1.884296, 51.169464], [-1.884606, 51.16925], [-1.884655, 51.169217], [-1.884956, 51.169025], [-1.885013, 51.168991], [-1.88534, 51.168801], [-1.885371, 51.168783], [-1.885546, 51.168686]]}}, {"type": "Feature", "properties": {"rockhead_m_od": 95.0, "label": "95 m OD"}, "geometry": {"type": "LineString", "coordinates": [[-1.822415, 51.17503], [-1.822057, 51.175161], [-1.821837, 51.175241], [-1.821699, 51.17529], [-1.82134, 51.175417], [-1.821203, 51.175464], [-1.820982, 51.175541], [-1.820624, 51.175662], [-1.820545, 51.175688], [-1.820266, 51.17578], [-1.819908, 51.175896], [-1.819857, 51.175912], [-1.81955, 51.176008], [-1.819192, 51.176118], [-1.819134, 51.176136], [-1.818834, 51.176225], [-1.818476, 51.176328], [-1.818366, 51.176359], [-1.818118, 51.176428], [-1.81776, 51.176525], [-1.817539, 51.176583], [-1.817402, 51.176618], [-1.817044, 51.176707], [-1.816686, 51.176793], [-1.816627, 51.176806], [-1.816328, 51.176874], [-1.81597, 51.176951], [-1.815612, 51.177025], [-1.815593, 51.177029], [-1.815254, 51.177097], [-1.814896, 51.177166], [-1.814538, 51.177233], [-1.814432, 51.177252], [-1.81418, 51.177298], [-1.813823, 51.177361], [-1.813465, 51.177422], [-1.813148, 51.177475], [-1.813107, 51.177482], [-1.812749, 51.17754], [-1.812391, 51.177597], [-1.812033, 51.177653], [-1.811742, 51.177698], [-1.811675, 51.177708], [-1.811317, 51.177761], [-1.81096, 51.177814], [-1.810602, 51.177865]]}}, {"type": "Feature", "properties": {"rockhead_m_od": 95.0, "label": "95 m OD"}, "geometry": {"type": "LineString", "coordinates": [[-1.848484, 51.177095], [-1.848457, 51.177076], [-1.848157, 51.176874], [-1.848127, 51.176851], [-1.8478, 51.17663], [-1.847795, 51.176626], [-1.847473, 51.176401], [-1.847443, 51.176382], [-1.847166, 51.176176], [-1.847087, 51.176121], [-1.846878, 51.17595], [-1.84673, 51.175837], [-1.846609, 51.175725], [-1.846373, 51.175513], [-1.846362, 51.1755], [-1.846161, 51.175275], [-1.846017, 51.175109], [-1.845977, 51.17505], [-1.845837, 51.174825], [-1.845715, 51.1746], [-1.845662, 51.17448], [-1.845627, 51.174375], [-1.845582, 51.17415], [-1.845594, 51.173925], [-1.845664, 51.173831], [-1.846021, 51.17389], [-1.846379, 51.173859], [-1.846581, 51.173702], [-1.846678, 51.173477], [-1.846689, 51.173252], [-1.846382, 51.173046], [-1.846298, 51.173027], [-1.846025, 51.172896], [-1.845667, 51.172855], [-1.84545, 51.172801], [-1.84531, 51.172746], [-1.844953, 51.172589], [-1.844923, 51.172576], [-1.844596, 51.172395], [-1.844502, 51.17235], [-1.844239, 51.172207], [-1.844054, 51.172125], [-1.843882, 51.172036], [-1.843576, 51.1719], [-1.843525, 51.171874], [-1.843168, 51.171713], [-1.843074, 51.171674], [-1.842811, 51.171557], [-1.842538, 51.171449], [-1.842454, 51.171413], [-1.842096, 51.171278], [-1.841931, 51.171223], [-1.841739, 51.171156], [-1.841382, 51.171045], [-1.841212, 51.170997], [-1.841025, 51.170943], [-1.840668, 51.170852], [-1.84031, 51.170772], [-1.840308, 51.170771], [-1.839953, 51.170699], [-1.839596, 51.170636], [-1.839238, 51.170583], [-1.838927, 51.170544], [-1.838881, 51.170539], [-1.838523, 51.170503], [-1.838166, 51.170476], [-1.837808, 51.170458], [-1.837451, 51.170449], [-1.837244, 51.170448]]}}, {"type": "Feature", "properties": {"rockhead_m_od": 95.0, "label": "95 m OD"}, "geometry": {"type": "LineString", "coordinates": [[-1.803803, 51.178743], [-1.803445, 51.178787], [-1.803276, 51.178808], [-1.803087, 51.178831], [-1.802729, 51.178875], [-1.802372, 51.17892], [-1.802014, 51.178965], [-1.801656, 51.17901], [-1.8015, 51.179029], [-1.801298, 51.179056], [-1.80094, 51.179103], [-1.800582, 51.179151], [-1.800225, 51.1792], [-1.799867, 51.179251], [-1.799862, 51.179251], [-1.799509, 51.179306], [-1.799151, 51.179364], [-1.798793, 51.179426], [-1.798534, 51.179474], [-1.798435, 51.179493], [-1.798077, 51.179566], [-1.797719, 51.179643], [-1.797473, 51.179697], [-1.797361, 51.179722], [-1.797003, 51.179801], [-1.796645, 51.179876], [-1.796424, 51.17992], [-1.796287, 51.179947], [-1.795929, 51.180008], [-1.795571, 51.180055], [-1.795213, 51.180084], [-1.794856, 51.180094], [-1.794498, 51.180084], [-1.794141, 51.180054], [-1.793783, 51.180004], [-1.793426, 51.179942], [-1.793227, 51.179914], [-1.793068, 51.179888], [-1.792711, 51.179882], [-1.792586, 51.179913], [-1.792353, 51.179971], [-1.792014, 51.180137], [-1.791994, 51.180146], [-1.791636, 51.180356], [-1.791628, 51.180361], [-1.791277, 51.180574], [-1.791259, 51.180585], [-1.790918, 51.180787], [-1.79088, 51.180809], [-1.79056, 51.180992], [-1.790485, 51.181033], [-1.790201, 51.181188], [-1.790069, 51.181258], [-1.789843, 51.181375], [-1.789629, 51.181482], [-1.789484, 51.181553], [-1.789163, 51.181705], [-1.789126, 51.181723], [-1.788767, 51.181887], [-1.788669, 51.181929], [-1.788409, 51.182045], [-1.78815, 51.182153]]}}, {"type": "Feature", "properties": {"rockhead_m_od": 95.0, "label": "95 m OD"}, "geometry": {"type": "LineString", "coordinates": [[-1.750698, 51.179607], [-1.750523, 51.179382], [-1.75051, 51.179364], [-1.750354, 51.179156], [-1.75019, 51.178931], [-1.750155, 51.17888], [-1.750033, 51.178706], [-1.749884, 51.178481], [-1.749801, 51.178345], [-1.749744, 51.178256], [-1.749613, 51.178031], [-1.749496, 51.177806], [-1.749446, 51.177696], [-1.749393, 51.177581], [-1.749304, 51.177356], [-1.749234, 51.177131], [-1.74918, 51.176906], [-1.74914, 51.176681], [-1.749104, 51.176456], [-1.749096, 51.176412], [-1.749062, 51.176231], [-1.749002, 51.176006], [-1.748914, 51.175781], [-1.748787, 51.175556], [-1.748743, 51.175492], [-1.748626, 51.175331], [-1.748459, 51.175106], [-1.748388, 51.175008], [-1.748287, 51.174881], [-1.748122, 51.174656], [-1.748033, 51.174525], [-1.747966, 51.17443], [-1.74782, 51.174205], [-1.747685, 51.17398], [-1.747679, 51.173969], [-1.747557, 51.173755], [-1.747435, 51.17353], [-1.747325, 51.173319], [-1.747318, 51.173305], [-1.747203, 51.17308], [-1.747091, 51.172855], [-1.746978, 51.17263], [-1.746971, 51.172615], [-1.746867, 51.172405], [-1.746755, 51.17218], [-1.746642, 51.171955], [-1.746617, 51.171905], [-1.746529, 51.17173]]}}, {"type": "Feature", "properties": {"rockhead_m_od": 100.0, "label": "100 m OD"}, "geometry": {"type": "LineString", "coordinates": [[-1.898774, 51.168588], [-1.898959, 51.168667], [-1.899299, 51.168814], [-1.899316, 51.168821], [-1.899673, 51.16897], [-1.899838, 51.169039], [-1.90003, 51.169116], [-1.900388, 51.16926], [-1.900396, 51.169264], [-1.900745, 51.169403], [-1.900955, 51.169489], [-1.901102, 51.169548], [-1.901459, 51.169697], [-1.9015, 51.169715], [-1.901817, 51.169849], [-1.902023, 51.16994], [-1.902174, 51.170005], [-1.90253, 51.170165], [-1.902531, 51.170166], [-1.902888, 51.170327], [-1.903026, 51.17039], [-1.903246, 51.170489], [-1.903526, 51.170615], [-1.903603, 51.170649], [-1.90396, 51.170805], [-1.904042, 51.170841], [-1.904317, 51.170957], [-1.904583, 51.171066], [-1.904675, 51.171103], [-1.905032, 51.171246], [-1.905148, 51.171291], [-1.905389, 51.171388], [-1.905714, 51.171516], [-1.905747, 51.17153], [-1.906104, 51.171678], [-1.906256, 51.171742], [-1.906461, 51.171834], [-1.906753, 51.171967], [-1.906818, 51.172], [-1.907176, 51.172178], [-1.907204, 51.172192], [-1.907533, 51.17237]]}}, {"type": "Feature", "properties": {"rockhead_m_od": 100.0, "label": "100 m OD"}, "geometry": {"type": "LineString", "coordinates": [[-1.855108, 51.168542], [-1.855176, 51.168767], [-1.855244, 51.168992], [-1.855311, 51.169217], [-1.855333, 51.169302], [-1.855373, 51.169442], [-1.855427, 51.169667], [-1.855468, 51.169892], [-1.855338, 51.170116], [-1.855331, 51.170117], [-1.854973, 51.170129], [-1.854615, 51.170191], [-1.854282, 51.17034], [-1.854257, 51.170349], [-1.853997, 51.170564], [-1.853899, 51.17068], [-1.853835, 51.170789], [-1.853755, 51.171014], [-1.853697, 51.171238], [-1.853585, 51.171463], [-1.853538, 51.171525], [-1.853456, 51.171688], [-1.853352, 51.171912], [-1.853296, 51.172137], [-1.853204, 51.172362], [-1.853178, 51.172448], [-1.853131, 51.172586], [-1.853177, 51.172796], [-1.853181, 51.172811], [-1.853329, 51.173036], [-1.853533, 51.173225], [-1.853583, 51.173261], [-1.85389, 51.173434], [-1.854011, 51.173487], [-1.854247, 51.173576], [-1.854604, 51.17368], [-1.854738, 51.173712], [-1.854962, 51.173764], [-1.855319, 51.173835], [-1.855677, 51.173901], [-1.855863, 51.173939], [-1.856034, 51.173976], [-1.856391, 51.174086], [-1.856604, 51.174164], [-1.856748, 51.174225], [-1.857106, 51.174375], [-1.857142, 51.17439], [-1.857463, 51.174531], [-1.857665, 51.174615], [-1.85782, 51.174683], [-1.858177, 51.174828], [-1.85821, 51.174841], [-1.858534, 51.174968], [-1.858808, 51.175066], [-1.858891, 51.175097], [-1.859249, 51.175217], [-1.859495, 51.175292], [-1.859606, 51.175326], [-1.859963, 51.175425], [-1.860321, 51.175511], [-1.860352, 51.175518], [-1.860678, 51.175588], [-1.861035, 51.175653], [-1.861393, 51.175706], [-1.861718, 51.175744], [-1.86175, 51.175748]]}}, {"type": "Feature", "properties": {"rockhead_m_od": 100.0, "label": "100 m OD"}, "geometry": {"type": "LineString", "coordinates": [[-1.86825, 51.174628], [-1.868549, 51.174491], [-1.868727, 51.174403], [-1.868907, 51.174315], [-1.869168, 51.174179], [-1.869265, 51.174128], [-1.869579, 51.173955], [-1.869623, 51.17393], [-1.869966, 51.17373], [-1.869981, 51.173721], [-1.870332, 51.173506], [-1.87034, 51.173501], [-1.870682, 51.173281], [-1.870698, 51.173271], [-1.871018, 51.173057], [-1.871056, 51.173031], [-1.871343, 51.172833], [-1.871414, 51.172782], [-1.87166, 51.172608], [-1.871773, 51.172527], [-1.871972, 51.172384], [-1.872131, 51.172268], [-1.872281, 51.172159], [-1.872489, 51.172009], [-1.872592, 51.171935], [-1.872848, 51.171752], [-1.872908, 51.17171], [-1.873206, 51.171504], [-1.873234, 51.171486], [-1.873564, 51.171268], [-1.873575, 51.171261], [-1.873922, 51.171048], [-1.873941, 51.171037], [-1.874281, 51.170846], [-1.874345, 51.170813], [-1.874639, 51.170665], [-1.874813, 51.170588], [-1.874997, 51.170508], [-1.875355, 51.170377], [-1.875396, 51.170364], [-1.875712, 51.17027], [-1.87607, 51.170189], [-1.876372, 51.17014], [-1.876428, 51.170131], [-1.876786, 51.170092], [-1.877143, 51.170069], [-1.877501, 51.170059], [-1.877858, 51.17006], [-1.878216, 51.170069], [-1.878574, 51.170086], [-1.878931, 51.170109], [-1.879289, 51.170136], [-1.879391, 51.170144], [-1.879646, 51.170161], [-1.880004, 51.170178], [-1.880361, 51.170177], [-1.880684, 51.170145], [-1.880719, 51.170141], [-1.881077, 51.170049], [-1.881392, 51.169921], [-1.881435, 51.169902], [-1.881793, 51.169704], [-1.881804, 51.169696], [-1.882151, 51.169472], [-1.882474, 51.169247], [-1.882509, 51.169224], [-1.882795, 51.169023], [-1.882867, 51.168975], [-1.883123, 51.168798], [-1.883225, 51.168732], [-1.883467, 51.168574]]}}, {"type": "Feature", "properties": {"rockhead_m_od": 100.0, "label": "100 m OD"}, "geometry": {"type": "LineString", "coordinates": [[-1.822765, 51.17698], [-1.822568, 51.17704], [-1.822407, 51.177089], [-1.822049, 51.177195], [-1.821811, 51.177264], [-1.821691, 51.177298], [-1.821333, 51.177398], [-1.821006, 51.177487], [-1.820975, 51.177496], [-1.820617, 51.17759], [-1.820259, 51.177682], [-1.820142, 51.177711], [-1.819901, 51.17777], [-1.819543, 51.177855], [-1.8192, 51.177934], [-1.819185, 51.177937], [-1.818827, 51.178017], [-1.818469, 51.178093], [-1.818154, 51.178157], [-1.818111, 51.178166], [-1.817753, 51.178236], [-1.817395, 51.178303], [-1.817037, 51.178368], [-1.816965, 51.17838], [-1.816679, 51.178429], [-1.816322, 51.178488], [-1.815964, 51.178545], [-1.815606, 51.178599], [-1.81558, 51.178603], [-1.815248, 51.178651], [-1.81489, 51.178701], [-1.814532, 51.17875], [-1.814174, 51.178796], [-1.813943, 51.178825], [-1.813817, 51.178841], [-1.813459, 51.178884], [-1.813101, 51.178926], [-1.812743, 51.178967], [-1.812385, 51.179006], [-1.812028, 51.179045], [-1.812025, 51.179045]]}}, {"type": "Feature", "properties": {"rockhead_m_od": 100.0, "label": "100 m OD"}, "geometry": {"type": "LineString", "coordinates": [[-1.844599, 51.177957], [-1.844577, 51.177916], [-1.844487, 51.177746], [-1.844367, 51.177521], [-1.844247, 51.177296], [-1.844222, 51.177247], [-1.844131, 51.177071], [-1.844018, 51.176846], [-1.843909, 51.176621], [-1.843867, 51.176528], [-1.843806, 51.176396], [-1.843708, 51.176171], [-1.84362, 51.175946], [-1.843545, 51.175721], [-1.843512, 51.175595], [-1.843483, 51.175496], [-1.843439, 51.175271], [-1.843423, 51.175047], [-1.843445, 51.174822], [-1.843511, 51.174597], [-1.843516, 51.174584], [-1.843567, 51.174372], [-1.84358, 51.174148], [-1.843517, 51.17409], [-1.84316, 51.174018], [-1.84294, 51.173922], [-1.842821, 51.173697], [-1.842859, 51.173472], [-1.842804, 51.173419], [-1.842447, 51.173273], [-1.842193, 51.173471], [-1.842376, 51.173696], [-1.842445, 51.173857], [-1.842581, 51.173921], [-1.842445, 51.174034], [-1.842406, 51.174146], [-1.842197, 51.174371], [-1.842086, 51.17443], [-1.841728, 51.174506], [-1.84137, 51.174476], [-1.841037, 51.174369], [-1.841013, 51.17436], [-1.840664, 51.174144], [-1.840656, 51.174137], [-1.840434, 51.173919], [-1.8403, 51.173761], [-1.840232, 51.173693], [-1.840009, 51.173468], [-1.839944, 51.17341], [-1.839711, 51.173243], [-1.839587, 51.173168], [-1.839282, 51.173018], [-1.83923, 51.172995], [-1.838873, 51.172862], [-1.838634, 51.172792], [-1.838515, 51.172759], [-1.838158, 51.172678], [-1.837801, 51.172617], [-1.837443, 51.172574], [-1.837328, 51.172565], [-1.837086, 51.172547], [-1.836728, 51.172535], [-1.836371, 51.172537], [-1.836013, 51.172554], [-1.835896, 51.172563], [-1.835655, 51.172583], [-1.835297, 51.172626], [-1.83494, 51.17268], [-1.834582, 51.172747], [-1.834398, 51.172786], [-1.834224, 51.172824], [-1.833866, 51.172913], [-1.83351, 51.17301], [-1.833508, 51.17301], [-1.83315, 51.173118], [-1.832792, 51.173232], [-1.832789, 51.173233], [-1.832434, 51.173355], [-1.832148, 51.173457], [-1.832076, 51.173484], [-1.831718, 51.173618], [-1.831551, 51.173681], [-1.83136, 51.173756], [-1.831002, 51.173897], [-1.830981, 51.173905], [-1.830644, 51.174041], [-1.830424, 51.174129], [-1.830285, 51.174186], [-1.829927, 51.174331], [-1.829873, 51.174353], [-1.829569, 51.174477], [-1.829323, 51.174577], [-1.829211, 51.174623], [-1.828853, 51.174768], [-1.828769, 51.174801], [-1.828495, 51.174912], [-1.82821, 51.175025], [-1.828137, 51.175055], [-1.827778, 51.175196], [-1.827644, 51.175249], [-1.82742, 51.175337], [-1.827068, 51.175473], [-1.827062, 51.175475], [-1.826704, 51.175613]]}}, {"type": "Feature", "properties": {"rockhead_m_od": 100.0, "label": "100 m OD"}, "geometry": {"type": "LineString", "coordinates": [[-1.803247, 51.179828], [-1.803083, 51.179843], [-1.802725, 51.179876], [-1.802367, 51.179908], [-1.802142, 51.17993], [-1.80201, 51.179942], [-1.801652, 51.179978], [-1.801294, 51.180015], [-1.800936, 51.180054], [-1.800578, 51.180094], [-1.80022, 51.180137], [-1.800108, 51.180151], [-1.799863, 51.180183], [-1.799505, 51.180233], [-1.799147, 51.180285], [-1.798789, 51.180341], [-1.798594, 51.180373], [-1.798431, 51.180401], [-1.798073, 51.180463], [-1.797715, 51.180526], [-1.797357, 51.180588], [-1.797312, 51.180596], [-1.796999, 51.18065], [-1.796641, 51.180709], [-1.796283, 51.180763], [-1.795926, 51.18081], [-1.795854, 51.180818], [-1.795568, 51.180853], [-1.79521, 51.180889], [-1.794852, 51.18092], [-1.794494, 51.180948], [-1.794137, 51.180977], [-1.793779, 51.181013], [-1.793592, 51.181039], [-1.793421, 51.181065], [-1.793063, 51.181139], [-1.792705, 51.18124], [-1.792642, 51.181262], [-1.792346, 51.181369], [-1.792071, 51.181486], [-1.791988, 51.181521], [-1.79163, 51.181689], [-1.791588, 51.18171], [-1.791271, 51.181867], [-1.79114, 51.181934], [-1.790913, 51.182049], [-1.790699, 51.182158], [-1.790554, 51.182232], [-1.790258, 51.182382]]}}, {"type": "Feature", "properties": {"rockhead_m_od": 100.0, "label": "100 m OD"}, "geometry": {"type": "LineString", "coordinates": [[-1.7481, 51.180051], [-1.748004, 51.17994], [-1.747904, 51.179826], [-1.747708, 51.1796], [-1.747648, 51.179533], [-1.747511, 51.179375], [-1.747311, 51.17915], [-1.747293, 51.17913], [-1.74711, 51.178925], [-1.746937, 51.178737], [-1.746903, 51.178699], [-1.746694, 51.178474], [-1.746582, 51.178359], [-1.746479, 51.178249], [-1.746256, 51.178024], [-1.746226, 51.177995], [-1.746034, 51.177798], [-1.74587, 51.177642], [-1.745806, 51.177573], [-1.745584, 51.177348], [-1.745515, 51.17728], [-1.745379, 51.177122], [-1.745189, 51.176897], [-1.745159, 51.176858], [-1.745051, 51.176672], [-1.744968, 51.176447], [-1.744945, 51.176222], [-1.744957, 51.175998], [-1.744986, 51.175773], [-1.74502, 51.175548], [-1.745049, 51.175323], [-1.745067, 51.175099], [-1.74507, 51.174874], [-1.745058, 51.174649], [-1.745031, 51.174424], [-1.74499, 51.174199], [-1.744938, 51.173974], [-1.744875, 51.173749], [-1.74482, 51.173575], [-1.744804, 51.173524], [-1.744727, 51.173299], [-1.744643, 51.173075], [-1.744553, 51.17285], [-1.744467, 51.172649], [-1.744457, 51.172624]]}}, {"type": "Feature", "properties": {"rockhead_m_od": 100.0, "label": "100 m OD"}, "geometry": {"type": "LineString", "coordinates": [[-1.846381, 51.173217], [-1.846023, 51.173248], [-1.846016, 51.173252], [-1.846023, 51.173259], [-1.846381, 51.173346], [-1.846434, 51.173252], [-1.846381, 51.173217]]}}, {"type": "Feature", "properties": {"rockhead_m_od": 100.0, "label": "100 m OD"}, "geometry": {"type": "LineString", "coordinates": [[-1.843877, 51.173382], [-1.843777, 51.173473], [-1.843772, 51.173698], [-1.843876, 51.17388], [-1.843973, 51.173699], [-1.843959, 51.173474], [-1.843877, 51.173382]]}}, {"type": "Feature", "properties": {"rockhead_m_od": 105.0, "label": "105 m OD"}, "geometry": {"type": "LineString", "coordinates": [[-1.900365, 51.16859], [-1.900389, 51.1686], [-1.900746, 51.168759], [-1.900869, 51.168815], [-1.901103, 51.168918], [-1.901373, 51.16904], [-1.901461, 51.169078], [-1.901818, 51.16924], [-1.901872, 51.169265], [-1.902175, 51.169403], [-1.902359, 51.16949], [-1.902532, 51.169571], [-1.902834, 51.169716], [-1.90289, 51.169741], [-1.903247, 51.169913], [-1.903303, 51.169941], [-1.903604, 51.170085], [-1.903772, 51.170166], [-1.903961, 51.170254], [-1.904257, 51.170391], [-1.904318, 51.170418], [-1.904676, 51.170574], [-1.904777, 51.170616], [-1.905033, 51.17072], [-1.905348, 51.170842], [-1.90539, 51.170858], [-1.905748, 51.170988], [-1.905973, 51.171067], [-1.906105, 51.171115], [-1.906462, 51.171241], [-1.906607, 51.171292], [-1.90682, 51.171372], [-1.907177, 51.171507], [-1.907206, 51.171518], [-1.907534, 51.171649]]}}, {"type": "Feature", "properties": {"rockhead_m_od": 105.0, "label": "105 m OD"}, "geometry": {"type": "LineString", "coordinates": [[-1.858028, 51.168546], [-1.858049, 51.168771], [-1.858067, 51.168996], [-1.858082, 51.16922], [-1.858092, 51.169445], [-1.858098, 51.16967], [-1.858099, 51.169895], [-1.858096, 51.17012], [-1.858091, 51.170344], [-1.858091, 51.170569], [-1.858116, 51.170794], [-1.858162, 51.171019], [-1.858126, 51.171244], [-1.85783, 51.171439], [-1.857472, 51.171446], [-1.857115, 51.171393], [-1.856757, 51.171464], [-1.856742, 51.171467], [-1.856399, 51.171625], [-1.856172, 51.171691], [-1.856041, 51.171864], [-1.856007, 51.171916], [-1.85604, 51.172131], [-1.856041, 51.17214], [-1.856209, 51.172365], [-1.856396, 51.172503], [-1.856544, 51.172591], [-1.856753, 51.172683], [-1.85711, 51.172812], [-1.857122, 51.172816], [-1.857468, 51.172912], [-1.857825, 51.173007], [-1.857962, 51.173042], [-1.858182, 51.173097], [-1.85854, 51.173186], [-1.858858, 51.173268], [-1.858897, 51.173277], [-1.859254, 51.173364], [-1.859612, 51.173449], [-1.859808, 51.173494], [-1.859969, 51.173529], [-1.860326, 51.173602], [-1.860684, 51.173668], [-1.861009, 51.17372], [-1.861041, 51.173725], [-1.861399, 51.173773], [-1.861756, 51.173811], [-1.862114, 51.17384], [-1.862471, 51.173859]]}}, {"type": "Feature", "properties": {"rockhead_m_od": 105.0, "label": "105 m OD"}, "geometry": {"type": "LineString", "coordinates": [[-1.863404, 51.17386], [-1.863544, 51.173855], [-1.863902, 51.173833], [-1.864259, 51.1738], [-1.864617, 51.173757], [-1.864838, 51.173724], [-1.864975, 51.173704], [-1.865333, 51.17364], [-1.865691, 51.173565], [-1.86596, 51.173501], [-1.866048, 51.17348], [-1.866406, 51.173384], [-1.866764, 51.173277], [-1.867122, 51.173159], [-1.867414, 51.173053], [-1.86748, 51.173029], [-1.867838, 51.172887], [-1.867975, 51.172829], [-1.868196, 51.172733], [-1.868471, 51.172605], [-1.868554, 51.172565], [-1.868912, 51.172383], [-1.868918, 51.17238], [-1.869271, 51.172184], [-1.869318, 51.172156], [-1.869629, 51.171968], [-1.869685, 51.171932], [-1.869987, 51.171733], [-1.870024, 51.171707], [-1.870341, 51.171483], [-1.870345, 51.171479], [-1.87064, 51.171258], [-1.870704, 51.171209], [-1.870928, 51.171034], [-1.871062, 51.170927], [-1.87121, 51.170809], [-1.87142, 51.17064], [-1.87149, 51.170585], [-1.871773, 51.17036], [-1.871779, 51.170356], [-1.872064, 51.170136], [-1.872137, 51.17008], [-1.872368, 51.169911], [-1.872495, 51.16982], [-1.872692, 51.169687], [-1.872854, 51.169581], [-1.873045, 51.169462], [-1.873212, 51.169363], [-1.87344, 51.169238], [-1.87357, 51.16917], [-1.873898, 51.169014], [-1.873928, 51.169], [-1.874286, 51.168856], [-1.874478, 51.16879], [-1.874644, 51.168735], [-1.875002, 51.168637], [-1.875339, 51.168566]]}}, {"type": "Feature", "properties": {"rockhead_m_od": 105.0, "label": "105 m OD"}, "geometry": {"type": "LineString", "coordinates": [[-1.841459, 51.178576], [-1.841422, 51.178416], [-1.841364, 51.178191], [-1.841358, 51.178169], [-1.8413, 51.177966], [-1.841232, 51.177741], [-1.841157, 51.177516], [-1.841073, 51.177291], [-1.841004, 51.177125], [-1.840979, 51.177066], [-1.84087, 51.176842], [-1.840746, 51.176617], [-1.840648, 51.176466], [-1.8406, 51.176392], [-1.840432, 51.176167], [-1.840292, 51.176007], [-1.840237, 51.175941], [-1.840018, 51.175716], [-1.839936, 51.175642], [-1.839775, 51.175491], [-1.839579, 51.175326], [-1.839509, 51.175266], [-1.839223, 51.175046], [-1.839216, 51.175041], [-1.838868, 51.174816], [-1.838866, 51.174814], [-1.838509, 51.174635], [-1.838391, 51.17459], [-1.838152, 51.174503], [-1.837794, 51.174413], [-1.837469, 51.174364], [-1.837437, 51.174359], [-1.837079, 51.174337], [-1.836722, 51.174344], [-1.836528, 51.174363], [-1.836364, 51.174379], [-1.836006, 51.174441], [-1.835648, 51.174528], [-1.835452, 51.174586], [-1.83529, 51.174638], [-1.834932, 51.174768], [-1.834822, 51.17481], [-1.834574, 51.174911], [-1.834283, 51.175034], [-1.834216, 51.175065], [-1.833858, 51.175231], [-1.833801, 51.175258], [-1.833499, 51.175409], [-1.833353, 51.175482], [-1.833141, 51.175593], [-1.832915, 51.175706], [-1.832783, 51.175774], [-1.832452, 51.175931], [-1.832425, 51.175944], [-1.832066, 51.176103], [-1.831947, 51.176155], [-1.831708, 51.176258], [-1.831418, 51.176379], [-1.83135, 51.176407], [-1.830992, 51.176554], [-1.830871, 51.176603], [-1.830634, 51.176698], [-1.830308, 51.176827], [-1.830276, 51.176839], [-1.829918, 51.176978], [-1.829727, 51.177051], [-1.829559, 51.177114], [-1.829201, 51.177248], [-1.829127, 51.177275], [-1.828843, 51.177378], [-1.828506, 51.177498], [-1.828485, 51.177506], [-1.828127, 51.177631], [-1.827859, 51.177722], [-1.827769, 51.177753], [-1.827411, 51.177872]]}}, {"type": "Feature", "properties": {"rockhead_m_od": 105.0, "label": "105 m OD"}, "geometry": {"type": "LineString", "coordinates": [[-1.81997, 51.179686], [-1.819893, 51.179699], [-1.819678, 51.179733]]}}, {"type": "Feature", "properties": {"rockhead_m_od": 105.0, "label": "105 m OD"}, "geometry": {"type": "LineString", "coordinates": [[-1.819488, 51.179763], [-1.819178, 51.179811], [-1.81882, 51.179863], [-1.818462, 51.179913], [-1.818141, 51.179956], [-1.818104, 51.179961], [-1.817746, 51.180006], [-1.817388, 51.18005], [-1.81703, 51.180091], [-1.816673, 51.180131], [-1.816315, 51.180168], [-1.816224, 51.180177]]}}, {"type": "Feature", "properties": {"rockhead_m_od": 105.0, "label": "105 m OD"}, "geometry": {"type": "LineString", "coordinates": [[-1.745886, 51.180476], [-1.745855, 51.180435], [-1.745733, 51.18027], [-1.745566, 51.180045], [-1.7455, 51.179957], [-1.745402, 51.17982], [-1.745241, 51.179595], [-1.745145, 51.179462], [-1.745082, 51.17937], [-1.744929, 51.179145], [-1.74479, 51.178941], [-1.744777, 51.17892], [-1.744633, 51.178694], [-1.744493, 51.178469], [-1.744436, 51.178377], [-1.74436, 51.178244], [-1.744236, 51.178019], [-1.744119, 51.177794], [-1.744082, 51.177718], [-1.744014, 51.177569], [-1.743918, 51.177344], [-1.743832, 51.177119], [-1.743754, 51.176894], [-1.743729, 51.176821], [-1.743679, 51.176669], [-1.743605, 51.176444], [-1.743531, 51.176219], [-1.743459, 51.175994], [-1.743389, 51.175769], [-1.743378, 51.175731], [-1.743319, 51.175544], [-1.743251, 51.175319], [-1.743182, 51.175095], [-1.743111, 51.17487], [-1.743036, 51.174645], [-1.743026, 51.174617], [-1.742957, 51.17442], [-1.742873, 51.174195], [-1.742784, 51.17397], [-1.74269, 51.173745], [-1.742674, 51.173707], [-1.742591, 51.17352], [-1.742487, 51.173295], [-1.742378, 51.17307], [-1.74232, 51.172953], [-1.742265, 51.172844]]}}, {"type": "Feature", "properties": {"rockhead_m_od": 105.0, "label": "105 m OD"}, "geometry": {"type": "LineString", "coordinates": [[-1.802011, 51.18105], [-1.802005, 51.18105], [-1.801966, 51.181053], [-1.801647, 51.18108], [-1.801289, 51.181111], [-1.800931, 51.181145], [-1.800574, 51.181181], [-1.800216, 51.18122], [-1.799858, 51.181261], [-1.799748, 51.181274], [-1.7995, 51.181306], [-1.799142, 51.181353], [-1.798784, 51.181403], [-1.798426, 51.181455], [-1.798146, 51.181497], [-1.798069, 51.181508], [-1.797711, 51.181564], [-1.797353, 51.18162], [-1.796995, 51.181677], [-1.796723, 51.181719], [-1.796637, 51.181733], [-1.796279, 51.181791], [-1.795921, 51.181849], [-1.795563, 51.181908], [-1.79537, 51.181941], [-1.795205, 51.181971], [-1.794847, 51.18204], [-1.794489, 51.182114], [-1.794273, 51.182164], [-1.794131, 51.182199], [-1.793773, 51.182296], [-1.793472, 51.182388]]}}, {"type": "Feature", "properties": {"rockhead_m_od": 105.0, "label": "105 m OD"}, "geometry": {"type": "LineString", "coordinates": [[-1.864492, 51.195754], [-1.864195, 51.195842], [-1.863837, 51.195954], [-1.863763, 51.195978], [-1.863479, 51.196073], [-1.86312, 51.1962], [-1.863114, 51.196202], [-1.862762, 51.196334], [-1.862527, 51.196426], [-1.862404, 51.196476], [-1.862046, 51.196626], [-1.86199, 51.196651], [-1.861688, 51.196784], [-1.861489, 51.196875], [-1.861329, 51.19695], [-1.86102, 51.197099], [-1.860971, 51.197123], [-1.860613, 51.197302], [-1.860568, 51.197323], [-1.860254, 51.197483], [-1.860124, 51.197548], [-1.859896, 51.197664], [-1.859677, 51.197772], [-1.859538, 51.197842], [-1.859207, 51.197996], [-1.859179, 51.198009], [-1.858821, 51.198162], [-1.858664, 51.19822], [-1.858463, 51.198295], [-1.858105, 51.198407], [-1.857961, 51.198444], [-1.857747, 51.198498], [-1.857389, 51.198567], [-1.857031, 51.198617], [-1.856673, 51.19865], [-1.856315, 51.198667], [-1.85628, 51.198667], [-1.855957, 51.198668], [-1.855916, 51.198666], [-1.855599, 51.198655], [-1.855242, 51.198628]]}}, {"type": "Feature", "properties": {"rockhead_m_od": 110.0, "label": "110 m OD"}, "geometry": {"type": "LineString", "coordinates": [[-1.901899, 51.168591], [-1.902177, 51.168726], [-1.902354, 51.168816], [-1.902534, 51.168904], [-1.902803, 51.169041], [-1.902891, 51.169085], [-1.903243, 51.169266], [-1.903248, 51.169269], [-1.903605, 51.169453], [-1.903677, 51.169492], [-1.903962, 51.169638], [-1.904111, 51.169717], [-1.90432, 51.169822], [-1.904557, 51.169942], [-1.904677, 51.169999], [-1.905034, 51.170166], [-1.905036, 51.170167], [-1.905391, 51.170313], [-1.905607, 51.170392], [-1.905749, 51.170443], [-1.906106, 51.170556], [-1.906316, 51.170618], [-1.906463, 51.170661], [-1.906821, 51.170765], [-1.907085, 51.170843], [-1.907178, 51.170872], [-1.907536, 51.170982]]}}, {"type": "Feature", "properties": {"rockhead_m_od": 110.0, "label": "110 m OD"}, "geometry": {"type": "LineString", "coordinates": [[-1.860876, 51.168549], [-1.860818, 51.168774], [-1.860756, 51.168999], [-1.860697, 51.169202], [-1.860692, 51.169224], [-1.860634, 51.169448], [-1.860578, 51.169673], [-1.860531, 51.169898], [-1.8605, 51.170123], [-1.860501, 51.170347], [-1.86055, 51.170572], [-1.860662, 51.170797], [-1.860692, 51.170837], [-1.860873, 51.171022], [-1.861049, 51.171155], [-1.861208, 51.171247], [-1.861406, 51.17134], [-1.861763, 51.171466], [-1.861791, 51.171473], [-1.862121, 51.171546], [-1.862478, 51.171601], [-1.862835, 51.171636], [-1.863193, 51.171652], [-1.863551, 51.171652], [-1.863908, 51.171637], [-1.864266, 51.17161], [-1.864624, 51.17157], [-1.864981, 51.17152], [-1.865233, 51.171477], [-1.865339, 51.171458], [-1.865697, 51.171383], [-1.866055, 51.1713], [-1.866236, 51.171253], [-1.866413, 51.171205], [-1.866771, 51.171101], [-1.867007, 51.171029], [-1.867128, 51.17099], [-1.867486, 51.170875], [-1.867654, 51.170805], [-1.867844, 51.170711], [-1.868045, 51.170581], [-1.868203, 51.170464], [-1.868334, 51.170356], [-1.868561, 51.170163], [-1.868595, 51.170132], [-1.868835, 51.169907], [-1.86892, 51.169829], [-1.86907, 51.169683], [-1.869278, 51.169487], [-1.869308, 51.169458], [-1.869546, 51.169234], [-1.869637, 51.169152], [-1.869794, 51.169009], [-1.869995, 51.168838], [-1.870058, 51.168785], [-1.870339, 51.16856]]}}, {"type": "Feature", "properties": {"rockhead_m_od": 110.0, "label": "110 m OD"}, "geometry": {"type": "LineString", "coordinates": [[-1.834156, 51.179782], [-1.833841, 51.1798], [-1.833484, 51.179839], [-1.833126, 51.17989], [-1.832768, 51.17995], [-1.832622, 51.179977]]}}, {"type": "Feature", "properties": {"rockhead_m_od": 110.0, "label": "110 m OD"}, "geometry": {"type": "LineString", "coordinates": [[-1.743776, 51.180673], [-1.743708, 51.180554], [-1.743673, 51.180491], [-1.74355, 51.180266], [-1.743432, 51.180041], [-1.743354, 51.179889], [-1.743318, 51.179816], [-1.74321, 51.179591], [-1.743108, 51.179366], [-1.743011, 51.179141], [-1.743001, 51.179115], [-1.742921, 51.178916], [-1.742837, 51.178691], [-1.74276, 51.178466], [-1.74269, 51.178241], [-1.742649, 51.178095], [-1.742627, 51.178016], [-1.742569, 51.177791], [-1.742516, 51.177566], [-1.742467, 51.177341], [-1.742416, 51.177116], [-1.742357, 51.176891], [-1.742299, 51.176734], [-1.742272, 51.176666], [-1.742158, 51.176441], [-1.742034, 51.176216], [-1.741945, 51.176056], [-1.741906, 51.175991], [-1.741774, 51.175766], [-1.741644, 51.175541], [-1.741591, 51.175447]]}}, {"type": "Feature", "properties": {"rockhead_m_od": 110.0, "label": "110 m OD"}, "geometry": {"type": "LineString", "coordinates": [[-1.86775, 51.19732], [-1.867684, 51.197332], [-1.86741, 51.197378], [-1.867052, 51.197444], [-1.866694, 51.197517], [-1.866521, 51.197555], [-1.866336, 51.197595], [-1.865978, 51.197681], [-1.86562, 51.197774], [-1.865605, 51.197779], [-1.865262, 51.197875], [-1.864904, 51.197985], [-1.864852, 51.198003], [-1.864546, 51.198104], [-1.864209, 51.198227], [-1.864188, 51.198234], [-1.86383, 51.198375], [-1.863654, 51.198451], [-1.863471, 51.198529], [-1.863163, 51.198675], [-1.863113, 51.198698], [-1.862755, 51.198884], [-1.862727, 51.198899], [-1.862396, 51.199088], [-1.862337, 51.199124], [-1.862038, 51.19931], [-1.861981, 51.199348], [-1.861679, 51.199555], [-1.861655, 51.199573], [-1.861363, 51.199797], [-1.861321, 51.199832], [-1.861094, 51.200022], [-1.860962, 51.20014], [-1.860827, 51.200246], [-1.860603, 51.200407], [-1.860493, 51.20047], [-1.860245, 51.200597], [-1.860026, 51.200695], [-1.859887, 51.200755], [-1.859528, 51.200893], [-1.859452, 51.200919], [-1.85917, 51.201014], [-1.858812, 51.201122], [-1.858733, 51.201143], [-1.858454, 51.201217], [-1.858096, 51.201301], [-1.857779, 51.201366]]}}, {"type": "Feature", "properties": {"rockhead_m_od": 115.0, "label": "115 m OD"}, "geometry": {"type": "LineString", "coordinates": [[-1.903398, 51.168592], [-1.903607, 51.168704], [-1.903814, 51.168817], [-1.903964, 51.168898], [-1.904227, 51.169042], [-1.904321, 51.169094], [-1.90464, 51.169268], [-1.904678, 51.169288], [-1.905036, 51.169479], [-1.905062, 51.169493], [-1.905393, 51.169658], [-1.905524, 51.169718], [-1.90575, 51.169811], [-1.906107, 51.169931], [-1.906161, 51.169943], [-1.906465, 51.170008], [-1.906822, 51.170096], [-1.907096, 51.170169], [-1.90718, 51.17019], [-1.907537, 51.170285]]}}, {"type": "Feature", "properties": {"rockhead_m_od": 115.0, "label": "115 m OD"}, "geometry": {"type": "LineString", "coordinates": [[-1.868836, 51.199315], [-1.868478, 51.199346], [-1.868386, 51.199356], [-1.86812, 51.199382], [-1.867762, 51.199423], [-1.867404, 51.199468], [-1.867047, 51.199518], [-1.866689, 51.199574], [-1.866665, 51.199578], [-1.866331, 51.199637], [-1.865973, 51.199705], [-1.865615, 51.19978], [-1.865517, 51.199802], [-1.865256, 51.199862], [-1.864898, 51.199952], [-1.864628, 51.200026], [-1.86454, 51.20005], [-1.864182, 51.200158], [-1.863905, 51.20025], [-1.863824, 51.200277], [-1.863466, 51.200412], [-1.86332, 51.200474], [-1.863108, 51.200573], [-1.862887, 51.200698], [-1.862749, 51.200794], [-1.862601, 51.200922], [-1.86239, 51.201112], [-1.862355, 51.201147], [-1.862115, 51.201372]]}}, {"type": "Feature", "properties": {"kind": "measured_point", "id": "R7-BH1", "rockhead_m_od": 75.91, "label": "R7-BH1 75.9 m OD"}, "geometry": {"type": "Point", "coordinates": [-1.898293, 51.171986]}}, {"type": "Feature", "properties": {"kind": "measured_point", "id": "R7-BH6", "rockhead_m_od": 71.08, "label": "R7-BH6 71.1 m OD"}, "geometry": {"type": "Point", "coordinates": [-1.898291, 51.171371]}}, {"type": "Feature", "properties": {"kind": "measured_point", "id": "R7-BH4", "rockhead_m_od": 71.33, "label": "R7-BH4 71.3 m OD"}, "geometry": {"type": "Point", "coordinates": [-1.898288, 51.17154]}}, {"type": "Feature", "properties": {"kind": "measured_point", "id": "R7-BH5", "rockhead_m_od": 71.11, "label": "R7-BH5 71.1 m OD"}, "geometry": {"type": "Point", "coordinates": [-1.898285, 51.171455]}}, {"type": "Feature", "properties": {"kind": "measured_point", "id": "R7-BH3", "rockhead_m_od": 71.75, "label": "R7-BH3 71.8 m OD"}, "geometry": {"type": "Point", "coordinates": [-1.898284, 51.17163]}}, {"type": "Feature", "properties": {"kind": "measured_point", "id": "R7-BH2", "rockhead_m_od": 72.53, "label": "R7-BH2 72.5 m OD"}, "geometry": {"type": "Point", "coordinates": [-1.898282, 51.171808]}}, {"type": "Feature", "properties": {"kind": "measured_point", "id": "STPES3", "rockhead_m_od": 70.11, "label": "STPES3 70.1 m OD"}, "geometry": {"type": "Point", "coordinates": [-1.782005, 51.177649]}}, {"type": "Feature", "properties": {"kind": "measured_point", "id": "TP-E", "rockhead_m_od": 96.64, "label": "TP-E 96.6 m OD"}, "geometry": {"type": "Point", "coordinates": [-1.748041, 51.175823]}}]}
